Year,m,d,Time,Time zone,Cloud amount (1/8),Pressure (msl) (hPa),Precipitation amount (mm),Relative humidity (%),Precipitation intensity (mm/h),Snow depth (cm),Air temperature (degC),Dew-point temperature (degC),Horizontal visibility (m),Wind direction (deg),Gust speed (m/s),Wind speed (m/s)
2012,12,31,00:00,UTC,8,995.8,0.8,99,2,32,-0.6,-0.7,1150,150,4.4,2.2
2012,12,31,01:00,UTC,8,995.2,1,99,0.5,30,-0.4,-0.5,1630,159,4.6,2.1
2012,12,31,02:00,UTC,8,994.9,0.6,99,0.7,32,-0.3,-0.4,2000,159,3.7,2
2012,12,31,03:00,UTC,8,994.6,0.2,99,0,32,-0.2,-0.4,5100,151,3.5,1.8
2012,12,31,04:00,UTC,8,994.5,-1,99,0,32,-0.1,-0.2,11590,152,2.7,1.3
2012,12,31,05:00,UTC,8,994.3,-1,99,0,32,0.1,-0.1,1160,146,2.4,1.3
2012,12,31,06:00,UTC,8,994.1,-1,99,0,32,0.1,0,1100,152,3.2,1.8
2012,12,31,07:00,UTC,8,994.4,0.8,99,0,32,0.2,0.1,14630,169,2.6,1.1
2012,12,31,08:00,UTC,8,994.7,-1,99,0,32,0.4,0.3,28640,179,4,1.6
2012,12,31,09:00,UTC,8,995,-1,99,0,32,0.4,0.3,38570,171,2.8,1.4
2012,12,31,10:00,UTC,8,995,-1,99,0,32,0.5,0.4,34600,184,4.9,2.4
2012,12,31,11:00,UTC,8,995.2,-1,99,0,32,0.4,0.3,9740,163,2.4,1.1
2012,12,31,12:00,UTC,8,995.5,-1,99,0,32,0.4,0.3,31970,170,3.7,1.6
2012,12,31,13:00,UTC,8,995.6,-1,99,0,32,0.3,0.2,46740,167,3.9,2
2012,12,31,14:00,UTC,8,995.8,-1,99,0,32,0.1,-0.1,7830,171,3.8,1.6
2012,12,31,15:00,UTC,7,995.9,-1,98,0,32,0.2,0,26590,170,4.1,2
2012,12,31,16:00,UTC,8,995.6,-1,98,0,32,0,-0.3,21500,139,3.3,1.9
2012,12,31,17:00,UTC,8,995.5,-1,99,0,32,0,-0.2,2680,146,4.1,2.1
2012,12,31,18:00,UTC,8,995.4,0.3,99,1.5,32,0.1,-0.1,2900,151,5.7,2.7
2012,12,31,19:00,UTC,8,995.4,0.2,99,0,31,0.2,0,2190,154,4.3,2.2
2012,12,31,20:00,UTC,8,995.4,-1,99,0,32,0.4,0.3,3590,158,5.4,2.7
2012,12,31,21:00,UTC,7,995.3,0.2,99,0,32,0.6,0.4,8880,161,5.3,2.8
2012,12,31,22:00,UTC,8,995.1,-1,98,0,32,0.6,0.4,8080,154,6,3
2012,12,31,23:00,UTC,8,995,-1,98,0,32,0.7,0.4,5030,153,4.9,2.8
2013,1,1,00:00,UTC,8,994.4,-1,98,0,32,0.6,0.3,3860,151,6,3
2013,1,1,01:00,UTC,8,994.1,0.2,99,0,32,0.6,0.4,3190,149,6.1,3.3
2013,1,1,02:00,UTC,8,993.1,0.1,98,0.9,32,0.6,0.4,7970,143,7,3.7
2013,1,1,03:00,UTC,8,992.3,0.3,98,0.5,31,0.4,0.2,3190,138,6.2,3.5
2013,1,1,04:00,UTC,8,991.5,0.7,99,0.8,31,0.3,0.1,2990,136,8.4,3.9
2013,1,1,05:00,UTC,8,990.8,0.3,99,0,31,0.5,0.3,4870,147,9.4,4.2
2013,1,1,06:00,UTC,8,990.5,0.2,98,0.3,31,0.4,0.1,5010,147,6.8,3.4
2013,1,1,07:00,UTC,8,990.2,0.3,98,0.8,31,0.4,0.1,2820,146,7.3,3.7
2013,1,1,08:00,UTC,8,989.8,1.2,99,1.3,32,0.2,0,1910,140,5.1,2.7
2013,1,1,09:00,UTC,8,989.5,1.1,99,1.1,32,0.1,0,1740,141,6,3
2013,1,1,10:00,UTC,8,989.2,1.6,99,2,33,0.2,0,1540,146,5.9,2.9
2013,1,1,11:00,UTC,8,989.1,0.8,99,0.8,34,0.2,0.1,3780,150,5.5,2.7
2013,1,1,12:00,UTC,8,989.2,0.4,99,0.4,34,0.7,0.6,2010,160,4.3,2
2013,1,1,13:00,UTC,8,989.4,-1,99,0,33,1.6,1.5,2370,164,6.2,2.5
2013,1,1,14:00,UTC,8,989.7,0.3,99,0.3,33,1.9,1.8,7450,168,5,2.6
2013,1,1,15:00,UTC,8,989.9,0.2,99,0,32,2.1,1.9,9160,169,4.9,2.5
2013,1,1,16:00,UTC,8,990.3,-1,99,0,32,2.1,2,7830,169,4.3,2.2
2013,1,1,17:00,UTC,8,990.6,-1,99,0,31,2.1,2,8000,165,4.4,2.1
2013,1,1,18:00,UTC,8,991,0.3,99,0.3,31,2.1,2,3710,161,3.6,1.7
2013,1,1,19:00,UTC,8,991.5,0.1,99,0,31,2.3,2.2,26580,168,5.3,2.1
2013,1,1,20:00,UTC,8,992.3,-1,99,0,31,2.1,2,50000,173,4.9,2
2013,1,1,21:00,UTC,8,993.1,-1,99,0,30,1.8,1.7,33160,197,5.4,2.3
2013,1,1,22:00,UTC,8,993.5,-1,99,0,30,1.6,1.5,9430,181,3.3,1.5
2013,1,1,23:00,UTC,8,994.1,-1,98,0,30,1.3,1,13390,194,4,1.6
2013,1,2,00:00,UTC,8,994.2,-1,97,0,29,1.2,0.8,46180,190,4.4,2
2013,1,2,01:00,UTC,8,994.8,-1,98,0,29,0.9,0.6,28050,172,2.5,1.4
2013,1,2,02:00,UTC,8,995.3,-1,98,0,29,0.9,0.6,27050,182,3.1,1.3
2013,1,2,03:00,UTC,8,995.6,-1,98,0,29,0.6,0.4,13350,170,2.9,1.3
2013,1,2,04:00,UTC,7,996,-1,98,0,29,0.4,0.1,6340,173,3.8,1.6
2013,1,2,05:00,UTC,8,996.3,0.2,98,0,29,0.3,0,8780,161,2.2,1.2
2013,1,2,06:00,UTC,7,996.6,-1,97,0,29,0.3,-0.1,19440,190,2.2,1.2
2013,1,2,07:00,UTC,7,997.1,-1,98,0,29,0.2,-0.1,2900,169,2.7,1.2
2013,1,2,08:00,UTC,7,997.5,-1,98,0,29,0.1,-0.2,2270,157,1.8,1
2013,1,2,09:00,UTC,7,997.9,0.2,98,0,29,0.2,-0.1,1830,189,3.2,1.8
2013,1,2,10:00,UTC,7,998.1,0.2,98,0,29,0.2,-0.1,1870,188,2.5,1.3
2013,1,2,11:00,UTC,7,998.1,0.1,98,0,28,0.2,-0.1,2150,184,1.9,1
2013,1,2,12:00,UTC,7,998.2,-1,98,0,28,0.2,-0.1,9420,194,2.2,1.1
2013,1,2,13:00,UTC,7,998.6,-1,97,0,28,0.2,-0.3,29690,201,3.1,1.3
2013,1,2,14:00,UTC,7,999.1,-1,97,0,28,0,-0.5,32620,222,3.1,1.1
2013,1,2,15:00,UTC,7,999.4,-1,97,0,28,-0.2,-0.7,2430,213,2.9,1.4
2013,1,2,16:00,UTC,7,999.5,0.2,97,0,28,-0.3,-0.7,19450,170,2.1,1.3
2013,1,2,17:00,UTC,7,999.7,-1,97,0,28,-0.4,-0.9,19350,196,1.7,0.8
2013,1,2,18:00,UTC,7,999.8,-1,97,0,28,-0.3,-0.8,28990,199,2.7,1.3
2013,1,2,19:00,UTC,7,999.7,-1,96,0,28,-0.5,-1,10160,201,2.2,1.2
2013,1,2,20:00,UTC,7,999.7,-1,97,0,29,-0.5,-0.9,28810,208,3.6,2
2013,1,2,21:00,UTC,7,999.7,-1,97,0,29,-0.4,-0.8,12170,200,4,2.2
2013,1,2,22:00,UTC,7,999.8,-1,97,0,28,-0.3,-0.8,35800,216,3.2,1.4
2013,1,2,23:00,UTC,7,999.8,-1,97,0,28,-0.2,-0.6,22640,229,2.8,1.3
2013,1,3,00:00,UTC,7,999.7,-1,97,0,28,-0.2,-0.6,36740,244,2.8,1.2
2013,1,3,01:00,UTC,7,999.6,-1,97,0,28,-0.2,-0.6,37080,250,3.3,1.8
2013,1,3,02:00,UTC,7,999.5,-1,97,0,28,-0.2,-0.7,18990,246,3,1.2
2013,1,3,03:00,UTC,7,999.5,-1,97,0,28,-0.3,-0.8,10580,268,3.5,1.8
2013,1,3,04:00,UTC,7,999.7,-1,95,0,28,-0.4,-1.1,29390,283,4.5,2.9
2013,1,3,05:00,UTC,7,999.9,-1,95,0,28,-0.5,-1.2,23060,283,4.8,2.5
2013,1,3,06:00,UTC,7,999.9,-1,96,0,28,-0.5,-1.1,50000,283,4,1.9
2013,1,3,07:00,UTC,7,1000,-1,96,0,28,-0.5,-1.2,18680,272,3.2,1.5
2013,1,3,08:00,UTC,7,1000.4,-1,95,0,28,-0.5,-1.3,43150,289,4.3,2.6
2013,1,3,09:00,UTC,7,1000.4,-1,90,0,28,-0.8,-2.2,44430,293,5.1,3.6
2013,1,3,10:00,UTC,7,1000.2,-1,88,0,28,-1,-2.7,50000,276,3.6,1.5
2013,1,3,11:00,UTC,7,1000.2,-1,81,0,28,-1.2,-4.1,50000,296,3.3,1.6
2013,1,3,12:00,UTC,8,1000.6,-1,88,0,28,-1.5,-3.2,18750,254,2.5,1.3
2013,1,3,13:00,UTC,8,1000.8,-1,88,0,27,-1.8,-3.5,37540,239,2.5,1.2
2013,1,3,14:00,UTC,8,1000.9,-1,87,0,27,-1.8,-3.6,50000,230,4.2,2
2013,1,3,15:00,UTC,8,1000.9,-1,93,0,28,-2.1,-3.2,2760,257,1.6,0.8
2013,1,3,16:00,UTC,8,1001.1,0.2,87,0,28,-2.3,-4.1,41450,221,4.3,2
2013,1,3,17:00,UTC,8,1000.8,-1,90,0,28,-2.5,-4,9810,216,2.2,1.1
2013,1,3,18:00,UTC,8,1000.8,-1,90,0,28,-2.5,-3.9,50000,157,1.7,0.6
2013,1,3,19:00,UTC,8,1000.7,-1,92,0,28,-2.6,-3.8,50000,127,1.3,0.9
2013,1,3,20:00,UTC,8,1000.9,-1,92,0,28,-2.5,-3.6,50000,149,1.4,1
2013,1,3,21:00,UTC,8,1000.9,-1,93,0,28,-2.4,-3.4,46500,150,2.5,1.3
2013,1,3,22:00,UTC,8,1001.3,-1,94,0,28,-2.3,-3.2,49810,147,2,1.1
2013,1,3,23:00,UTC,8,1001.2,-1,94,0,28,-2.1,-3,50000,160,3,1.5
2013,1,4,00:00,UTC,8,1001,-1,94,0,28,-2,-2.8,10660,177,2.8,1.5
2013,1,4,01:00,UTC,8,1001.3,-1,95,0,28,-1.9,-2.6,36270,176,3.2,1.4
2013,1,4,02:00,UTC,8,1001.4,-1,96,0,28,-1.9,-2.5,17740,184,3.1,1.8
2013,1,4,03:00,UTC,8,1001.5,-1,96,0,28,-2,-2.6,20610,207,4.5,2.5
2013,1,4,04:00,UTC,8,1001.6,-1,96,0,28,-2.1,-2.6,7990,193,2.7,1.5
2013,1,4,05:00,UTC,8,1002,-1,96,0,28,-2.2,-2.8,24050,151,2.2,0.9
2013,1,4,06:00,UTC,8,1002.2,-1,96,0,28,-2.2,-2.7,42080,118,2,1.5
2013,1,4,07:00,UTC,8,1002.4,-1,97,0,28,-2.2,-2.6,1410,140,1.7,0.9
2013,1,4,08:00,UTC,8,1002.5,0.2,98,0,29,-2.1,-2.4,3640,122,1.4,0.7
2013,1,4,09:00,UTC,8,1002.7,-1,98,0,29,-1.7,-2,1940,134,2,1.1
2013,1,4,10:00,UTC,8,1002.9,0.1,98,0.9,29,-1.6,-1.8,2860,163,1.5,0.8
2013,1,4,11:00,UTC,8,1003.3,-1,98,0,29,-1.4,-1.6,2040,29,0.9,0.8
2013,1,4,12:00,UTC,8,1003.6,0.3,98,0.2,29,-1.4,-1.6,3210,69,2.1,1.4
2013,1,4,13:00,UTC,8,1004.3,0.1,98,0.8,29,-1.5,-1.8,1750,7,2.7,1.9
2013,1,4,14:00,UTC,8,1005,0.3,97,0,29,-1.6,-2,1620,13,3.2,2.3
2013,1,4,15:00,UTC,8,1006,0.4,97,0,30,-1.8,-2.2,2400,5,5,3.9
2013,1,4,16:00,UTC,8,1007.1,0.2,96,0,30,-2.2,-2.7,3830,3,5.8,4.1
2013,1,4,17:00,UTC,8,1008.6,-1,96,0,30,-2.4,-3,9240,4,6.7,4.6
2013,1,4,18:00,UTC,8,1009.7,-1,95,0,31,-2.6,-3.2,8220,352,7.6,5.3
2013,1,4,19:00,UTC,8,1010.9,-1,93,0,31,-3.1,-4,50000,345,10.1,7.2
2013,1,4,20:00,UTC,8,1012,-1,92,0,31,-3.5,-4.6,50000,349,8.5,6
2013,1,4,21:00,UTC,8,1012.9,-1,90,0,31,-3.5,-4.8,50000,348,7.8,5
2013,1,4,22:00,UTC,8,1013.7,-1,91,0,30,-3.7,-4.9,50000,339,8.8,6.2
2013,1,4,23:00,UTC,7,1014.7,-1,91,0,30,-4.1,-5.4,50000,329,8,6
2013,1,5,00:00,UTC,5,1015.6,-1,91,0,31,-4.8,-6,50000,332,8.4,6.6
2013,1,5,01:00,UTC,1,1016.9,-1,91,0,31,-6.8,-8.1,50000,328,7.2,5.1
2013,1,5,02:00,UTC,0,1017.3,-1,96,0,31,-7.9,-8.5,50000,311,5.3,4.5
2013,1,5,03:00,UTC,0,1017.7,-1,92,0,31,-8.3,-9.3,50000,304,6.1,5
2013,1,5,04:00,UTC,7,1018,-1,94,0,31,-7.7,-8.4,50000,311,5.7,4.7
2013,1,5,05:00,UTC,7,1018.3,-1,93,0,31,-5.9,-6.9,50000,306,6.7,4.6
2013,1,5,06:00,UTC,8,1018.8,-1,92,0,31,-5.5,-6.6,50000,313,8.8,6.6
2013,1,5,07:00,UTC,8,1019.1,-1,92,0,32,-5.4,-6.5,50000,314,7.1,5.2
2013,1,5,08:00,UTC,7,1019.4,-1,91,0,31,-5,-6.2,50000,309,8.2,5.7
2013,1,5,09:00,UTC,8,1019.7,-1,92,0,31,-4.5,-5.7,48340,312,10.6,6.7
2013,1,5,10:00,UTC,8,1019.8,-1,92,0,31,-4.2,-5.3,50000,312,8.4,5.7
2013,1,5,11:00,UTC,7,1020.1,-1,91,0,31,-3.8,-5.1,26530,311,8.5,6.2
2013,1,5,12:00,UTC,7,1020.1,-1,90,0,30,-4.5,-5.9,39920,315,6.4,4.8
2013,1,5,13:00,UTC,8,1020.5,-1,91,0,30,-4.6,-5.9,50000,325,4.5,3.2
2013,1,5,14:00,UTC,8,1020.6,-1,91,0,30,-4.9,-6.2,50000,313,5.6,4.2
2013,1,5,15:00,UTC,5,1020.7,-1,92,0,30,-6.4,-7.5,50000,313,5.5,4.7
2013,1,5,16:00,UTC,3,1020.9,-1,92,0,30,-5.9,-7,50000,318,7.2,5.8
2013,1,5,17:00,UTC,7,1020.9,-1,92,0,30,-6.4,-7.5,49910,316,6.2,5
2013,1,5,18:00,UTC,5,1020.9,-1,93,0,30,-7,-8,50000,311,5.6,4.2
2013,1,5,19:00,UTC,1,1021,-1,92,0,30,-8.3,-9.4,50000,313,5.7,4.6
2013,1,5,20:00,UTC,3,1021,-1,93,0,30,-8.2,-9.2,50000,320,6.8,5.1
2013,1,5,21:00,UTC,5,1020.9,-1,92,0,30,-7.7,-8.8,50000,317,8,5.9
2013,1,5,22:00,UTC,5,1021.1,-1,94,0,30,-6.5,-7.4,50000,336,6,4.1
2013,1,5,23:00,UTC,7,1021.2,-1,93,0,30,-6.9,-7.8,40750,333,7.2,5.7
2013,1,6,00:00,UTC,8,1021.6,-1,95,0,30,-7.3,-8,47340,333,6,4.2
2013,1,6,01:00,UTC,5,1021.9,-1,92,0,30,-9.3,-10.3,48480,332,4,3.2
2013,1,6,02:00,UTC,7,1021.9,-1,92,0,30,-10.6,-11.6,47080,333,4.2,3.3
2013,1,6,03:00,UTC,7,1021.8,-1,93,0,30,-9.4,-10.4,39530,342,6,4.6
2013,1,6,04:00,UTC,5,1022.2,-1,92,0,30,-10,-11.1,49960,353,4.8,3
2013,1,6,05:00,UTC,8,1022.8,-1,92,0,30,-10.2,-11.2,16110,348,4.1,3
2013,1,6,06:00,UTC,8,1023.3,-1,93,0,30,-10.6,-11.4,7430,349,4,3.2
2013,1,6,07:00,UTC,8,1023.7,-1,92,0,30,-10.5,-11.5,7340,336,2.8,2.3
2013,1,6,08:00,UTC,8,1024.2,-1,92,0,30,-10.2,-11.2,5320,354,2.9,2.2
2013,1,6,09:00,UTC,8,1024.6,-1,92,0,30,-10,-11,7350,310,4.2,3.5
2013,1,6,10:00,UTC,8,1024.9,-1,91,0,30,-10,-11.2,6890,344,3.6,2.7
2013,1,6,11:00,UTC,8,1025,-1,91,0,30,-9.6,-10.8,6880,318,2.3,1.6
2013,1,6,12:00,UTC,8,1025.3,-1,92,0,30,-9.4,-10.5,6960,332,1.5,1.1
2013,1,6,13:00,UTC,8,1025.7,-1,92,0,30,-9.2,-10.2,4150,343,2.1,1.1
2013,1,6,14:00,UTC,8,1026,-1,93,0,30,-9.4,-10.4,5630,3,3.8,2.3
2013,1,6,15:00,UTC,8,1026.1,-1,92,0,30,-9.7,-10.7,8800,357,3.5,2
2013,1,6,16:00,UTC,8,1026.3,-1,92,0,30,-10,-11,2460,330,2.1,1.3
2013,1,6,17:00,UTC,8,1026.7,-1,92,0,30,-10.2,-11.2,3390,232,1.9,0.8
2013,1,6,18:00,UTC,8,1026.8,-1,91,0,30,-10.4,-11.6,2410,0,0.9,0
2013,1,6,19:00,UTC,8,1027.1,-1,91,0,30,-10.8,-12,2570,0,1.2,0
2013,1,6,20:00,UTC,8,1027.1,-1,91,0,30,-11,-12.2,3970,0,1.2,0
2013,1,6,21:00,UTC,8,1027.4,-1,90,0,30,-11.6,-12.9,6370,221,2.6,1.4
2013,1,6,22:00,UTC,7,1027.4,-1,89,0,30,-12.7,-14.2,3720,189,1.5,0.8
2013,1,6,23:00,UTC,7,1027.6,-1,89,0,30,-12.6,-14.1,2500,184,2.3,1.1
2013,1,7,00:00,UTC,8,1027.4,-1,90,0,30,-12.8,-14.1,2050,201,2.9,1.5
2013,1,7,01:00,UTC,8,1027.6,-1,89,0,30,-13.1,-14.5,4220,185,3.1,2
2013,1,7,02:00,UTC,7,1027.4,-1,88,0,30,-13.8,-15.4,4500,162,1.9,0.9
2013,1,7,03:00,UTC,3,1027.2,-1,88,0,30,-14.6,-16.2,9660,188,2.3,1.2
2013,1,7,04:00,UTC,1,1027.2,-1,86,0,30,-15.9,-17.6,19350,161,1.7,0.8
2013,1,7,05:00,UTC,8,1027,-1,87,0,30,-14.7,-16.4,7500,157,1.8,0.8
2013,1,7,06:00,UTC,8,1026.8,-1,88,0,30,-14,-15.6,10710,149,2.2,1.2
2013,1,7,07:00,UTC,8,1027,-1,88,0,30,-13.8,-15.4,12730,137,2.2,1.4
2013,1,7,08:00,UTC,8,1027.2,-1,89,0,30,-13,-14.5,11900,155,2.2,1.3
2013,1,7,09:00,UTC,8,1026.9,-1,89,0,30,-12.4,-13.8,11180,147,2.2,1.3
2013,1,7,10:00,UTC,7,1026.5,-1,90,0,30,-11.5,-12.9,4030,149,2.9,1.5
2013,1,7,11:00,UTC,8,1026,-1,90,0,30,-10.8,-12,7220,178,2.9,1.7
2013,1,7,12:00,UTC,8,1025.8,-1,91,0,30,-10.2,-11.4,5920,168,2.6,1.1
2013,1,7,13:00,UTC,8,1025.4,-1,91,0,30,-9.8,-11,7890,173,3.2,1.5
2013,1,7,14:00,UTC,8,1025.1,-1,92,0,30,-9.4,-10.4,7320,171,2.7,1.6
2013,1,7,15:00,UTC,8,1024.5,-1,92,0,30,-8.9,-9.9,5160,174,3.8,1.8
2013,1,7,16:00,UTC,8,1024.1,-1,92,0,30,-8.5,-9.5,3200,169,2.3,1.1
2013,1,7,17:00,UTC,7,1024,-1,93,0,30,-8.2,-9.2,15890,181,4.3,2
2013,1,7,18:00,UTC,7,1023.8,-1,93,0,30,-8.1,-9.1,13210,180,4.2,2.3
2013,1,7,19:00,UTC,7,1023.7,-1,93,0,30,-7.8,-8.8,8090,180,2.9,1.8
2013,1,7,20:00,UTC,7,1023.2,-1,93,0,30,-7.6,-8.5,5020,173,4,1.5
2013,1,7,21:00,UTC,7,1022.5,-1,94,0,30,-7.2,-8.1,3040,181,4.3,2
2013,1,7,22:00,UTC,7,1021.9,-1,94,0,30,-7,-7.8,3990,168,3,1.6
2013,1,7,23:00,UTC,7,1021.3,-1,94,0,30,-7,-7.8,2280,137,2.2,1.5
2013,1,8,00:00,UTC,7,1020.6,-1,94,0,30,-6.7,-7.4,1920,140,2.6,1.6
2013,1,8,01:00,UTC,7,1020.2,-1,95,0,30,-6.2,-6.9,2060,150,2.6,1.3
2013,1,8,02:00,UTC,7,1019.5,-1,95,0,30,-5.8,-6.5,2740,152,3,1.8
2013,1,8,03:00,UTC,7,1018.7,-1,95,0,30,-5.4,-6,2160,139,2.6,1.7
2013,1,8,04:00,UTC,7,1017.9,-1,96,0,30,-5,-5.6,1540,143,3.3,1.6
2013,1,8,05:00,UTC,7,1017.2,0.4,96,0.3,30,-4.7,-5.3,1210,138,2.9,1.5
2013,1,8,06:00,UTC,9,1016.8,0.4,96,1,31,-4.3,-4.8,790,145,3.2,1.8
2013,1,8,07:00,UTC,7,1016.5,0.9,97,0.3,33,-3.6,-4.1,3110,148,3.7,1.9
2013,1,8,08:00,UTC,7,1016.3,0.2,97,0.5,33,-3.5,-3.9,1400,144,3.7,2.1
2013,1,8,09:00,UTC,7,1016,-1,97,0,33,-3.2,-3.6,2780,144,3.4,1.8
2013,1,8,10:00,UTC,7,1015.6,0.2,98,0.9,33,-2.8,-3.1,1850,143,2.8,1.6
2013,1,8,11:00,UTC,9,1015.3,0.3,98,0.4,33,-2.6,-2.9,1490,148,3.7,1.7
2013,1,8,12:00,UTC,7,1014.8,0.2,98,0,34,-2.5,-2.8,6980,147,2.8,1.6
2013,1,8,13:00,UTC,7,1014.5,-1,98,0,36,-2.2,-2.5,7830,154,2.8,1.5
2013,1,8,14:00,UTC,7,1014.3,-1,98,0,34,-1.8,-2.1,20370,157,3.2,1.5
2013,1,8,15:00,UTC,7,1014.3,-1,98,0,34,-1.8,-2,23120,164,3.4,1.5
2013,1,8,16:00,UTC,7,1014.3,-1,98,0,34,-1.7,-1.9,23660,177,1.7,0.9
2013,1,8,17:00,UTC,7,1014,-1,99,0,34,-1.6,-1.8,3420,151,2.8,1.5
2013,1,8,18:00,UTC,7,1013.7,-1,99,0,34,-1.5,-1.7,5020,172,2.9,1.6
2013,1,8,19:00,UTC,7,1013.3,-1,99,0,34,-1.3,-1.5,6440,175,3.7,1.4
2013,1,8,20:00,UTC,7,1012.7,0.3,99,0.2,34,-1.4,-1.5,1660,176,3.4,1.4
2013,1,8,21:00,UTC,7,1012.3,0.1,99,0,34,-1.3,-1.5,2360,175,2.8,1.4
2013,1,8,22:00,UTC,7,1011.3,0.3,99,0.3,34,-1.2,-1.4,3180,181,4.1,2.3
2013,1,8,23:00,UTC,8,1010.9,-1,99,0,34,-1,-1.2,4210,191,3.3,1.5
2013,1,9,00:00,UTC,8,1010.5,-1,99,0,34,-1,-1.2,2450,203,2.9,1.4
2013,1,9,01:00,UTC,8,1009.6,0.3,99,0,34,-1,-1.2,2530,195,3.1,1.8
2013,1,9,02:00,UTC,8,1008.8,-1,99,0,34,-0.9,-1,4710,214,3.9,1.9
2013,1,9,03:00,UTC,8,1008,0.2,99,0,34,-1.1,-1.2,5910,233,4.4,1.8
2013,1,9,04:00,UTC,8,1007.5,0.2,99,0,34,-1.3,-1.5,2180,235,5.4,2.4
2013,1,9,05:00,UTC,7,1006.6,-1,99,0,34,-1.6,-1.8,9080,239,3.9,2
2013,1,9,06:00,UTC,8,1006.3,-1,99,0,34,-1.6,-1.8,7030,266,6.1,2.9
2013,1,9,07:00,UTC,7,1006,-1,98,0,34,-1.9,-2.2,24970,259,5,2.3
2013,1,9,08:00,UTC,7,1006,-1,98,0,34,-1.9,-2.2,48440,295,6.4,4
2013,1,9,09:00,UTC,8,1005.9,-1,97,0,34,-2.1,-2.4,14080,294,7,4.4
2013,1,9,10:00,UTC,7,1005.9,-1,95,0,34,-2.6,-3.3,34380,299,7.9,5.1
2013,1,9,11:00,UTC,8,1005.6,-1,96,0,34,-2.7,-3.2,38660,291,5.4,3.6
2013,1,9,12:00,UTC,7,1005.5,-1,95,0,34,-3.1,-3.8,30670,299,5.6,3.6
2013,1,9,13:00,UTC,8,1005.6,-1,94,0,34,-3.3,-4.1,45110,300,6.3,4.5
2013,1,9,14:00,UTC,8,1005.6,-1,92,0,34,-3.8,-4.9,41490,298,6,4.4
2013,1,9,15:00,UTC,8,1005.5,-1,92,0,34,-3.9,-5.1,44120,300,4.4,3.2
2013,1,9,16:00,UTC,7,1005.2,-1,93,0,34,-4.1,-5,25070,292,4.6,2.8
2013,1,9,17:00,UTC,8,1005.2,-1,94,0,34,-4,-4.9,29570,296,3.5,2.6
2013,1,9,18:00,UTC,8,1005,-1,93,0,34,-4.1,-5.1,37410,312,4.6,3.4
2013,1,9,19:00,UTC,8,1004.8,-1,92,0,34,-4.5,-5.6,46090,304,6,4.6
2013,1,9,20:00,UTC,8,1004.9,-1,93,0,34,-4.6,-5.6,46140,314,4.1,3.1
2013,1,9,21:00,UTC,8,1004.9,-1,94,0,34,-4.5,-5.4,22330,291,2.3,1.8
2013,1,9,22:00,UTC,8,1005,-1,93,0,34,-4.3,-5.3,11820,320,4.2,3.1
2013,1,9,23:00,UTC,8,1005,-1,93,0,34,-4.5,-5.5,18670,330,3.7,2.3
2013,1,10,00:00,UTC,8,1005.2,-1,95,0,34,-4.7,-5.3,7320,358,3.7,2.6
2013,1,10,01:00,UTC,8,1005.5,-1,93,0,35,-4.7,-5.7,10160,2,5.6,3.6
2013,1,10,02:00,UTC,7,1005.9,-1,89,0,35,-5.7,-7.2,50000,8,6.8,4.6
2013,1,10,03:00,UTC,7,1006.4,-1,91,0,35,-6.2,-7.5,50000,2,4.1,3.1
2013,1,10,04:00,UTC,8,1006.9,-1,92,0,34,-6.4,-7.5,22360,350,4.9,3.8
2013,1,10,05:00,UTC,8,1007.2,-1,91,0,34,-6.4,-7.6,20560,344,6.4,5
2013,1,10,06:00,UTC,8,1007.9,-1,92,0,34,-6,-7.1,11390,341,5.1,4
2013,1,10,07:00,UTC,8,1008.3,-1,92,0,34,-5.2,-6.3,28360,360,5.2,3.7
2013,1,10,08:00,UTC,8,1009.1,-1,90,0,34,-4.5,-5.9,42610,30,7.3,4.8
2013,1,10,09:00,UTC,8,1009.8,-1,88,0,34,-4.2,-5.8,14350,25,7.5,4.6
2013,1,10,10:00,UTC,7,1010.2,-1,88,0,34,-4.1,-5.8,31720,35,7.9,5.3
2013,1,10,11:00,UTC,8,1010.4,-1,90,0,34,-4.1,-5.6,16000,43,8.4,4.8
2013,1,10,12:00,UTC,8,1010.5,-1,91,0,34,-4.1,-5.4,12470,34,6,3.9
2013,1,10,13:00,UTC,8,1011.1,-1,86,0,34,-4.3,-6.3,19430,41,9.3,6.2
2013,1,10,14:00,UTC,8,1011.7,-1,86,0,34,-5,-7,28770,43,8.7,5.1
2013,1,10,15:00,UTC,8,1012.3,-1,85,0,33,-5.3,-7.4,33270,51,8,5.1
2013,1,10,16:00,UTC,8,1012.8,-1,86,0,33,-5.5,-7.5,28800,41,7.4,4.3
2013,1,10,17:00,UTC,8,1013.5,-1,87,0,33,-5.4,-7.2,43320,41,7,4.3
2013,1,10,18:00,UTC,7,1013.8,-1,87,0,33,-5.5,-7.3,21930,46,8.3,5
2013,1,10,19:00,UTC,8,1014.4,-1,87,0,34,-5.6,-7.4,27010,46,7.7,5
2013,1,10,20:00,UTC,8,1015.1,-1,87,0,34,-5.7,-7.5,15620,56,9.1,5.5
2013,1,10,21:00,UTC,8,1015.9,-1,86,0,33,-5.9,-7.9,28310,62,9,5.6
2013,1,10,22:00,UTC,8,1016.5,-1,88,0,33,-5.9,-7.6,50000,52,5.7,3.7
2013,1,10,23:00,UTC,8,1016.6,-1,87,0,33,-5.6,-7.4,15530,53,8,5
2013,1,11,00:00,UTC,8,1017,-1,87,0,33,-5.7,-7.5,23500,32,7.3,4.6
2013,1,11,01:00,UTC,8,1017.2,-1,88,0,33,-6,-7.7,24030,32,6.4,4.4
2013,1,11,02:00,UTC,8,1017.8,-1,87,0,33,-6.3,-8.1,39460,22,7.8,5.9
2013,1,11,03:00,UTC,8,1018.1,-1,85,0,32,-6.5,-8.6,32280,49,9.4,6.3
2013,1,11,04:00,UTC,8,1018.5,-1,86,0,32,-6.4,-8.5,47700,51,8,5.3
2013,1,11,05:00,UTC,8,1018.8,-1,85,0,32,-6.4,-8.5,50000,49,6.9,4
2013,1,11,06:00,UTC,8,1019.1,-1,85,0,33,-6.7,-8.8,50000,64,7.9,5.1
2013,1,11,07:00,UTC,8,1019.8,-1,85,0,33,-7,-9.1,50000,53,6.6,3.8
2013,1,11,08:00,UTC,8,1020.3,-1,85,0,33,-7.1,-9.1,50000,46,7.4,5.2
2013,1,11,09:00,UTC,8,1020.9,-1,89,0,33,-7.4,-9,44980,70,4.4,2.7
2013,1,11,10:00,UTC,8,1020.8,-1,85,0,33,-7.7,-9.8,32540,69,4.7,3.3
2013,1,11,11:00,UTC,8,1021,-1,88,0,33,-8.1,-9.7,41840,92,6.1,4.4
2013,1,11,12:00,UTC,8,1021.4,-1,88,0,33,-8.1,-9.7,50000,65,4.9,2.9
2013,1,11,13:00,UTC,8,1021.8,-1,89,0,33,-8.2,-9.7,46540,59,4.1,2.7
2013,1,11,14:00,UTC,8,1021.8,-1,91,0,33,-8.6,-9.9,50000,59,3.9,2.3
2013,1,11,15:00,UTC,8,1021.9,-1,92,0,33,-8.8,-9.9,50000,75,3.5,2.7
2013,1,11,16:00,UTC,8,1022.1,-1,93,0,33,-9.1,-10,50000,59,3.3,1.9
2013,1,11,17:00,UTC,8,1022.5,-1,94,0,33,-9.2,-10.1,50000,57,3.7,2.5
2013,1,11,18:00,UTC,8,1022.8,-1,93,0,33,-9.3,-10.2,50000,66,2.9,2
2013,1,11,19:00,UTC,8,1022.9,-1,94,0,33,-9.6,-10.4,42910,27,3.1,1.7
2013,1,11,20:00,UTC,7,1023.4,-1,93,0,33,-9.6,-10.5,34090,357,2.8,1.8
2013,1,11,21:00,UTC,8,1023.4,-1,93,0,32,-9.8,-10.8,9560,0,1,0
2013,1,11,22:00,UTC,8,1023.4,-1,92,0,33,-9.9,-10.9,23970,151,1.8,0.7
2013,1,11,23:00,UTC,8,1023.4,-1,92,0,32,-10.2,-11.2,15050,247,2.4,1.4
2013,1,12,00:00,UTC,8,1023.4,-1,92,0,33,-10.2,-11.3,6200,298,2.1,1.4
2013,1,12,01:00,UTC,8,1023.4,-1,91,0,32,-10.7,-11.8,27840,0,1,0
2013,1,12,02:00,UTC,8,1023.3,-1,91,0,33,-10.8,-12,37790,233,1.5,0.6
2013,1,12,03:00,UTC,8,1023.1,-1,91,0,32,-11.4,-12.6,28260,253,2.4,1.2
2013,1,12,04:00,UTC,7,1023.4,-1,90,0,32,-11.5,-12.8,3410,293,2.4,1.6
2013,1,12,05:00,UTC,7,1023.3,-1,90,0,32,-12.2,-13.5,15140,314,3.2,2.4
2013,1,12,06:00,UTC,7,1023.3,-1,89,0,32,-13,-14.5,7460,295,3.2,1.9
2013,1,12,07:00,UTC,1,1023.4,-1,88,0,32,-14.6,-16.2,26950,321,1.2,0.8
2013,1,12,08:00,UTC,1,1023.9,-1,86,0,32,-16.3,-18.1,2750,308,0.9,0.7
2013,1,12,09:00,UTC,1,1024,-1,86,0,32,-16.6,-18.4,20690,296,1.2,1
2013,1,12,10:00,UTC,1,1023.7,-1,87,0,32,-15.3,-17,880,332,1.2,1
2013,1,12,11:00,UTC,8,1024,-1,86,0,32,-15.3,-17.2,730,317,3.1,2.7
2013,1,12,12:00,UTC,8,1023.8,-1,87,0,32,-14.7,-16.4,730,296,2.4,1.6
2013,1,12,13:00,UTC,7,1023.7,-1,87,0,32,-14.8,-16.5,1290,287,3.6,1.8
2013,1,12,14:00,UTC,5,1023.8,-1,87,0,32,-15.9,-17.6,4810,276,1.5,0.9
2013,1,12,15:00,UTC,7,1023.8,-1,86,0,32,-15.1,-16.8,7490,292,4.3,2.5
2013,1,12,16:00,UTC,7,1023.8,-1,87,0,32,-15.1,-16.8,8670,295,3.6,2.5
2013,1,12,17:00,UTC,8,1023.3,-1,88,0,32,-14.6,-16.2,5280,290,3.5,2.4
2013,1,12,18:00,UTC,5,1023.4,-1,87,0,32,-14.6,-16.3,9030,351,1.5,1
2013,1,12,19:00,UTC,7,1023.4,-1,86,0,32,-15.2,-17,4980,288,2.1,1.2
2013,1,12,20:00,UTC,3,1023.5,-1,86,0,32,-17.3,-19.1,11320,47,1.8,1.3
2013,1,12,21:00,UTC,0,1023.3,-1,85,0,32,-17.3,-19.2,15110,289,1.5,1
2013,1,12,22:00,UTC,0,1023.3,-1,87,0,32,-16,-17.7,36050,274,1.1,0.7
2013,1,12,23:00,UTC,0,1023.5,-1,83,0,32,-18.3,-20.4,11120,278,1.7,0.8
2013,1,13,00:00,UTC,0,1023.4,-1,84,0,32,-18.3,-20.3,12590,0,0.7,0
2013,1,13,01:00,UTC,1,1023.2,-1,85,0,32,-17.2,-19.1,18200,299,2.1,1.4
2013,1,13,02:00,UTC,1,1022.9,-1,83,0,32,-17.2,-19.4,36100,297,2.6,1.9
2013,1,13,03:00,UTC,1,1022.8,-1,85,0,32,-17,-18.9,30310,304,1.8,1.1
2013,1,13,04:00,UTC,0,1023.1,-1,85,0,32,-17,-19,42280,295,1.9,1.2
2013,1,13,05:00,UTC,1,1023,-1,85,0,32,-17,-18.9,38650,305,1.1,0.7
2013,1,13,06:00,UTC,7,1023.1,-1,85,0,32,-17,-19,31520,0,0.6,0
2013,1,13,07:00,UTC,7,1023.2,-1,85,0,32,-16.7,-18.6,40300,0,0.8,0
2013,1,13,08:00,UTC,7,1023.3,-1,86,0,32,-16.1,-17.9,45740,0,0.9,0
2013,1,13,09:00,UTC,7,1023,-1,86,0,32,-14.6,-16.4,38440,203,1,0.7
2013,1,13,10:00,UTC,7,1023,-1,89,0,32,-13.4,-14.9,22550,147,1.4,0.8
2013,1,13,11:00,UTC,7,1022.8,-1,88,0,32,-12.6,-14.1,18000,141,1.6,1
2013,1,13,12:00,UTC,7,1022.3,-1,90,0,32,-11.3,-12.6,17310,139,0.9,0.7
2013,1,13,13:00,UTC,7,1022.1,-1,90,0,32,-11.5,-12.8,18280,157,1,0.7
2013,1,13,14:00,UTC,7,1022,-1,90,0,32,-11.3,-12.6,19450,168,1.2,0.8
2013,1,13,15:00,UTC,7,1021.7,-1,90,0,32,-10.7,-12,22640,154,1.7,1.3
2013,1,13,16:00,UTC,7,1021.4,-1,91,0,32,-10,-11.1,17090,144,1.7,0.7
2013,1,13,17:00,UTC,7,1021.4,-1,92,0,32,-9,-10.1,13990,214,1.4,0.6
2013,1,13,18:00,UTC,7,1020.8,-1,95,0,32,-5.5,-6.2,50000,270,5.2,1.7
2013,1,13,19:00,UTC,7,1020.6,-1,95,0,32,-5.5,-6.2,47620,276,3.2,1.7
2013,1,13,20:00,UTC,7,1020.2,-1,95,0,32,-5.3,-5.9,50000,250,3.6,1.6
2013,1,13,21:00,UTC,7,1020,-1,95,0,32,-5,-5.7,50000,243,4.9,1.9
2013,1,13,22:00,UTC,7,1019.7,-1,95,0,32,-5,-5.7,50000,253,5.5,2
2013,1,13,23:00,UTC,7,1019.4,-1,94,0,32,-5.2,-6,50000,262,4.8,2.2
2013,1,14,00:00,UTC,8,1019.3,-1,94,0,32,-5.3,-6.1,50000,266,6,2.3
2013,1,14,01:00,UTC,8,1019.1,-1,94,0,32,-5.3,-6,50000,251,3.4,1.1
2013,1,14,02:00,UTC,7,1019,-1,94,0,32,-5.4,-6.3,50000,267,5.6,2.5
2013,1,14,03:00,UTC,8,1018.8,-1,94,0,32,-5.5,-6.4,50000,267,5.5,2.8
2013,1,14,04:00,UTC,8,1018.6,-1,94,0,32,-5.4,-6.2,41060,267,4.1,1.6
2013,1,14,05:00,UTC,8,1018.4,-1,94,0,32,-5.2,-6,50000,270,2.8,1.5
2013,1,14,06:00,UTC,7,1018.5,-1,93,0,32,-5.1,-6.1,50000,276,7,2.5
2013,1,14,07:00,UTC,7,1018.6,-1,93,0,32,-5,-5.9,50000,262,2.7,1.3
2013,1,14,08:00,UTC,8,1018.8,-1,93,0,32,-4.9,-5.9,50000,270,5.1,2.1
2013,1,14,09:00,UTC,8,1018.7,-1,93,0,32,-4.9,-5.8,50000,273,3.2,1.6
2013,1,14,10:00,UTC,8,1018.6,-1,93,0,32,-4.9,-5.8,48230,275,4.9,2.8
2013,1,14,11:00,UTC,8,1018.5,-1,93,0,32,-4.8,-5.8,47210,280,4.3,2.5
2013,1,14,12:00,UTC,8,1018.3,-1,93,0,32,-4.8,-5.7,47590,289,4.7,2.5
2013,1,14,13:00,UTC,8,1018.6,-1,94,0,32,-4.9,-5.8,50000,282,4.7,2.8
2013,1,14,14:00,UTC,8,1018.7,-1,95,0,32,-5,-5.7,12310,268,5,2.1
2013,1,14,15:00,UTC,8,1018.7,-1,95,0,32,-5,-5.7,12990,283,3.9,2.3
2013,1,14,16:00,UTC,8,1018.6,-1,94,0,32,-4.9,-5.6,22730,274,3.1,1.9
2013,1,14,17:00,UTC,8,1018.5,-1,94,0,32,-4.8,-5.6,12030,273,4.2,2.4
2013,1,14,18:00,UTC,8,1018.6,-1,93,0,32,-4.7,-5.7,12740,282,4.5,2.5
2013,1,14,19:00,UTC,8,1018.5,-1,92,0,32,-4.8,-5.9,12890,271,4.5,2.1
2013,1,14,20:00,UTC,8,1018.6,-1,92,0,32,-4.9,-6.1,9810,276,4.2,2.2
2013,1,14,21:00,UTC,8,1018.8,-1,94,0,32,-5,-5.9,6630,254,3.4,2
2013,1,14,22:00,UTC,8,1018.6,-1,93,0,33,-5.1,-6,12250,249,2.8,1.4
2013,1,14,23:00,UTC,8,1018.6,-1,94,0,32,-5.2,-6,5210,260,2.3,1.4
2013,1,15,00:00,UTC,8,1018.6,-1,95,0,32,-5.3,-5.9,10650,312,1.2,0.8
2013,1,15,01:00,UTC,8,1018.7,-1,95,0,32,-5,-5.7,14920,291,1.4,1
2013,1,15,02:00,UTC,8,1018.6,-1,94,0,32,-4.9,-5.8,13380,299,3.6,1.9
2013,1,15,03:00,UTC,8,1018.5,-1,94,0,32,-5.3,-6.1,28290,295,3,2.1
2013,1,15,04:00,UTC,8,1018.4,-1,93,0,32,-5.4,-6.4,37840,313,3,2
2013,1,15,05:00,UTC,8,1018.7,-1,94,0,32,-5.4,-6.3,16860,226,1.8,1.2
2013,1,15,06:00,UTC,8,1018.6,-1,95,0,32,-5.6,-6.3,13700,326,2,1.5
2013,1,15,07:00,UTC,8,1018.4,-1,95,0,32,-5.5,-6.2,23990,11,2.4,1.7
2013,1,15,08:00,UTC,8,1018.8,-1,95,0,32,-5.5,-6.3,34850,321,1.1,0.8
2013,1,15,09:00,UTC,8,1018.9,-1,96,0,32,-5.5,-6,9470,8,2.4,1.4
2013,1,15,10:00,UTC,8,1019.2,-1,94,0,32,-5.5,-6.3,7820,71,2,1.6
2013,1,15,11:00,UTC,8,1019,-1,94,0,32,-5.5,-6.3,6310,62,2.1,1.3
2013,1,15,12:00,UTC,8,1018.7,-1,92,0,32,-5.8,-6.8,32910,70,3.7,1.6
2013,1,15,13:00,UTC,8,1018.9,-1,93,0,32,-6.1,-7,27200,71,3.5,2.4
2013,1,15,14:00,UTC,8,1018.9,-1,94,0,32,-6.3,-7.1,12010,101,2.5,1.9
2013,1,15,15:00,UTC,8,1018.6,-1,96,0,32,-6.1,-6.6,4220,20,1.7,1.3
2013,1,15,16:00,UTC,8,1018.8,-1,95,0,32,-5.9,-6.5,3780,68,2.9,1.8
2013,1,15,17:00,UTC,8,1018.7,-1,95,0,32,-6.1,-6.8,4150,53,4.1,2.9
2013,1,15,18:00,UTC,8,1018.7,-1,95,0,32,-6.4,-7.1,6380,39,4.4,2.9
2013,1,15,19:00,UTC,8,1018.8,-1,94,0,32,-6.7,-7.5,7470,60,4,2.5
2013,1,15,20:00,UTC,8,1018.9,-1,94,0,32,-6.8,-7.6,5620,52,3.7,2.4
2013,1,15,21:00,UTC,8,1018.7,-1,94,0,32,-6.9,-7.6,13150,65,4,2.8
2013,1,15,22:00,UTC,8,1018.4,-1,94,0,32,-6.9,-7.7,9680,59,4.6,2.9
2013,1,15,23:00,UTC,8,1018.4,-1,94,0,32,-6.9,-7.7,9020,68,5.4,2.9
2013,1,16,00:00,UTC,8,1018.6,-1,94,0,32,-6.8,-7.6,3650,77,3.2,2.2
2013,1,16,01:00,UTC,8,1018.6,-1,94,0,32,-6.8,-7.5,3270,55,3.8,2.6
2013,1,16,02:00,UTC,8,1018.7,-1,93,0,32,-7,-8,15880,76,5.2,3.7
2013,1,16,03:00,UTC,8,1018.6,-1,93,0,32,-7.7,-8.5,8500,57,5.5,3.5
2013,1,16,04:00,UTC,8,1018.8,-1,93,0,32,-8.4,-9.3,4560,51,5.8,3.5
2013,1,16,05:00,UTC,8,1019,-1,92,0,32,-8.9,-10,13630,36,4.6,3.2
2013,1,16,06:00,UTC,8,1019.3,-1,92,0,32,-9.3,-10.4,8210,40,5.2,3.5
2013,1,16,07:00,UTC,8,1019.8,-1,92,0,32,-9.3,-10.4,17660,49,3.6,2.6
2013,1,16,08:00,UTC,8,1020.5,-1,92,0,32,-9.4,-10.5,21120,82,3.8,3
2013,1,16,09:00,UTC,8,1020.8,-1,92,0,32,-9.7,-10.7,29380,48,5.2,3.6
2013,1,16,10:00,UTC,8,1021.5,-1,92,0,32,-10.1,-11.2,5500,56,4.4,3.4
2013,1,16,11:00,UTC,8,1021.5,-1,91,0,32,-10.4,-11.6,8670,70,3.4,2.5
2013,1,16,12:00,UTC,8,1021.7,-1,91,0,32,-10.9,-12.2,10740,53,4,2.4
2013,1,16,13:00,UTC,7,1021.9,-1,90,0,32,-11.2,-12.5,7410,59,4.1,3
2013,1,16,14:00,UTC,8,1022.1,-1,90,0,32,-11.4,-12.7,4940,31,3.1,1.9
2013,1,16,15:00,UTC,8,1022.5,-1,90,0,32,-11.6,-12.9,7650,40,3.3,2.1
2013,1,16,16:00,UTC,7,1023,-1,90,0,32,-11.7,-13,8180,38,2.8,1.6
2013,1,16,17:00,UTC,8,1023.4,-1,90,0,32,-11.8,-13.2,10970,43,1.6,1.2
2013,1,16,18:00,UTC,8,1023.8,-1,89,0,32,-11.9,-13.3,15290,13,2.5,1.9
2013,1,16,19:00,UTC,8,1024.4,-1,89,0,32,-12.2,-13.7,15560,13,2.5,1.6
2013,1,16,20:00,UTC,8,1024.6,-1,89,0,32,-12.5,-14,12460,343,2.3,1.8
2013,1,16,21:00,UTC,8,1024.9,-1,89,0,32,-12.6,-14,14480,342,2.9,2.4
2013,1,16,22:00,UTC,8,1025.1,-1,89,0,32,-12.8,-14.2,9160,341,2.9,2.3
2013,1,16,23:00,UTC,8,1025.5,-1,88,0,32,-13.1,-14.6,5530,343,3,2.4
2013,1,17,00:00,UTC,8,1025.7,-1,88,0,32,-13.5,-15,3690,342,2.4,1.6
2013,1,17,01:00,UTC,7,1026.1,-1,86,0,32,-14.4,-16.2,5110,328,3.7,3.1
2013,1,17,02:00,UTC,8,1026.5,-1,87,0,32,-14.4,-16.1,15870,39,2.8,2
2013,1,17,03:00,UTC,8,1026.7,-1,86,0,32,-14.9,-16.7,17300,342,3,2.3
2013,1,17,04:00,UTC,8,1026.8,-1,86,0,32,-15.6,-17.4,8370,344,3.1,2.3
2013,1,17,05:00,UTC,7,1027.3,-1,85,0,32,-16.5,-18.3,14130,336,2.6,2.3
2013,1,17,06:00,UTC,8,1027.8,-1,85,0,32,-16.9,-18.8,11130,335,2.7,2.3
2013,1,17,07:00,UTC,8,1028.4,-1,85,0,32,-16.6,-18.5,4180,338,3,2.4
2013,1,17,08:00,UTC,8,1028.7,-1,85,0,32,-16.8,-18.8,3960,330,2.6,2.3
2013,1,17,09:00,UTC,1,1029.2,-1,84,0,32,-18.6,-20.6,15070,16,1.5,1.1
2013,1,17,10:00,UTC,8,1029.3,-1,85,0,32,-16.9,-18.8,2470,34,1.8,1
2013,1,17,11:00,UTC,9,1029.1,-1,87,0,32,-16.4,-18,640,330,1.9,1.3
2013,1,17,12:00,UTC,8,1029.2,-1,86,0,32,-15.9,-17.7,630,324,2,1.7
2013,1,17,13:00,UTC,8,1029.3,-1,86,0,32,-16.4,-18.2,610,325,1.7,1.5
2013,1,17,14:00,UTC,7,1029.4,-1,85,0,32,-17.2,-19.2,700,320,2.8,2.4
2013,1,17,15:00,UTC,8,1029.5,-1,85,0,32,-17.1,-19.1,680,341,2.3,1.6
2013,1,17,16:00,UTC,8,1029.7,-1,84,0,32,-17.8,-19.9,2930,333,2,1.5
2013,1,17,17:00,UTC,7,1029.5,-1,84,0,31,-18.1,-20.1,1120,327,1.1,0.9
2013,1,17,18:00,UTC,9,1029.6,-1,84,0,31,-18.6,-20.7,390,313,1,0.8
2013,1,17,19:00,UTC,9,1029.5,-1,82,0,31,-19.9,-22.2,730,0,0.6,0
2013,1,17,20:00,UTC,9,1029.9,-1,81,0,31,-21.4,-23.8,5520,296,1.1,0.7
2013,1,17,21:00,UTC,5,1029.9,-1,80,0,31,-22.8,-25.4,4660,298,0.7,0.6
2013,1,17,22:00,UTC,7,1029.9,-1,80,0,31,-23.9,-26.4,9890,310,1.2,0.9
2013,1,17,23:00,UTC,7,1029.8,-1,78,0,31,-25,-27.8,9930,311,1,0.7
2013,1,18,00:00,UTC,7,1029.3,-1,78,0,31,-25,-27.8,10010,0,0.6,0
2013,1,18,01:00,UTC,8,1029,-1,77,0,31,-25.8,-28.6,16050,0,0.8,0
2013,1,18,02:00,UTC,5,1028.5,-1,77,0,31,-25.6,-28.5,10910,167,0.9,0.7
2013,1,18,03:00,UTC,1,1028.2,-1,75,0,31,-27.2,-30.2,23380,0,0.5,0
2013,1,18,04:00,UTC,1,1027.7,-1,75,0,31,-27.4,-30.5,21910,154,0.9,0.6
2013,1,18,05:00,UTC,0,1027.4,-1,74,0,31,-28.4,-31.5,27690,0,0.7,0
2013,1,18,06:00,UTC,0,1027.2,-1,74,0,31,-28.7,-31.9,25100,0,0.8,0
2013,1,18,07:00,UTC,0,1026.7,-1,74,0,31,-28.7,-31.9,29460,170,1.4,0.8
2013,1,18,08:00,UTC,0,1026.6,-1,73,0,31,-28.8,-32.1,18240,160,2.3,1.6
2013,1,18,09:00,UTC,0,1026.3,-1,75,0,31,-28.2,-31.3,1700,0,0.6,0
2013,1,18,10:00,UTC,0,1025.5,-1,77,0,31,-25.6,-28.5,12590,141,1.2,0.9
2013,1,18,11:00,UTC,1,1024.5,-1,79,0,31,-23.2,-25.8,13330,152,1.7,0.8
2013,1,18,12:00,UTC,7,1023.7,-1,79,0,31,-22.7,-25.3,12820,0,1.5,0
2013,1,18,13:00,UTC,5,1023.2,-1,79,0,31,-23.2,-25.8,14060,151,2.3,1.5
2013,1,18,14:00,UTC,5,1022.7,-1,79,0,31,-23.5,-26.1,17570,127,1.4,1.3
2013,1,18,15:00,UTC,5,1022.1,-1,78,0,31,-24.8,-27.5,15370,155,1.7,1.2
2013,1,18,16:00,UTC,7,1021.6,-1,77,0,31,-24.7,-27.5,9890,156,2.2,1.9
2013,1,18,17:00,UTC,7,1020.9,-1,78,0,31,-24,-26.7,10340,135,1.6,1.3
2013,1,18,18:00,UTC,7,1020.1,-1,79,0,31,-23.7,-26.3,11100,139,1.8,1.3
2013,1,18,19:00,UTC,3,1019.5,-1,78,0,31,-24.2,-26.9,12510,143,2.5,2
2013,1,18,20:00,UTC,5,1019.2,-1,78,0,31,-24,-26.7,12590,144,1.8,1.1
2013,1,18,21:00,UTC,0,1018.2,-1,78,0,31,-24.7,-27.5,14760,177,3.1,2.4
2013,1,18,22:00,UTC,5,1017.8,-1,80,0,32,-23.5,-25.9,13260,177,2.8,2.3
2013,1,18,23:00,UTC,7,1016.6,-1,82,0,32,-20.9,-23.2,14940,175,3.3,2.5
2013,1,19,00:00,UTC,7,1015.3,-1,83,0,32,-18.7,-20.8,20660,145,2.8,1.8
2013,1,19,01:00,UTC,7,1014.1,-1,89,0,32,-13.5,-14.9,31420,225,3.7,1.6
2013,1,19,02:00,UTC,7,1012.9,-1,88,0,32,-12.8,-14.4,16600,243,7.5,2.9
2013,1,19,03:00,UTC,3,1012.3,-1,88,0,32,-13.5,-15.1,43960,256,6.3,2.8
2013,1,19,04:00,UTC,7,1011,-1,89,0,32,-12,-13.4,22470,253,6.6,2.6
2013,1,19,05:00,UTC,7,1009.5,-1,90,0,32,-10.7,-12,9030,250,8.3,3.4
2013,1,19,06:00,UTC,7,1008.5,-1,91,0,32,-9.7,-10.9,7230,249,7.2,3.5
2013,1,19,07:00,UTC,7,1007.6,-1,91,0,32,-9.7,-10.9,18770,242,7,2.9
2013,1,19,08:00,UTC,7,1006.6,-1,91,0,32,-8.9,-10,26280,238,8.5,3.4
2013,1,19,09:00,UTC,7,1006,-1,91,0,32,-8.4,-9.6,36320,247,7.4,3.2
2013,1,19,10:00,UTC,7,1005.4,-1,91,0,32,-7.6,-8.8,34470,252,7.7,3.9
2013,1,19,11:00,UTC,7,1004.8,-1,92,0,32,-7.2,-8.2,4120,245,7.5,3.4
2013,1,19,12:00,UTC,8,1004.2,-1,93,0,33,-6.6,-7.5,3370,248,6.8,3.2
2013,1,19,13:00,UTC,9,1003.5,0.6,94,0.6,33,-6,-6.8,1600,252,6.6,3.3
2013,1,19,14:00,UTC,9,1003.1,0.8,95,0.8,34,-5.3,-6,1540,251,7.4,3.3
2013,1,19,15:00,UTC,9,1003.1,0.7,95,0.9,34,-5.1,-5.8,990,250,5.4,2.3
2013,1,19,16:00,UTC,8,1003,0.8,95,0.5,36,-4.6,-5.2,1910,284,4.1,2
2013,1,19,17:00,UTC,8,1003.2,0.2,96,0,36,-4.1,-4.7,7190,310,5.3,3.5
2013,1,19,18:00,UTC,7,1003.3,-1,95,0,36,-5,-5.7,48980,333,5.2,4
2013,1,19,19:00,UTC,1,1004.1,-1,95,0,36,-5.2,-5.9,50000,338,6.5,4.4
2013,1,19,20:00,UTC,1,1004.7,-1,93,0,36,-6.6,-7.6,50000,339,6.2,4.1
2013,1,19,21:00,UTC,0,1005.3,-1,93,0,35,-8.5,-9.4,50000,332,5.5,4.3
2013,1,19,22:00,UTC,0,1005.5,-1,92,0,35,-8.5,-9.5,41450,326,3.7,2.7
2013,1,19,23:00,UTC,0,1005.8,-1,92,0,35,-9.4,-10.5,50000,319,6,5.2
2013,1,20,00:00,UTC,0,1006.3,-1,92,0,35,-9.2,-10.3,50000,329,5.5,4.3
2013,1,20,01:00,UTC,0,1006.5,-1,90,0,35,-10.9,-12.3,39780,319,4.9,3.8
2013,1,20,02:00,UTC,0,1006.6,-1,91,0,35,-10.4,-11.6,38380,316,3.4,2.4
2013,1,20,03:00,UTC,0,1006.8,-1,91,0,35,-10.3,-11.5,31760,296,4.3,3.3
2013,1,20,04:00,UTC,0,1006.8,-1,90,0,36,-11.6,-12.9,45030,308,5.8,4.4
2013,1,20,05:00,UTC,0,1006.7,-1,90,0,35,-11.5,-12.7,40780,325,6.9,5.5
2013,1,20,06:00,UTC,1,1007,-1,90,0,35,-11.1,-12.4,44150,298,4.5,3.2
2013,1,20,07:00,UTC,3,1007.3,-1,89,0,36,-12.1,-13.5,37010,308,5.7,4.6
2013,1,20,08:00,UTC,5,1007.7,-1,90,0,36,-11.8,-13.2,39710,311,5.6,4.4
2013,1,20,09:00,UTC,1,1007.9,-1,90,0,36,-11.5,-12.9,39450,320,6.5,5.2
2013,1,20,10:00,UTC,1,1007.9,-1,91,0,36,-9.8,-10.9,37120,336,7.4,5.3
2013,1,20,11:00,UTC,7,1008,-1,90,0,35,-9.8,-11.1,4540,332,6.6,5
2013,1,20,12:00,UTC,7,1008.5,-1,91,0,36,-8.9,-10.1,7220,331,7.4,5.4
2013,1,20,13:00,UTC,7,1008.8,-1,91,0,36,-8.7,-9.9,4170,331,7,4.9
2013,1,20,14:00,UTC,7,1009.3,-1,91,0,37,-8.9,-10.1,12150,332,6.4,4.8
2013,1,20,15:00,UTC,8,1009.7,-1,91,0,37,-8.5,-9.8,14370,333,7.6,5.7
2013,1,20,16:00,UTC,8,1010.1,-1,91,0,37,-8.3,-9.5,14810,343,7.2,5.3
2013,1,20,17:00,UTC,8,1010.4,-1,90,0,37,-8.2,-9.5,15290,343,8.3,5.8
2013,1,20,18:00,UTC,7,1010.9,-1,90,0,37,-8.5,-9.8,14480,343,7.3,5.2
2013,1,20,19:00,UTC,7,1011.7,-1,89,0,37,-8.8,-10.3,14630,344,8.8,6.6
2013,1,20,20:00,UTC,5,1012.4,-1,88,0,37,-9.7,-11.3,21020,342,7.9,6.1
2013,1,20,21:00,UTC,1,1013.3,-1,88,0,36,-11.9,-13.4,44730,342,4.9,3.8
2013,1,20,22:00,UTC,0,1013.8,-1,88,0,37,-11.3,-12.8,42030,348,7.9,5.4
2013,1,20,23:00,UTC,1,1014.6,-1,88,0,37,-13.2,-14.8,48130,340,4.7,3.8
2013,1,21,00:00,UTC,5,1015.3,-1,88,0,37,-13.6,-15.2,42000,334,5.3,4.1
2013,1,21,01:00,UTC,0,1015.7,-1,89,0,37,-14.3,-15.7,44030,336,4.4,3.7
2013,1,21,02:00,UTC,0,1016,-1,87,0,37,-15.5,-17.1,41600,335,5.1,4.3
2013,1,21,03:00,UTC,0,1016.3,-1,86,0,36,-15.5,-17.3,36140,329,4,3.2
2013,1,21,04:00,UTC,0,1016.6,-1,87,0,36,-15.2,-17,49450,300,4.3,3.7
2013,1,21,05:00,UTC,0,1016.6,-1,86,0,37,-15.5,-17.3,23470,289,3.9,2.8
2013,1,21,06:00,UTC,8,1016.7,-1,87,0,37,-14.7,-16.3,40370,298,3.5,2.9
2013,1,21,07:00,UTC,7,1017,-1,87,0,37,-14.7,-16.4,50000,321,2.3,2.1
2013,1,21,08:00,UTC,8,1017.1,-1,88,0,37,-13.7,-15.3,44440,273,2.5,1.2
2013,1,21,09:00,UTC,8,1016.9,-1,88,0,37,-13,-14.6,44650,295,3.5,2.5
2013,1,21,10:00,UTC,1,1016.8,-1,88,0,36,-13.4,-14.9,32490,300,4,3.2
2013,1,21,11:00,UTC,1,1016,-1,88,0,36,-11.4,-12.9,32890,301,3.8,2.8
2013,1,21,12:00,UTC,7,1015.7,-1,87,0,36,-9.7,-11.5,48910,308,4.4,3.1
2013,1,21,13:00,UTC,7,1014.8,-1,89,0,36,-8.7,-10.2,39770,291,4.3,3
2013,1,21,14:00,UTC,8,1014,-1,86,0,36,-7.6,-9.5,50000,291,6.4,3.7
2013,1,21,15:00,UTC,8,1013.5,-1,81,0,36,-7.4,-10.1,50000,285,8.1,4
2013,1,21,16:00,UTC,8,1012.6,-1,78,0,36,-7.4,-10.6,50000,283,7.4,4.5
2013,1,21,17:00,UTC,7,1012,-1,78,0,36,-7.5,-10.6,50000,276,6.3,3.5
2013,1,21,18:00,UTC,7,1011.4,-1,78,0,36,-7.5,-10.7,50000,288,6.5,3.7
2013,1,21,19:00,UTC,7,1011.3,-1,82,0,36,-7.8,-10.3,50000,296,6,4.1
2013,1,21,20:00,UTC,0,1011.4,-1,85,0,36,-8.6,-10.7,50000,286,4.4,2.6
2013,1,21,21:00,UTC,5,1011.4,-1,86,0,36,-8.7,-10.5,50000,287,6.4,4
2013,1,21,22:00,UTC,0,1010.9,-1,86,0,36,-8.6,-10.5,50000,291,6.6,4.2
2013,1,21,23:00,UTC,0,1010.8,-1,87,0,36,-9.2,-11,50000,303,6,3.7
2013,1,22,00:00,UTC,3,1010.5,-1,88,0,36,-8.9,-10.5,47500,295,5.1,3.3
2013,1,22,01:00,UTC,7,1010.2,-1,87,0,36,-8.4,-10.2,50000,289,5.8,3.6
2013,1,22,02:00,UTC,0,1009.7,-1,88,0,36,-9.1,-10.7,50000,297,5.8,3.5
2013,1,22,03:00,UTC,1,1009.5,-1,87,0,36,-9.8,-11.6,50000,303,4.7,3.1
2013,1,22,04:00,UTC,0,1009.3,-1,90,0,36,-9.9,-11.2,46770,290,4.5,2.5
2013,1,22,05:00,UTC,1,1008.6,-1,88,0,36,-9.5,-11.2,50000,296,5.5,3.3
2013,1,22,06:00,UTC,7,1008.5,-1,89,0,36,-9.9,-11.4,50000,315,3.8,2
2013,1,22,07:00,UTC,5,1008.6,-1,89,0,36,-9.3,-10.7,37770,297,3.5,2.7
2013,1,22,08:00,UTC,5,1008.5,-1,88,0,36,-8.4,-10,50000,307,3.8,2.2
2013,1,22,09:00,UTC,7,1008.3,-1,88,0,36,-7.3,-8.9,47510,298,3.8,2.7
2013,1,22,10:00,UTC,5,1008,-1,87,0,36,-6.7,-8.6,43190,301,4,2.5
2013,1,22,11:00,UTC,3,1007.8,-1,87,0,36,-6.3,-8.1,46070,287,4.1,2.4
2013,1,22,12:00,UTC,3,1007.5,-1,88,0,36,-6.5,-8.2,50000,286,4.7,2.6
2013,1,22,13:00,UTC,0,1007.6,-1,90,0,35,-7.5,-8.9,50000,286,3.2,1.8
2013,1,22,14:00,UTC,7,1007.5,-1,91,0,36,-6.9,-8.2,50000,289,2.3,1.1
2013,1,22,15:00,UTC,0,1007.4,-1,91,0,36,-7.7,-9,50000,292,4.1,2.4
2013,1,22,16:00,UTC,1,1007.1,-1,91,0,35,-8.7,-9.9,42840,291,3.7,2.4
2013,1,22,17:00,UTC,8,1007.3,-1,92,0,36,-8,-9.1,35350,302,3.9,2.9
2013,1,22,18:00,UTC,8,1007,-1,92,0,36,-7.2,-8.3,32870,289,3.8,2.8
2013,1,22,19:00,UTC,7,1007.2,-1,92,0,36,-7.4,-8.4,29270,306,3.7,2.4
2013,1,22,20:00,UTC,5,1007.5,-1,93,0,35,-7.7,-8.7,42780,306,2.8,1.6
2013,1,22,21:00,UTC,7,1007.4,-1,93,0,35,-6.8,-7.7,45470,307,3.6,2.5
2013,1,22,22:00,UTC,0,1008,-1,88,0,35,-9.2,-10.8,50000,339,3.3,2.1
2013,1,22,23:00,UTC,0,1008,-1,92,0,35,-7.2,-8.3,48520,291,6.3,3.9
2013,1,23,00:00,UTC,0,1008.4,-1,94,0,35,-8.1,-9,49790,295,3.8,2.6
2013,1,23,01:00,UTC,0,1008.7,-1,94,0,35,-9.3,-10.1,43470,299,3.3,2.3
2013,1,23,02:00,UTC,0,1008.6,-1,93,0,35,-12,-12.9,30130,299,3.7,2
2013,1,23,03:00,UTC,1,1008.4,-1,92,0,35,-9.2,-10.3,50000,278,5.2,2.7
2013,1,23,04:00,UTC,7,1008.3,-1,91,0,35,-9.3,-10.5,50000,298,4.6,3
2013,1,23,05:00,UTC,7,1007.9,-1,90,0,35,-8.9,-10.3,39450,304,3.7,2.5
2013,1,23,06:00,UTC,7,1007.9,-1,91,0,35,-8.8,-10,44000,296,4.3,2.8
2013,1,23,07:00,UTC,3,1007.7,-1,89,0,35,-10.4,-11.8,46510,287,2.4,1.3
2013,1,23,08:00,UTC,7,1007.6,-1,91,0,35,-9.4,-10.5,31950,286,3.1,1.4
2013,1,23,09:00,UTC,7,1007.8,-1,90,0,35,-11.1,-12.4,36380,162,1.4,1
2013,1,23,10:00,UTC,7,1008,-1,93,0,35,-10.1,-11,34220,337,2.3,1.9
2013,1,23,11:00,UTC,3,1007.9,-1,90,0,35,-9.7,-10.9,34720,288,3.5,1.9
2013,1,23,12:00,UTC,0,1008.2,-1,93,0,34,-11.8,-12.8,19920,296,3.8,2.4
2013,1,23,13:00,UTC,0,1008.1,-1,87,0,35,-11.6,-13.4,50000,301,3.6,1.9
2013,1,23,14:00,UTC,0,1008,-1,89,0,35,-12.6,-14,7570,292,2.9,1.7
2013,1,23,15:00,UTC,0,1008.2,-1,88,0,35,-14.7,-16.3,27170,85,0.9,0.6
2013,1,23,16:00,UTC,3,1008.2,-1,90,0,35,-14,-15.3,15010,345,2.9,1.9
2013,1,23,17:00,UTC,0,1007.9,-1,88,0,35,-15.4,-17,36750,193,1.6,1.2
2013,1,23,18:00,UTC,0,1007.7,-1,87,0,35,-17.1,-18.7,18540,0,1.6,0
2013,1,23,19:00,UTC,0,1007.6,-1,87,0,35,-16.5,-18.1,16670,202,2.1,1
2013,1,23,20:00,UTC,0,1007.3,-1,90,0,35,-15.2,-16.5,12150,222,3.6,1.2
2013,1,23,21:00,UTC,0,1006.4,-1,93,0,35,-13.3,-14.2,38260,246,4.6,2.4
2013,1,23,22:00,UTC,7,1006,-1,90,0,35,-11.3,-12.6,50000,255,6.3,3.5
2013,1,23,23:00,UTC,7,1005.6,-1,89,0,35,-11,-12.4,50000,270,6.2,3.4
2013,1,24,00:00,UTC,7,1005,-1,89,0,35,-11.3,-12.8,50000,272,7,3.1
2013,1,24,01:00,UTC,0,1004.5,-1,88,0,35,-11.7,-13.3,50000,282,6.9,4.5
2013,1,24,02:00,UTC,0,1004.3,-1,87,0,35,-11.7,-13.4,50000,283,7,4.5
2013,1,24,03:00,UTC,0,1004.2,-1,86,0,35,-11.3,-13.2,50000,288,8.1,4.7
2013,1,24,04:00,UTC,0,1004.6,-1,87,0,35,-11.8,-13.6,50000,304,6.6,4.6
2013,1,24,05:00,UTC,0,1004.7,-1,87,0,35,-10.3,-12,50000,296,8,6.4
2013,1,24,06:00,UTC,7,1005.3,-1,88,0,35,-8.7,-10.4,50000,310,8.7,6.8
2013,1,24,07:00,UTC,7,1006.1,-1,86,0,35,-8.6,-10.5,46570,303,7.4,5.7
2013,1,24,08:00,UTC,7,1007,-1,88,0,35,-8.2,-9.8,4270,311,7.5,5.7
2013,1,24,09:00,UTC,7,1008.2,-1,89,0,35,-8.7,-10.1,2110,323,5.6,4.2
2013,1,24,10:00,UTC,7,1008.8,-1,86,0,35,-8.7,-10.5,3020,335,8.4,5.1
2013,1,24,11:00,UTC,3,1009.6,-1,88,0,35,-11.1,-12.7,40270,326,5,3.7
2013,1,24,12:00,UTC,0,1010.3,-1,90,0,35,-11.7,-13.1,43680,319,4.3,3.5
2013,1,24,13:00,UTC,0,1011,-1,89,0,35,-11,-12.4,46570,305,4.1,3.2
2013,1,24,14:00,UTC,0,1011.6,-1,90,0,35,-11.8,-13,27870,326,2.8,2.1
2013,1,24,15:00,UTC,0,1012.5,-1,86,0,35,-15.6,-17.4,29290,294,3.2,2.6
2013,1,24,16:00,UTC,7,1012.8,-1,89,0,35,-12.8,-14.2,2670,309,5.2,4.3
2013,1,24,17:00,UTC,7,1013,-1,91,0,36,-10.3,-11.5,4530,296,5.2,3.3
2013,1,24,18:00,UTC,7,1013,-1,91,0,36,-9.6,-10.8,4050,296,5.3,3.5
2013,1,24,19:00,UTC,7,1013.3,-1,91,0,36,-9.1,-10.3,4500,299,5.5,3.7
2013,1,24,20:00,UTC,7,1013,-1,91,0,36,-8.9,-10,23790,284,3.1,2
2013,1,24,21:00,UTC,7,1013.1,-1,91,0,36,-8.1,-9.3,6680,272,3.8,2.2
2013,1,24,22:00,UTC,8,1013.1,-1,90,0,36,-7.3,-8.7,22940,287,6.9,3.1
2013,1,24,23:00,UTC,8,1013,-1,90,0,36,-7.5,-8.8,30370,290,5.3,3.1
2013,1,25,00:00,UTC,1,1013,-1,90,0,36,-8.8,-10.1,50000,257,3.6,1.7
2013,1,25,01:00,UTC,0,1013.1,-1,88,0,35,-10.1,-11.7,50000,228,3.2,1.3
2013,1,25,02:00,UTC,1,1013.1,-1,88,0,36,-11.1,-12.7,50000,258,2.3,1
2013,1,25,03:00,UTC,7,1013.1,-1,89,0,35,-12.1,-13.6,45950,0,1.1,0
2013,1,25,04:00,UTC,7,1012.7,-1,91,0,36,-10.6,-11.7,18430,238,4.8,2.1
2013,1,25,05:00,UTC,7,1012.4,-1,91,0,36,-10.3,-11.5,38540,200,3.6,1.4
2013,1,25,06:00,UTC,7,1012.3,-1,90,0,36,-9.9,-11.2,37430,234,6,2.5
2013,1,25,07:00,UTC,8,1012.2,-1,91,0,36,-9.3,-10.5,34100,239,4.4,2
2013,1,25,08:00,UTC,8,1011.9,-1,93,0,36,-8.4,-9.3,24110,224,4.9,1.8
2013,1,25,09:00,UTC,8,1011.5,-1,92,0,36,-7.4,-8.4,31550,239,5.7,2.7
2013,1,25,10:00,UTC,7,1010.9,-1,91,0,36,-6.8,-8.1,21530,252,7.2,3.3
2013,1,25,11:00,UTC,7,1010.5,-1,91,0,36,-6.4,-7.6,24430,250,4.5,2.3
2013,1,25,12:00,UTC,8,1010.1,-1,91,0,36,-6.1,-7.4,18560,246,5.1,2.7
2013,1,25,13:00,UTC,8,1009.9,-1,90,0,36,-6,-7.4,28050,245,4.4,2.2
2013,1,25,14:00,UTC,8,1009.3,-1,92,0,36,-5.7,-6.9,46070,190,2.6,1.3
2013,1,25,15:00,UTC,8,1008.7,0.2,92,1.2,36,-5.6,-6.6,2450,183,3.6,1.9
2013,1,25,16:00,UTC,8,1008,0.4,94,0.4,37,-5.2,-6,2200,191,4.1,1.8
2013,1,25,17:00,UTC,7,1007.7,0.1,93,0,37,-4.7,-5.6,7380,235,5.8,2.5
2013,1,25,18:00,UTC,8,1007.5,-1,93,0,37,-4.3,-5.3,19130,261,7.4,2.9
2013,1,25,19:00,UTC,7,1007.6,-1,94,0,36,-3.9,-4.8,2820,259,4,1.8
2013,1,25,20:00,UTC,7,1007.7,0.3,94,0,37,-3.8,-4.7,4400,248,5.6,2.5
2013,1,25,21:00,UTC,7,1007.9,-1,92,0,37,-4.1,-5.2,43230,260,6.5,2.5
2013,1,25,22:00,UTC,8,1008.1,-1,91,0,37,-4.4,-5.7,14840,248,4.6,2.5
2013,1,25,23:00,UTC,8,1008,-1,90,0,37,-4.4,-5.9,43770,244,4.6,2.5
2013,1,26,00:00,UTC,8,1008,-1,89,0,37,-4.6,-6.1,26920,239,4.7,1.7
2013,1,26,01:00,UTC,8,1007.9,-1,88,0,37,-5.1,-6.9,45360,231,5.2,3
2013,1,26,02:00,UTC,7,1007.9,-1,88,0,37,-5.8,-7.4,31270,223,3.4,1.7
2013,1,26,03:00,UTC,8,1008,-1,88,0,37,-6,-7.7,8480,238,3.8,1.3
2013,1,26,04:00,UTC,8,1008,-1,88,0,37,-6.1,-7.9,9330,232,5,2.3
2013,1,26,05:00,UTC,8,1008.1,-1,87,0,37,-6.3,-8,13330,224,5.7,2.5
2013,1,26,06:00,UTC,8,1008.3,-1,87,0,37,-6.5,-8.2,27570,224,5.9,2.4
2013,1,26,07:00,UTC,8,1008.3,-1,88,0,37,-6.7,-8.3,1720,192,2.6,1.3
2013,1,26,08:00,UTC,7,1008.4,-1,87,0,37,-6.4,-8.2,4980,208,3.9,2
2013,1,26,09:00,UTC,7,1008.4,-1,87,0,37,-6.1,-8,5180,200,4.1,1.9
2013,1,26,10:00,UTC,8,1008.2,-1,87,0,38,-5.8,-7.7,12080,199,4.8,1.9
2013,1,26,11:00,UTC,8,1008,-1,88,0,38,-5.5,-7.1,26460,187,4.7,2.4
2013,1,26,12:00,UTC,8,1007.6,-1,90,0,38,-5.2,-6.7,30690,178,3.8,1.6
2013,1,26,13:00,UTC,8,1007.4,-1,92,0,37,-4.9,-6.1,20130,181,5.1,2.5
2013,1,26,14:00,UTC,8,1007,-1,93,0,38,-4.8,-5.8,3010,181,7.5,2.9
2013,1,26,15:00,UTC,8,1006.6,0.2,93,0.4,38,-4.9,-5.8,2650,168,5.5,2.6
2013,1,26,16:00,UTC,8,1006.3,0.3,93,0.3,38,-4.9,-5.9,2600,183,6.8,3.6
2013,1,26,17:00,UTC,9,1005.9,0.3,94,0.4,38,-4.7,-5.6,2490,182,6.9,3.2
2013,1,26,18:00,UTC,7,1005.6,0.3,94,0.2,38,-4.5,-5.3,4900,184,7.4,3.1
2013,1,26,19:00,UTC,8,1005.3,-1,94,0,38,-4.2,-5,8250,199,6,3.3
2013,1,26,20:00,UTC,9,1004.9,0.3,94,0.4,38,-4.3,-5.1,1950,206,6.7,3.6
2013,1,26,21:00,UTC,8,1004.8,0.1,94,0,38,-4.1,-5,8990,202,8.4,3.8
2013,1,26,22:00,UTC,8,1004.9,-1,93,0,38,-4.1,-5.1,18970,207,6.2,3.1
2013,1,26,23:00,UTC,8,1004.8,-1,92,0,38,-4.1,-5.1,18920,204,7.1,3.2
2013,1,27,00:00,UTC,8,1004.7,-1,91,0,38,-4,-5.3,26080,202,6.3,3.2
2013,1,27,01:00,UTC,7,1004.8,-1,86,0,38,-4.2,-6.1,21300,207,7.7,3.4
2013,1,27,02:00,UTC,8,1004.9,-1,86,0,38,-4.4,-6.4,22540,199,6.3,2.7
2013,1,27,03:00,UTC,8,1004.9,-1,86,0,38,-4.3,-6.3,29750,204,5.4,2.8
2013,1,27,04:00,UTC,7,1004.9,-1,86,0,38,-4.9,-7,26410,196,6.6,3.4
2013,1,27,05:00,UTC,8,1004.9,-1,85,0,38,-4.6,-6.8,14480,221,10.7,4.1
2013,1,27,06:00,UTC,8,1004.8,-1,85,0,38,-4.1,-6.3,21370,220,7.7,2.9
2013,1,27,07:00,UTC,7,1004.5,-1,85,0,38,-3.8,-5.9,19880,202,5.2,2.8
2013,1,27,08:00,UTC,8,1004.7,-1,86,0,38,-3.3,-5.3,16170,197,5.8,3.2
2013,1,27,09:00,UTC,8,1005,-1,86,0,38,-2.9,-5,13780,203,6.6,3
2013,1,27,10:00,UTC,8,1004.9,-1,86,0,38,-2.9,-4.9,12050,199,7.8,3.4
2013,1,27,11:00,UTC,7,1004.8,-1,85,0,38,-3,-5.1,14280,191,6.2,2.9
2013,1,27,12:00,UTC,7,1004.9,-1,87,0,38,-3,-4.9,10970,198,7.3,3.8
2013,1,27,13:00,UTC,8,1004.7,-1,87,0,38,-3.1,-4.9,11120,196,7,3.5
2013,1,27,14:00,UTC,8,1004.7,-1,87,0,38,-3.2,-5,10200,190,6.5,2.5
2013,1,27,15:00,UTC,7,1004.5,-1,88,0,38,-3.2,-5,10990,176,4.8,2.5
2013,1,27,16:00,UTC,7,1004.3,-1,89,0,38,-3.4,-4.9,10360,179,6.1,2.8
2013,1,27,17:00,UTC,8,1004.4,-1,91,0,38,-4.2,-5.5,7950,186,6.2,3.5
2013,1,27,18:00,UTC,8,1004.1,-1,91,0,38,-4.8,-6,7850,179,6.1,2.4
2013,1,27,19:00,UTC,8,1003.9,-1,92,0,38,-5.4,-6.5,7570,161,6.5,3.1
2013,1,27,20:00,UTC,7,1003.8,-1,92,0,38,-6.1,-7.2,6710,167,7.9,4
2013,1,27,21:00,UTC,8,1003.8,-1,90,0,37,-6.8,-8.2,7190,174,8.9,3.8
2013,1,27,22:00,UTC,8,1004,-1,90,0,38,-7.3,-8.7,8620,181,5.9,2.8
2013,1,27,23:00,UTC,8,1003.8,-1,91,0,37,-7.4,-8.6,7060,172,5.7,2.8
2013,1,28,00:00,UTC,8,1003.4,-1,93,0,37,-7.4,-8.4,3270,161,5.5,2.6
2013,1,28,01:00,UTC,8,1003.2,-1,94,0,37,-7.4,-8.2,2980,167,5.3,2.4
2013,1,28,02:00,UTC,7,1002.5,0.2,92,0,37,-7.2,-8.2,4690,165,7.5,3.8
2013,1,28,03:00,UTC,8,1002.2,-1,93,0,37,-7.1,-8.1,8380,166,6.6,3.2
2013,1,28,04:00,UTC,8,1001.9,-1,93,0,37,-7,-7.9,8200,161,7.8,3.3
2013,1,28,05:00,UTC,8,1001.6,-1,93,0,37,-6.9,-7.8,9440,170,6.4,3.5
2013,1,28,06:00,UTC,8,1001.4,-1,92,0,37,-6.9,-8,10770,162,6.2,3.4
2013,1,28,07:00,UTC,7,1001.2,-1,91,0,37,-7,-8.2,10930,170,6.9,3.5
2013,1,28,08:00,UTC,8,1001.3,-1,90,0,37,-7.4,-8.8,10350,161,7.2,3.9
2013,1,28,09:00,UTC,8,1000.9,-1,91,0,37,-7.3,-8.4,2260,159,7,3.4
2013,1,28,10:00,UTC,8,1000.2,0.4,91,0.4,37,-6.7,-7.9,3450,154,6.5,3.2
2013,1,28,11:00,UTC,8,999.8,0.3,91,0.9,38,-6.2,-7.4,2070,156,6.5,3.7
2013,1,28,12:00,UTC,7,999.7,0.1,89,0,38,-6,-7.5,10560,168,8.3,3.8
2013,1,28,13:00,UTC,7,999.6,-1,90,0,37,-6,-7.4,11800,176,7.5,4.1
2013,1,28,14:00,UTC,8,999.4,-1,90,0,38,-5.9,-7.2,11300,164,8.7,3.7
2013,1,28,15:00,UTC,8,999.1,-1,92,0,37,-5.5,-6.6,4280,162,8.1,4.2
2013,1,28,16:00,UTC,7,998.8,-1,91,0,37,-4.9,-6.1,9250,164,7.6,3.4
2013,1,28,17:00,UTC,7,998,-1,91,0,38,-4.2,-5.4,6530,163,9.9,5.1
2013,1,28,18:00,UTC,7,998.1,-1,93,0,37,-4,-4.9,1330,160,7.8,4
2013,1,28,19:00,UTC,7,997.8,0.2,93,0,38,-3.4,-4.4,5810,165,8.5,3.7
2013,1,28,20:00,UTC,7,998,0.1,95,0,37,-3,-3.7,1810,170,8.4,3.7
2013,1,28,21:00,UTC,7,998.1,0.2,97,0,37,-2.6,-3.1,2230,165,6.5,3.3
2013,1,28,22:00,UTC,7,998.6,-1,97,0,37,-1.8,-2.2,12400,176,6.6,2.4
2013,1,28,23:00,UTC,7,998.8,-1,98,0,37,-1,-1.3,14860,175,6.5,2.8
2013,1,29,00:00,UTC,7,998.8,-1,98,0,37,-0.2,-0.5,21390,187,4.8,2.5
2013,1,29,01:00,UTC,7,998.9,-1,97,0,37,0.2,-0.2,23110,203,7.8,3.6
2013,1,29,02:00,UTC,7,998.9,-1,97,0,37,0.2,-0.2,3330,178,6,2.7
2013,1,29,03:00,UTC,7,999.1,-1,98,0,37,0.4,0,6750,184,6.1,2.8
2013,1,29,04:00,UTC,7,999,-1,96,0,37,0.2,-0.3,18460,168,4,2.1
2013,1,29,05:00,UTC,7,998.8,-1,93,0,37,0.7,-0.3,13270,192,5.4,2.4
2013,1,29,06:00,UTC,7,998.9,-1,96,0,37,0.5,0,3560,188,5.4,2.9
2013,1,29,07:00,UTC,7,999,0.2,96,0,37,0.4,-0.2,10540,186,4.9,2.2
2013,1,29,08:00,UTC,7,999.4,-1,96,0,37,0.4,-0.1,5020,194,4.7,2.2
2013,1,29,09:00,UTC,7,999.8,-1,92,0,37,0.8,-0.4,17500,188,6.3,3
2013,1,29,10:00,UTC,7,1000,-1,91,0,37,0.8,-0.4,32520,197,4.9,1.9
2013,1,29,11:00,UTC,7,1000.2,0.3,96,0.3,37,0.6,0,9710,182,6,2.8
2013,1,29,12:00,UTC,7,1000.2,-1,91,0,37,0.9,-0.4,25580,180,5,2.6
2013,1,29,13:00,UTC,7,1000.5,-1,90,0,37,0.8,-0.6,22610,182,6.2,2.6
2013,1,29,14:00,UTC,7,1000.9,-1,91,0,37,0.7,-0.5,21140,187,6.3,2.6
2013,1,29,15:00,UTC,7,1001,-1,92,0,37,0.5,-0.7,18310,180,4.2,2
2013,1,29,16:00,UTC,7,1001.3,-1,91,0,37,0.6,-0.8,18020,184,5,2.8
2013,1,29,17:00,UTC,7,1001.5,-1,91,0,37,0.5,-0.9,17000,176,4.8,2.1
2013,1,29,18:00,UTC,7,1001.6,-1,87,0,38,0.2,-1.6,28320,186,5.2,2.7
2013,1,29,19:00,UTC,7,1001.4,-1,90,0,38,0.2,-1.2,20460,164,5.9,2.4
2013,1,29,20:00,UTC,7,1001.4,-1,90,0,38,0.1,-1.4,17660,164,4.3,2.5
2013,1,29,21:00,UTC,7,1001.7,-1,90,0,38,0.1,-1.4,16680,166,6.2,2.9
2013,1,29,22:00,UTC,7,1001.6,-1,91,0,38,0,-1.3,16940,160,5.4,2.7
2013,1,29,23:00,UTC,7,1001.6,-1,90,0,38,0,-1.5,15860,169,6.8,3.3
2013,1,30,00:00,UTC,7,1001.9,-1,90,0,38,-0.1,-1.6,13140,171,6.3,3.2
2013,1,30,01:00,UTC,7,1001.3,-1,89,0,38,-0.3,-1.9,8710,157,6.9,3.4
2013,1,30,02:00,UTC,8,1000.7,-1,90,0,37,-0.5,-1.9,8190,154,6.9,3.2
2013,1,30,03:00,UTC,7,1000,-1,91,0,37,-0.7,-2,7700,157,7.5,3.6
2013,1,30,04:00,UTC,8,999.6,-1,90,0,37,-0.8,-2.2,8420,159,6.3,3.4
2013,1,30,05:00,UTC,8,998.5,-1,89,0,37,-1,-2.6,8760,153,9.3,4.2
2013,1,30,06:00,UTC,8,997.6,-1,94,0,38,-1.4,-2.3,3190,155,8.4,4.1
2013,1,30,07:00,UTC,8,997.2,0.2,95,0,38,-1.6,-2.3,3690,152,11,4.4
2013,1,30,08:00,UTC,8,996.2,0.2,95,0,38,-1.8,-2.6,3680,151,10,4.8
2013,1,30,09:00,UTC,8,995.3,0.1,95,0,38,-2.1,-2.8,3130,151,9.2,5.5
2013,1,30,10:00,UTC,8,993.9,0.3,97,0,37,-2.4,-2.9,1770,148,8.9,4.5
2013,1,30,11:00,UTC,8,992.1,0.1,95,0,38,-2.4,-3,6010,143,9.7,5
2013,1,30,12:00,UTC,8,990.8,-1,95,0,38,-2.3,-3.1,5230,150,10.7,4.9
2013,1,30,13:00,UTC,8,989.1,0.4,97,0.4,38,-2.4,-2.9,2310,143,9.6,4.5
2013,1,30,14:00,UTC,8,987.4,0.6,97,1.1,39,-2.6,-3,1040,140,10.1,4.3
2013,1,30,15:00,UTC,8,985.9,1,97,1.2,40,-2.4,-2.8,730,137,8,3.9
2013,1,30,16:00,UTC,8,984.2,1.6,98,1.2,41,-2,-2.3,870,143,8.3,4.3
2013,1,30,17:00,UTC,8,983,1.3,98,0.8,42,-1.5,-1.7,1770,146,11.3,5.3
2013,1,30,18:00,UTC,8,981.8,0.1,98,0,42,-1.2,-1.4,2560,151,10.9,5.3
2013,1,30,19:00,UTC,8,980.9,-1,98,0,42,-0.9,-1.2,3250,153,8,4.6
2013,1,30,20:00,UTC,8,980.3,-1,98,0,42,-1,-1.3,3790,149,7.9,4.1
2013,1,30,21:00,UTC,7,979.8,0.3,98,0.3,42,-1.2,-1.5,2280,152,7.8,3.8
2013,1,30,22:00,UTC,7,979.5,-1,98,0,42,-1.2,-1.4,6270,148,6.6,3.2
2013,1,30,23:00,UTC,8,979.2,-1,98,0,42,-1.1,-1.3,5950,147,5.2,3
2013,1,31,00:00,UTC,7,979,-1,99,0,42,-0.7,-0.9,12580,156,6,3
2013,1,31,01:00,UTC,8,978.8,0.2,99,0,42,-0.4,-0.5,14550,157,4.8,2.7
2013,1,31,02:00,UTC,8,978.9,-1,99,0,42,0.1,-0.1,7180,154,7.7,3.4
2013,1,31,03:00,UTC,7,978.9,-1,99,0,42,0.4,0.3,9380,157,5.9,2.8
2013,1,31,04:00,UTC,8,978.9,-1,98,0,42,0.5,0.3,9570,156,6.4,3
2013,1,31,05:00,UTC,8,979,-1,98,0,42,0.5,0.2,3910,164,5.3,3
2013,1,31,06:00,UTC,8,979,0.4,99,0,42,0.3,0.1,4720,153,6.1,3
2013,1,31,07:00,UTC,8,979.1,0.9,99,0.8,43,0.1,0,1330,157,6.3,2.8
2013,1,31,08:00,UTC,8,979.5,0.6,99,0.5,43,0.3,0.1,2930,158,6.4,3.1
2013,1,31,09:00,UTC,7,979.7,0.2,99,0,44,0.5,0.4,11990,168,7.9,3.4
2013,1,31,10:00,UTC,8,980.2,-1,99,0,43,0.7,0.5,9180,175,6.6,3.3
2013,1,31,11:00,UTC,8,980.2,-1,99,0,43,0.7,0.6,8190,170,7.4,3.3
2013,1,31,12:00,UTC,8,980.3,-1,97,0,43,0.9,0.4,15580,162,7.4,3.5
2013,1,31,13:00,UTC,7,980.5,-1,96,0,43,0.9,0.3,16810,176,7.7,3.6
2013,1,31,14:00,UTC,8,980.6,-1,96,0,43,0.7,0.1,14870,162,5.9,3
2013,1,31,15:00,UTC,8,980.5,-1,96,0,43,0.6,0.1,9470,153,6.8,3.3
2013,1,31,16:00,UTC,8,980.5,-1,96,0,42,0.7,0.2,16880,163,6.5,3.2
2013,1,31,17:00,UTC,8,980.2,-1,96,0,42,0.7,0.2,6130,159,6.8,3.3
2013,1,31,18:00,UTC,8,980.3,-1,97,0,42,0.7,0.3,18650,164,6.1,3
2013,1,31,19:00,UTC,8,980.3,-1,97,0,42,0.7,0.2,4650,163,6.8,3.4
2013,1,31,20:00,UTC,8,980.3,0.2,97,0,42,0.6,0.2,5290,160,6.4,3.5
2013,1,31,21:00,UTC,8,980.5,0.6,99,0.9,41,0.2,0,2880,160,4.1,2.1
2013,1,31,22:00,UTC,8,980.6,0.5,99,0.5,42,0.3,0.1,1510,166,5,2.8
2013,1,31,23:00,UTC,8,980.7,0.4,99,0.7,42,0.2,0,1970,159,4.7,2.3
2013,2,1,00:00,UTC,8,981,0.7,99,0.7,43,0.1,0,1440,193,2.5,1.2
2013,2,1,01:00,UTC,8,981.7,0.4,96,0,42,-0.7,-1.3,6850,285,7.2,4.3
2013,2,1,02:00,UTC,8,982.4,-1,95,0,43,-1.5,-2.3,12130,271,5,2.7
2013,2,1,03:00,UTC,8,983.2,-1,91,0,43,-2.5,-3.8,50000,283,4.2,2.2
2013,2,1,04:00,UTC,5,983.7,-1,92,0,43,-3.5,-4.5,50000,261,2.9,1.7
2013,2,1,05:00,UTC,8,984.3,-1,90,0,43,-3.2,-4.7,47920,272,6.3,3.5
2013,2,1,06:00,UTC,7,984.8,-1,90,0,43,-3.4,-4.8,45600,257,4.7,1.6
2013,2,1,07:00,UTC,8,985.2,-1,90,0,43,-3.5,-4.9,50000,254,5.3,2.2
2013,2,1,08:00,UTC,7,985.7,-1,90,0,43,-3.7,-5,50000,250,4.8,1.9
2013,2,1,09:00,UTC,8,986.3,-1,90,0,43,-3.6,-5.1,50000,246,4.5,2.1
2013,2,1,10:00,UTC,7,986.8,-1,90,0,43,-3.4,-4.8,45000,232,3.8,2.2
2013,2,1,11:00,UTC,7,987.2,-1,89,0,43,-3.4,-5,48130,257,5.3,2.7
2013,2,1,12:00,UTC,8,987.7,-1,91,0,43,-3.3,-4.5,47450,226,4.5,2.4
2013,2,1,13:00,UTC,8,988.1,-1,91,0,43,-3.1,-4.4,48930,216,4.4,1.9
2013,2,1,14:00,UTC,8,988.3,-1,91,0,43,-3,-4.2,49900,205,3.3,1.6
2013,2,1,15:00,UTC,8,988.8,-1,91,0,42,-2.8,-4.1,50000,223,3.9,1.5
2013,2,1,16:00,UTC,8,988.7,-1,90,0,42,-2.9,-4.3,50000,209,2.9,1.4
2013,2,1,17:00,UTC,7,988.8,-1,91,0,42,-2.9,-4.3,49500,194,3.8,2
2013,2,1,18:00,UTC,8,989.3,-1,90,0,42,-2.9,-4.4,50000,207,5.7,2.9
2013,2,1,19:00,UTC,8,989.4,-1,91,0,42,-3,-4.4,50000,217,3.1,1.5
2013,2,1,20:00,UTC,8,989.6,-1,91,0,43,-3.1,-4.4,50000,219,3.5,1.8
2013,2,1,21:00,UTC,8,990.3,-1,91,0,43,-3.2,-4.5,45610,214,3.1,1.4
2013,2,1,22:00,UTC,8,990.6,-1,89,0,42,-3.3,-4.8,49790,185,3.3,1.8
2013,2,1,23:00,UTC,8,990.7,-1,90,0,42,-3.3,-4.7,44090,178,3,1.5
2013,2,2,00:00,UTC,8,990.9,-1,89,0,42,-3.4,-4.9,45030,197,4.1,2
2013,2,2,01:00,UTC,8,991.3,-1,88,0,42,-3.5,-5.2,40500,196,4.5,2.2
2013,2,2,02:00,UTC,8,991.4,-1,89,0,42,-3.7,-5.3,49750,179,3.9,1.6
2013,2,2,03:00,UTC,8,991.6,-1,88,0,42,-3.8,-5.5,50000,177,5,2.3
2013,2,2,04:00,UTC,8,991.9,-1,88,0,43,-4,-5.7,50000,176,5.9,3
2013,2,2,05:00,UTC,8,992.3,-1,88,0,43,-4.2,-5.9,50000,172,4.9,2.5
2013,2,2,06:00,UTC,8,992.6,-1,88,0,42,-4.6,-6.2,50000,166,6,2.6
2013,2,2,07:00,UTC,7,993.1,-1,90,0,42,-5.1,-6.5,50000,151,5.5,2.3
2013,2,2,08:00,UTC,7,993.8,-1,90,0,42,-5.1,-6.5,43350,156,4.8,2.4
2013,2,2,09:00,UTC,7,994.6,-1,89,0,42,-5.1,-6.7,39440,163,6.4,2.8
2013,2,2,10:00,UTC,8,995.1,-1,88,0,42,-5,-6.6,40340,153,5.9,2.8
2013,2,2,11:00,UTC,8,995.6,-1,88,0,42,-4.9,-6.6,46030,154,6.2,2.7
2013,2,2,12:00,UTC,7,996.1,-1,87,0,42,-4.8,-6.7,46350,163,8.5,3.4
2013,2,2,13:00,UTC,8,996.5,-1,87,0,42,-4.4,-6.2,47580,159,7,3.5
2013,2,2,14:00,UTC,7,996.9,-1,87,0,42,-4.3,-6.2,44800,163,8.2,4.3
2013,2,2,15:00,UTC,8,997.6,-1,87,0,42,-4.4,-6.2,38370,160,5.9,3.4
2013,2,2,16:00,UTC,8,998.1,-1,88,0,42,-4.5,-6.2,45590,167,6,3
2013,2,2,17:00,UTC,7,998.6,-1,89,0,42,-4.3,-5.9,49120,174,4.3,2.3
2013,2,2,18:00,UTC,8,999,-1,87,0,42,-4.1,-5.9,50000,183,5.2,2.3
2013,2,2,19:00,UTC,8,999.2,-1,86,0,42,-4.1,-6.1,50000,161,4.4,2
2013,2,2,20:00,UTC,8,999.8,-1,86,0,42,-4.2,-6.3,50000,173,5,2.3
2013,2,2,21:00,UTC,8,999.9,-1,86,0,42,-4.4,-6.4,50000,185,6.4,2.7
2013,2,2,22:00,UTC,8,999.9,-1,88,0,42,-4.6,-6.3,48060,163,4.2,1.9
2013,2,2,23:00,UTC,7,999.8,-1,88,0,42,-4.5,-6.2,50000,149,3.5,1.8
2013,2,3,00:00,UTC,7,999.6,-1,88,0,43,-4.4,-6.1,26340,152,4.1,2.1
2013,2,3,01:00,UTC,8,999.6,-1,89,0,42,-4.4,-5.9,11790,147,4,2
2013,2,3,02:00,UTC,8,999.4,0.3,94,0.7,43,-4.6,-5.4,1830,157,3.2,1.7
2013,2,3,03:00,UTC,7,999.4,0.3,95,0.5,43,-4.7,-5.4,3980,163,2,1.1
2013,2,3,04:00,UTC,7,999.2,0.3,94,0,44,-4.5,-5.3,14870,197,2.5,1.1
2013,2,3,05:00,UTC,7,999.2,-1,94,0,44,-4.5,-5.3,10060,228,1.5,0.8
2013,2,3,06:00,UTC,7,999.3,-1,91,0,44,-4.7,-5.9,33040,239,2.4,1.1
2013,2,3,07:00,UTC,7,999.7,-1,88,0,44,-5.4,-7,43470,293,3.2,1.9
2013,2,3,08:00,UTC,7,1000,-1,87,0,44,-5.8,-7.6,34430,261,3.8,1.9
2013,2,3,09:00,UTC,7,1000.6,-1,85,0,44,-6.5,-8.6,28840,259,3.1,2.1
2013,2,3,10:00,UTC,7,1000.5,-1,86,0,44,-6.5,-8.5,37480,223,2.7,1.5
2013,2,3,11:00,UTC,7,1000.7,-1,86,0,44,-6.6,-8.7,45110,192,2.9,1.5
2013,2,3,12:00,UTC,7,1000.7,-1,88,0,44,-6.7,-8.5,48930,245,2.9,1.7
2013,2,3,13:00,UTC,7,1000.7,-1,87,0,44,-6.7,-8.5,50000,219,2.1,1
2013,2,3,14:00,UTC,7,1000.5,-1,88,0,44,-6.9,-8.5,50000,193,2.2,1
2013,2,3,15:00,UTC,7,1000.6,-1,90,0,44,-7.2,-8.6,38380,160,2,0.8
2013,2,3,16:00,UTC,7,1000.5,-1,91,0,43,-7.1,-8.4,32720,149,2,1.1
2013,2,3,17:00,UTC,7,1000.5,-1,91,0,43,-7,-8.2,50000,154,3.1,1.6
2013,2,3,18:00,UTC,7,1000.8,-1,91,0,43,-6.9,-8.2,50000,168,3.9,1.8
2013,2,3,19:00,UTC,7,1000.7,-1,91,0,43,-6.9,-8.1,50000,173,2.7,1.5
2013,2,3,20:00,UTC,7,1000.4,-1,91,0,43,-6.9,-8.1,41610,173,2.9,1.7
2013,2,3,21:00,UTC,7,1000.4,-1,91,0,43,-6.9,-8.1,50000,163,2.9,1.5
2013,2,3,22:00,UTC,7,1000.4,-1,91,0,43,-6.9,-8.1,50000,142,1.5,0.9
2013,2,3,23:00,UTC,7,1000.3,-1,91,0,43,-6.8,-7.9,37690,155,2.7,1.1
2013,2,4,00:00,UTC,7,1000.1,-1,91,0,43,-6.8,-7.9,47140,151,2.2,1
2013,2,4,01:00,UTC,7,999.9,-1,92,0,43,-7,-8.1,30930,166,1.6,0.8
2013,2,4,02:00,UTC,7,999.6,-1,92,0,43,-6.9,-7.9,41690,157,2.2,1.1
2013,2,4,03:00,UTC,7,999.4,-1,94,0,43,-7,-7.8,41790,153,2.1,1.1
2013,2,4,04:00,UTC,7,999,-1,93,0,43,-6.6,-7.5,43650,151,2,1.2
2013,2,4,05:00,UTC,7,998.8,-1,93,0,43,-6.5,-7.4,34490,145,3,1.8
2013,2,4,06:00,UTC,7,998.6,-1,94,0,43,-6.4,-7.3,30830,144,2.9,1.6
2013,2,4,07:00,UTC,7,998.3,-1,94,0,43,-6.2,-7,14790,144,3.5,2
2013,2,4,08:00,UTC,7,998,-1,93,0,43,-5.7,-6.6,4660,146,4.4,2.3
2013,2,4,09:00,UTC,7,997.7,-1,92,0,43,-5.2,-6.2,13140,144,3.3,1.9
2013,2,4,10:00,UTC,8,997.3,-1,91,0,43,-4.6,-5.9,40160,158,4.2,2.1
2013,2,4,11:00,UTC,7,996.9,-1,90,0,43,-4.2,-5.7,29320,167,5,2.4
2013,2,4,12:00,UTC,8,996.4,-1,89,0,43,-3.9,-5.4,38910,162,4.9,3
2013,2,4,13:00,UTC,8,996.3,-1,90,0,43,-3.8,-5.2,50000,162,4.3,2.2
2013,2,4,14:00,UTC,8,995.8,-1,90,0,43,-3.9,-5.3,41580,145,6.7,3.2
2013,2,4,15:00,UTC,7,995.5,-1,89,0,43,-4.1,-5.7,50000,145,5.8,3.3
2013,2,4,16:00,UTC,7,995.4,-1,89,0,43,-4.6,-6.2,50000,139,5.5,2.8
2013,2,4,17:00,UTC,8,995.1,-1,88,0,43,-4.8,-6.4,43080,131,5.4,3.1
2013,2,4,18:00,UTC,8,994.9,-1,88,0,43,-4.9,-6.6,50000,137,4.6,2.5
2013,2,4,19:00,UTC,8,994.5,-1,88,0,43,-5,-6.6,50000,139,5.5,2.7
2013,2,4,20:00,UTC,8,994.2,-1,89,0,43,-4.9,-6.4,50000,135,6,2.8
2013,2,4,21:00,UTC,8,994.1,-1,91,0,43,-4.9,-6.2,48510,123,5.1,3.5
2013,2,4,22:00,UTC,8,993.9,-1,91,0,42,-5.1,-6.3,47240,128,6.1,3.9
2013,2,4,23:00,UTC,8,993.6,-1,91,0,42,-5.1,-6.3,22350,128,4.8,3
2013,2,5,00:00,UTC,8,993.2,-1,91,0,43,-5,-6.2,22810,131,5.9,3.5
2013,2,5,01:00,UTC,8,992.8,-1,92,0,43,-4.9,-6,6920,127,6.2,3.4
2013,2,5,02:00,UTC,8,992.7,-1,90,0,43,-4.7,-6.1,14400,129,5.6,3.6
2013,2,5,03:00,UTC,8,992.6,-1,89,0,42,-4.8,-6.3,44770,127,7.3,3.5
2013,2,5,04:00,UTC,7,992.6,-1,84,0,42,-5,-7.3,50000,138,8.5,3.5
2013,2,5,05:00,UTC,7,992.6,-1,84,0,43,-5.7,-8,50000,121,7.2,4.2
2013,2,5,06:00,UTC,7,992.5,-1,86,0,43,-6.4,-8.4,48910,127,7.2,3.5
2013,2,5,07:00,UTC,7,992.4,-1,87,0,43,-6.7,-8.6,38260,125,6.8,3.6
2013,2,5,08:00,UTC,7,992.7,-1,87,0,43,-7,-8.7,36040,117,5.8,3.7
2013,2,5,09:00,UTC,7,993,-1,86,0,43,-6.5,-8.4,39900,113,6.7,4.3
2013,2,5,10:00,UTC,8,992.8,-1,85,0,43,-6,-8.1,46360,107,7.6,5.2
2013,2,5,11:00,UTC,8,992.7,-1,83,0,43,-5.4,-7.8,46880,105,8.1,5.5
2013,2,5,12:00,UTC,7,992.8,-1,81,0,43,-5,-7.8,50000,114,7.8,4.8
2013,2,5,13:00,UTC,8,993.3,-1,81,0,43,-5.1,-7.9,50000,110,8.4,5.5
2013,2,5,14:00,UTC,8,993.8,-1,80,0,43,-5.2,-8,50000,118,7.3,4.3
2013,2,5,15:00,UTC,8,994.3,-1,81,0,43,-5.4,-8.2,45270,117,6.6,4.5
2013,2,5,16:00,UTC,8,994.9,-1,85,0,43,-5.6,-7.7,4290,116,6.5,4.4
2013,2,5,17:00,UTC,8,995.1,-1,88,0,43,-5.9,-7.6,8010,106,6.6,4.6
2013,2,5,18:00,UTC,8,995.6,0.2,89,0,44,-6.1,-7.6,10290,103,7,5
2013,2,5,19:00,UTC,8,995.9,-1,88,0,44,-6.1,-7.7,23590,99,7.2,4.2
2013,2,5,20:00,UTC,8,996.3,-1,90,0,44,-6.4,-7.8,3220,93,4.9,3.8
2013,2,5,21:00,UTC,7,996.7,0.2,89,0,44,-6.7,-8.3,37820,84,6.6,4.8
2013,2,5,22:00,UTC,8,997.3,-1,87,0,44,-7,-8.8,50000,88,5.4,4.3
2013,2,5,23:00,UTC,8,997.7,-1,86,0,44,-7.4,-9.4,50000,94,5.8,3.9
2013,2,6,00:00,UTC,8,998.3,-1,86,0,44,-7.7,-9.7,50000,86,5.1,3.9
2013,2,6,01:00,UTC,7,998.6,-1,85,0,44,-7.7,-9.7,50000,93,5.1,2.9
2013,2,6,02:00,UTC,7,999,-1,85,0,44,-7.7,-9.8,39230,90,5.1,3.4
2013,2,6,03:00,UTC,7,999.6,-1,85,0,44,-7.9,-10,36640,83,5.8,3.8
2013,2,6,04:00,UTC,7,1000,-1,87,0,44,-8.1,-9.9,35380,75,3.1,2.4
2013,2,6,05:00,UTC,7,1000.4,-1,87,0,44,-8.3,-10.1,42100,85,5.2,3.5
2013,2,6,06:00,UTC,7,1000.8,-1,87,0,44,-8.5,-10.3,50000,75,5,2.6
2013,2,6,07:00,UTC,8,1001.3,-1,87,0,44,-8.8,-10.7,42000,74,4.5,3.2
2013,2,6,08:00,UTC,8,1001.7,-1,86,0,44,-8.9,-10.7,26860,71,4.3,2.9
2013,2,6,09:00,UTC,7,1002,-1,87,0,44,-8.6,-10.5,30550,83,5.6,3.5
2013,2,6,10:00,UTC,8,1002.2,-1,86,0,44,-8.1,-10.1,28050,77,4.4,3.3
2013,2,6,11:00,UTC,8,1002.4,-1,85,0,44,-7.7,-9.8,30030,68,4.9,3.3
2013,2,6,12:00,UTC,8,1002.7,-1,84,0,44,-7.3,-9.5,24750,84,5.4,4.1
2013,2,6,13:00,UTC,7,1003.1,-1,84,0,44,-7,-9.3,29820,58,5.3,3.3
2013,2,6,14:00,UTC,7,1003.2,-1,84,0,44,-6.9,-9.1,30060,39,5.7,3.8
2013,2,6,15:00,UTC,8,1003.9,-1,84,0,44,-7.4,-9.6,46930,33,4.3,3.2
2013,2,6,16:00,UTC,8,1004.6,-1,84,0,44,-7.7,-9.9,46300,56,4.8,3.2
2013,2,6,17:00,UTC,8,1005.2,-1,84,0,44,-7.8,-10.1,38330,48,4.6,3.3
2013,2,6,18:00,UTC,7,1005.4,-1,83,0,44,-8.4,-10.7,50000,36,6.3,4.2
2013,2,6,19:00,UTC,8,1006,-1,84,0,44,-8.6,-10.8,50000,46,4.6,2.7
2013,2,6,20:00,UTC,8,1006.8,-1,84,0,44,-9,-11.1,50000,69,4.1,2.5
2013,2,6,21:00,UTC,8,1007,-1,86,0,44,-9.3,-11.2,50000,24,3.6,2.5
2013,2,6,22:00,UTC,8,1007.6,-1,85,0,44,-9.2,-11.2,46950,4,3.2,2
2013,2,6,23:00,UTC,8,1008.1,-1,84,0,44,-9.3,-11.4,46280,38,3.3,2.3
2013,2,7,00:00,UTC,8,1008.8,-1,84,0,44,-9.2,-11.4,50000,18,2.6,1.6
2013,2,7,01:00,UTC,8,1009.1,-1,84,0,44,-9.2,-11.4,50000,23,3.1,2.5
2013,2,7,02:00,UTC,8,1009.2,-1,83,0,44,-9.2,-11.5,18660,35,3.2,2.1
2013,2,7,03:00,UTC,8,1009.6,-1,82,0,44,-9.1,-11.5,46940,46,2.6,1.5
2013,2,7,04:00,UTC,8,1010,-1,83,0,44,-9.1,-11.5,45180,355,1.8,1
2013,2,7,05:00,UTC,8,1010.5,-1,84,0,44,-9.3,-11.5,32380,18,2.4,1.8
2013,2,7,06:00,UTC,8,1011.2,-1,87,0,43,-9.7,-11.4,4030,343,2.4,1.9
2013,2,7,07:00,UTC,8,1011.7,-1,88,0,43,-9.8,-11.4,6710,12,2.6,1.8
2013,2,7,08:00,UTC,7,1012.3,-1,88,0,43,-9.7,-11.4,3610,36,2.3,1.6
2013,2,7,09:00,UTC,7,1012.9,-1,86,0,43,-9.9,-11.8,6600,19,2.2,1.7
2013,2,7,10:00,UTC,7,1013.2,-1,86,0,43,-10.1,-11.9,10270,357,3.4,2.6
2013,2,7,11:00,UTC,8,1013.2,-1,86,0,43,-9.5,-11.4,9840,5,2.7,2
2013,2,7,12:00,UTC,8,1013.4,-1,86,0,43,-9.2,-11.1,8960,340,2.5,1.8
2013,2,7,13:00,UTC,8,1013.8,-1,87,0,43,-8.9,-10.7,4790,351,2.6,1.9
2013,2,7,14:00,UTC,8,1014.1,-1,90,0,43,-8.8,-10.2,3860,346,2.6,1.9
2013,2,7,15:00,UTC,8,1014.5,-1,90,0,43,-8.8,-10.1,5550,345,2.6,2.2
2013,2,7,16:00,UTC,8,1015.2,-1,89,0,43,-8.8,-10.3,5070,55,2.2,1.1
2013,2,7,17:00,UTC,8,1015.7,-1,89,0,43,-9.1,-10.6,6940,37,1.6,1.1
2013,2,7,18:00,UTC,8,1016,-1,89,0,43,-9.3,-10.8,5290,342,2.4,2.1
2013,2,7,19:00,UTC,8,1016.3,-1,90,0,43,-9.3,-10.6,4470,334,2.2,1.6
2013,2,7,20:00,UTC,8,1016.8,-1,90,0,44,-10.6,-11.9,4090,327,2.1,1.7
2013,2,7,21:00,UTC,8,1017.2,-1,90,0,44,-11.3,-12.6,6800,323,2,1.4
2013,2,7,22:00,UTC,7,1017.8,-1,89,0,44,-12.7,-14.1,10870,295,1,0.6
2013,2,7,23:00,UTC,7,1017.9,-1,89,0,44,-12.2,-13.6,11520,314,1.7,1.5
2013,2,8,00:00,UTC,1,1018.1,-1,90,0,44,-13.2,-14.5,10510,329,1.5,0.9
2013,2,8,01:00,UTC,0,1018.6,-1,89,0,43,-15,-16.4,12080,309,1.9,1.2
2013,2,8,02:00,UTC,5,1019.3,-1,86,0,44,-17,-18.8,9790,315,1.7,1.2
2013,2,8,03:00,UTC,8,1019.5,-1,86,0,44,-14.8,-16.5,13560,319,2.2,1.9
2013,2,8,04:00,UTC,8,1019.7,-1,88,0,44,-13.2,-14.7,13260,312,1.7,1.5
2013,2,8,05:00,UTC,7,1019.9,-1,89,0,44,-12.1,-13.6,12290,323,2.3,1.5
2013,2,8,06:00,UTC,7,1019.9,-1,92,0,44,-11.2,-12.2,2040,336,3.6,3
2013,2,8,07:00,UTC,7,1020.3,-1,91,0,44,-10.6,-11.8,1650,321,1.9,1.6
2013,2,8,08:00,UTC,7,1020.3,-1,92,0,44,-9.9,-11,2430,319,2.3,1.9
2013,2,8,09:00,UTC,7,1020.1,-1,93,0,44,-8.7,-9.7,1130,26,5.3,3.5
2013,2,8,10:00,UTC,7,1020.6,-1,93,0,44,-8.5,-9.5,2270,23,4.1,3
2013,2,8,11:00,UTC,7,1020.5,-1,93,0,44,-8.1,-9.1,8710,8,2.9,2.1
2013,2,8,12:00,UTC,7,1020.3,-1,93,0,44,-8.2,-9.2,10130,340,3.9,2.9
2013,2,8,13:00,UTC,7,1020.3,-1,93,0,44,-8.2,-9.2,10160,344,5.3,4.3
2013,2,8,14:00,UTC,7,1020.3,-1,92,0,44,-8.7,-9.8,14310,340,4.9,3.8
2013,2,8,15:00,UTC,7,1020.4,-1,92,0,44,-8.7,-9.8,17140,6,4.2,3
2013,2,8,16:00,UTC,7,1020.1,-1,92,0,44,-8.4,-9.5,30310,9,6,3.8
2013,2,8,17:00,UTC,7,1019.7,-1,92,0,44,-8.4,-9.5,22710,355,6.3,4
2013,2,8,18:00,UTC,7,1020,-1,92,0,44,-8.5,-9.5,25850,29,3.5,2.3
2013,2,8,19:00,UTC,7,1019.9,-1,92,0,44,-8.4,-9.4,14480,358,3.8,2.6
2013,2,8,20:00,UTC,7,1019.7,-1,92,0,43,-8.2,-9.2,2920,3,4.1,2.8
2013,2,8,21:00,UTC,7,1019.6,0.3,92,0,44,-8.1,-9.2,2340,356,4.1,2.9
2013,2,8,22:00,UTC,7,1019.3,0.3,92,0,45,-7.8,-8.8,10970,12,5.2,3.6
2013,2,8,23:00,UTC,7,1019.4,0.5,93,1.2,45,-7.7,-8.7,1190,349,4,3
2013,2,9,00:00,UTC,7,1019.1,0.2,92,0,45,-7.4,-8.4,8060,11,4.1,2.8
2013,2,9,01:00,UTC,7,1019,-1,93,0,45,-7.1,-8.1,13790,32,5.6,3.3
2013,2,9,02:00,UTC,7,1019,-1,92,0,45,-6.9,-7.9,7650,12,4.2,2.7
2013,2,9,03:00,UTC,7,1018.4,0.2,92,0,46,-6.6,-7.6,11130,18,5,3.7
2013,2,9,04:00,UTC,7,1018.5,-1,92,0,46,-6.3,-7.4,14720,10,4.7,3.5
2013,2,9,05:00,UTC,7,1018.7,-1,93,0,46,-6.1,-7.1,8980,353,4.3,3.1
2013,2,9,06:00,UTC,7,1018.6,-1,92,0,46,-5.8,-6.9,8440,25,4.9,3.7
2013,2,9,07:00,UTC,7,1018.9,-1,91,0,46,-5.7,-6.9,13470,33,5.7,4
2013,2,9,08:00,UTC,7,1019,-1,91,0,45,-5.6,-6.8,16870,11,5.2,3.4
2013,2,9,09:00,UTC,7,1019.2,-1,90,0,45,-5.2,-6.6,11980,2,4.6,3
2013,2,9,10:00,UTC,7,1019.3,-1,90,0,45,-4.9,-6.2,24720,26,5.2,3.9
2013,2,9,11:00,UTC,8,1019.2,-1,91,0,45,-4.6,-5.9,26370,28,5.3,4
2013,2,9,12:00,UTC,8,1019.2,-1,91,0,45,-4.2,-5.5,22290,24,5.7,3.8
2013,2,9,13:00,UTC,8,1018.8,0.3,92,0.3,46,-4,-5.1,2610,25,4.6,3.4
2013,2,9,14:00,UTC,9,1019,0.5,94,0.7,46,-3.8,-4.7,1970,27,4.5,3.1
2013,2,9,15:00,UTC,9,1019.2,0.5,94,0.5,47,-3.7,-4.5,2090,27,4.7,3.3
2013,2,9,16:00,UTC,7,1019.1,0.8,94,0.3,47,-3.5,-4.3,6410,25,4.5,3.2
2013,2,9,17:00,UTC,7,1019,0.1,93,0.8,47,-3.2,-4.1,3610,36,4.6,3
2013,2,9,18:00,UTC,7,1018.9,0.2,94,0.3,47,-3.1,-3.9,2000,46,5.3,3.3
2013,2,9,19:00,UTC,7,1018.8,0.2,95,0.2,48,-2.9,-3.6,2160,49,6.1,3.7
2013,2,9,20:00,UTC,7,1018.9,0.1,95,0.9,48,-2.8,-3.5,1940,47,5.4,2.8
2013,2,9,21:00,UTC,7,1018.8,0.2,95,0,48,-2.6,-3.3,2310,45,4.7,2.8
2013,2,9,22:00,UTC,9,1018.5,0.2,95,0.3,47,-2.5,-3.1,2040,58,6.4,3.5
2013,2,9,23:00,UTC,8,1018.3,-1,96,0,49,-2.5,-3.1,1820,63,6.1,3.4
2013,2,10,00:00,UTC,8,1018.1,0.2,96,0,49,-2.3,-2.9,2820,63,6.6,3.8
2013,2,10,01:00,UTC,8,1018.1,-1,96,0,49,-2.3,-2.8,3450,61,5.2,3.7
2013,2,10,02:00,UTC,8,1017.8,-1,97,0,49,-2.2,-2.7,5410,53,6.3,4.8
2013,2,10,03:00,UTC,8,1017.9,-1,97,0,49,-2.2,-2.6,5200,63,6.1,4.2
2013,2,10,04:00,UTC,8,1017.2,-1,98,0,49,-2.3,-2.6,2900,47,5.3,4
2013,2,10,05:00,UTC,8,1017.2,-1,97,0,49,-2.5,-2.8,4500,56,6.4,4.1
2013,2,10,06:00,UTC,8,1016.7,-1,98,0,49,-2.7,-3,4200,40,6.8,4.5
2013,2,10,07:00,UTC,8,1016.7,-1,97,0,49,-2.9,-3.3,7730,45,6.5,4.3
2013,2,10,08:00,UTC,8,1016.4,-1,95,0,49,-3.2,-3.8,7330,40,6.3,4
2013,2,10,09:00,UTC,7,1016,-1,94,0,48,-3.2,-4.1,12800,26,6.4,4.3
2013,2,10,10:00,UTC,7,1015.7,0.2,93,1.4,49,-3.2,-4.2,3430,29,6.3,4.3
2013,2,10,11:00,UTC,8,1015.3,0.1,93,0.3,49,-3.3,-4.3,3270,29,6.7,4.7
2013,2,10,12:00,UTC,8,1014.9,0.1,92,0,49,-3.5,-4.5,5840,25,7.4,4.3
2013,2,10,13:00,UTC,8,1014.4,0.3,92,0.3,49,-3.6,-4.6,3800,22,7.4,4.8
2013,2,10,14:00,UTC,8,1014.3,0.2,93,0.5,50,-3.9,-4.9,4740,23,6,4.1
2013,2,10,15:00,UTC,8,1014.1,0.1,92,0,50,-4,-5,7020,25,5.5,3.6
2013,2,10,16:00,UTC,8,1013.9,-1,92,0,50,-4.2,-5.2,37290,30,6.1,4
2013,2,10,17:00,UTC,8,1013.7,-1,95,0,50,-4.4,-5.1,4230,32,5.8,3.5
2013,2,10,18:00,UTC,8,1013.4,-1,96,0,50,-4.3,-4.9,4360,24,4.9,3.5
2013,2,10,19:00,UTC,8,1013.5,-1,94,0,50,-4.2,-4.9,4410,21,5.5,3.7
2013,2,10,20:00,UTC,8,1013.4,0.2,93,1.3,50,-4,-5,7960,24,5.1,3.5
2013,2,10,21:00,UTC,8,1013.4,0.2,93,0.4,50,-3.9,-4.9,2720,25,5.8,3.8
2013,2,10,22:00,UTC,8,1013.4,-1,94,0,50,-3.9,-4.8,10830,34,6,3.7
2013,2,10,23:00,UTC,7,1013.4,-1,94,0,50,-3.7,-4.5,9570,31,4.6,3.1
2013,2,11,00:00,UTC,8,1013.6,-1,94,0,49,-3.5,-4.3,7840,22,4.6,3.2
2013,2,11,01:00,UTC,8,1013.6,-1,94,0,49,-3.3,-4.1,13070,25,4.5,2.8
2013,2,11,02:00,UTC,8,1013.6,-1,96,0,49,-3.2,-3.8,7060,29,5,3.5
2013,2,11,03:00,UTC,8,1013.8,-1,96,0,49,-3,-3.6,6660,37,5.3,3.3
2013,2,11,04:00,UTC,8,1014.1,-1,96,0,49,-2.8,-3.3,9270,35,4.9,3.4
2013,2,11,05:00,UTC,8,1014.4,-1,96,0,49,-2.6,-3.2,5740,32,5.5,3.7
2013,2,11,06:00,UTC,8,1014.7,-1,95,0,50,-2.4,-3.1,3740,39,4.3,2.8
2013,2,11,07:00,UTC,8,1015.1,0.2,96,0,50,-2.3,-2.8,5620,37,5.5,3.3
2013,2,11,08:00,UTC,8,1015.6,-1,96,0,50,-2,-2.6,7730,40,5.1,2.9
2013,2,11,09:00,UTC,8,1016.2,-1,94,0,50,-1.8,-2.6,11250,38,4,2.2
2013,2,11,10:00,UTC,7,1016.6,-1,93,0,50,-1.6,-2.7,13050,37,5.6,3.9
2013,2,11,11:00,UTC,8,1017,-1,92,0,50,-1.5,-2.7,17540,36,3.8,2.7
2013,2,11,12:00,UTC,8,1017.5,-1,94,0,50,-1.9,-2.8,6100,22,4.6,3.4
2013,2,11,13:00,UTC,8,1017.8,-1,92,0,50,-2,-3.1,7910,18,5,3.7
2013,2,11,14:00,UTC,8,1018.3,-1,93,0,50,-2.2,-3.2,8460,11,4.7,3.5
2013,2,11,15:00,UTC,7,1018.7,-1,93,0,50,-2.5,-3.5,2410,8,5.1,2.9
2013,2,11,16:00,UTC,8,1019.4,0.5,95,0,51,-3,-3.7,3710,343,3.9,3.1
2013,2,11,17:00,UTC,8,1019.7,0.1,94,0,50,-3.3,-4.1,5310,1,4.5,3.4
2013,2,11,18:00,UTC,8,1020.3,0.1,94,0.8,50,-3.6,-4.5,6660,354,4.9,3.3
2013,2,11,19:00,UTC,8,1020.9,-1,93,0,50,-3.9,-4.8,9650,358,4.8,3.3
2013,2,11,20:00,UTC,8,1021.4,-1,94,0,50,-4.3,-5.1,2480,340,3.7,2.8
2013,2,11,21:00,UTC,8,1021.7,0.2,94,1,51,-4.8,-5.6,2120,345,3.3,2.7
2013,2,11,22:00,UTC,7,1022.1,0.1,94,0.3,51,-4.8,-5.6,6760,337,3.4,2.7
2013,2,11,23:00,UTC,8,1022.6,-1,95,0,52,-4.7,-5.5,3740,335,2.8,2.1
2013,2,12,00:00,UTC,8,1022.9,-1,94,0,55,-4.8,-5.5,2280,338,3.7,2.8
2013,2,12,01:00,UTC,8,1023.2,0.4,95,0.3,52,-4.9,-5.6,2300,337,2.9,2.2
2013,2,12,02:00,UTC,8,1023.5,0.3,94,0.4,53,-5,-5.7,1490,337,3.1,2.4
2013,2,12,03:00,UTC,8,1023.9,0.4,95,0.4,53,-5.2,-5.9,1530,339,3.2,2.5
2013,2,12,04:00,UTC,8,1024.1,0.1,95,0,54,-5.3,-6,2320,339,1.9,1.5
2013,2,12,05:00,UTC,8,1024.6,0.2,95,0,54,-5.4,-6.1,1720,339,2.9,2.3
2013,2,12,06:00,UTC,8,1025.2,0.1,95,0,54,-6.2,-6.9,3800,333,2.3,1.6
2013,2,12,07:00,UTC,8,1025.5,-1,94,0,54,-6.1,-6.8,7420,317,1.8,1.3
2013,2,12,08:00,UTC,8,1025.9,-1,94,0,54,-5.5,-6.3,13600,339,2,1.6
2013,2,12,09:00,UTC,8,1026.3,-1,94,0,54,-4.8,-5.7,3780,344,2,1.3
2013,2,12,10:00,UTC,5,1026.6,-1,92,0,53,-4.4,-5.5,19080,33,2,1.3
2013,2,12,11:00,UTC,8,1026.9,-1,92,0,54,-3.8,-4.9,19770,107,2.9,1.9
2013,2,12,12:00,UTC,8,1027.1,-1,92,0,53,-3.5,-4.6,12080,109,2.7,2
2013,2,12,13:00,UTC,8,1027.5,-1,93,0,53,-3.3,-4.3,16900,106,2.2,1.4
2013,2,12,14:00,UTC,8,1027.7,-1,94,0,53,-3.2,-4.1,17720,46,1.9,1.2
2013,2,12,15:00,UTC,8,1027.9,-1,94,0,53,-3.3,-4.1,15430,59,2.6,1.6
2013,2,12,16:00,UTC,7,1027.9,-1,95,0,53,-3.3,-4,5940,51,3.4,2.5
2013,2,12,17:00,UTC,8,1028.1,-1,95,0,53,-2.8,-3.4,10690,84,3.8,3
2013,2,12,18:00,UTC,8,1028.4,-1,95,0,53,-2.5,-3.2,15880,111,4.3,3.1
2013,2,12,19:00,UTC,8,1028.7,-1,91,0,53,-2.6,-3.8,23130,118,4.5,3
2013,2,12,20:00,UTC,8,1028.9,-1,89,0,53,-2.7,-4.3,15330,102,5.4,4
2013,2,12,21:00,UTC,9,1029.2,-1,95,0,52,-3.2,-3.8,1550,99,4.5,3.2
2013,2,12,22:00,UTC,7,1029.6,0.4,96,0,53,-3.2,-3.8,3950,108,4.6,3.3
2013,2,12,23:00,UTC,7,1029.7,-1,96,0,53,-3.1,-3.7,5570,109,5.5,3.2
2013,2,13,00:00,UTC,8,1030.1,-1,96,0,55,-3,-3.6,2140,118,5.9,3.3
2013,2,13,01:00,UTC,8,1030.9,0.2,96,0.4,53,-2.9,-3.5,2800,123,4.1,2.3
2013,2,13,02:00,UTC,8,1031.1,0.1,97,0,53,-2.8,-3.2,3180,118,4.7,3.1
2013,2,13,03:00,UTC,8,1031.2,-1,97,0,53,-2.7,-3.1,3610,117,4.8,3
2013,2,13,04:00,UTC,8,1031.4,-1,97,0,53,-2.6,-3,8130,119,4.6,3.2
2013,2,13,05:00,UTC,8,1031.9,-1,97,0,53,-2.5,-2.9,8460,121,4.4,2.8
2013,2,13,06:00,UTC,7,1032.3,-1,97,0,53,-2.4,-2.8,8050,116,4.4,2.9
2013,2,13,07:00,UTC,8,1032.7,-1,97,0,53,-2.2,-2.6,7950,118,4.5,3
2013,2,13,08:00,UTC,8,1033.2,-1,97,0,53,-1.9,-2.3,7770,122,5.6,3.4
2013,2,13,09:00,UTC,8,1033.8,-1,97,0,53,-1.7,-2,7720,125,5.8,3.6
2013,2,13,10:00,UTC,8,1034,-1,97,0,53,-1.2,-1.6,8330,122,5.5,3.8
2013,2,13,11:00,UTC,8,1034.3,-1,96,0,53,-0.7,-1.3,10900,123,4.8,3
2013,2,13,12:00,UTC,8,1034.4,-1,94,0,53,-0.4,-1.2,13360,123,4.8,2.9
2013,2,13,13:00,UTC,8,1034.7,-1,94,0,53,-0.3,-1.2,15470,126,4.3,2.7
2013,2,13,14:00,UTC,8,1034.6,-1,92,0,53,-0.4,-1.5,18120,119,4.9,3.5
2013,2,13,15:00,UTC,7,1034.8,-1,93,0,52,-0.7,-1.7,15770,124,5.1,2.7
2013,2,13,16:00,UTC,7,1035.1,-1,94,0,53,-0.9,-1.7,10100,122,4.8,2.9
2013,2,13,17:00,UTC,7,1035.1,-1,94,0,53,-1.1,-1.9,7690,127,4.8,2.9
2013,2,13,18:00,UTC,7,1035.2,-1,94,0,53,-1.4,-2.2,7720,122,5.4,2.9
2013,2,13,19:00,UTC,7,1035.2,-1,95,0,53,-1.6,-2.3,7670,127,4.2,2.5
2013,2,13,20:00,UTC,7,1035.2,-1,95,0,52,-1.7,-2.4,8520,125,4.7,2.6
2013,2,13,21:00,UTC,7,1035.2,-1,95,0,52,-1.8,-2.4,9500,125,4.1,2.5
2013,2,13,22:00,UTC,7,1035.3,-1,96,0,52,-1.8,-2.4,9080,129,4.4,2.7
2013,2,13,23:00,UTC,7,1035.4,-1,95,0,52,-1.8,-2.5,9630,131,4.5,2.1
2013,2,14,00:00,UTC,7,1035.3,-1,95,0,52,-1.9,-2.6,9480,130,4.3,2.3
2013,2,14,01:00,UTC,7,1035,-1,95,0,52,-2.1,-2.7,8530,130,4.5,2.5
2013,2,14,02:00,UTC,7,1034.6,-1,95,0,52,-2.2,-2.9,8110,130,5,2.5
2013,2,14,03:00,UTC,7,1034.6,-1,95,0,52,-2.3,-3,8750,131,3.9,2.2
2013,2,14,04:00,UTC,7,1034.3,-1,95,0,52,-2.5,-3.2,9230,131,4.3,2.4
2013,2,14,05:00,UTC,7,1034.2,-1,94,0,52,-2.6,-3.4,9860,132,4.4,2.5
2013,2,14,06:00,UTC,7,1033.8,-1,95,0,52,-2.7,-3.4,9790,132,5.4,3
2013,2,14,07:00,UTC,7,1033.9,-1,95,0,52,-2.7,-3.4,9330,131,4.1,2.6
2013,2,14,08:00,UTC,7,1033.7,-1,94,0,52,-2.5,-3.3,9160,136,3.9,2.1
2013,2,14,09:00,UTC,7,1033.6,-1,94,0,52,-2.4,-3.3,9890,137,4.7,2.4
2013,2,14,10:00,UTC,7,1033.5,-1,93,0,52,-2.2,-3.2,10850,143,4.2,1.7
2013,2,14,11:00,UTC,7,1033.2,-1,91,0,52,-2.1,-3.3,13730,141,4.8,2.3
2013,2,14,12:00,UTC,7,1032.8,-1,90,0,52,-2.1,-3.5,13900,143,4.7,2.1
2013,2,14,13:00,UTC,7,1032.4,-1,90,0,52,-2.3,-3.6,16340,143,4.4,2.1
2013,2,14,14:00,UTC,7,1032.2,-1,91,0,52,-2.5,-3.7,11350,135,3.5,2
2013,2,14,15:00,UTC,7,1032.1,-1,93,0,52,-2.7,-3.7,10570,139,2.7,1.6
2013,2,14,16:00,UTC,7,1031.9,-1,94,0,52,-2.9,-3.7,8390,143,3,1.6
2013,2,14,17:00,UTC,7,1031.7,-1,93,0,51,-2.9,-3.8,11570,149,3.7,2
2013,2,14,18:00,UTC,7,1031.3,-1,93,0,51,-3,-4,11130,145,2.7,1.6
2013,2,14,19:00,UTC,7,1031.1,-1,94,0,51,-3.1,-4,12420,143,2.4,1.4
2013,2,14,20:00,UTC,7,1030.9,-1,94,0,51,-3.1,-4,13890,143,2.8,1.7
2013,2,14,21:00,UTC,7,1030.7,-1,94,0,51,-3.2,-4.1,13000,144,2.7,1.6
2013,2,14,22:00,UTC,8,1030.7,-1,94,0,51,-3.2,-4.1,11950,145,2.4,1.3
2013,2,14,23:00,UTC,8,1030.4,-1,94,0,51,-3.3,-4.1,10040,153,2.7,1.4
2013,2,15,00:00,UTC,8,1030.1,-1,95,0,51,-3.4,-4.2,10280,149,3.4,1.5
2013,2,15,01:00,UTC,8,1029.8,-1,94,0,51,-3.5,-4.3,9880,143,2.2,1.1
2013,2,15,02:00,UTC,8,1029.5,-1,95,0,51,-3.6,-4.3,9810,152,2,1.2
2013,2,15,03:00,UTC,8,1029.2,-1,95,0,51,-3.6,-4.3,8840,153,2,1.1
2013,2,15,04:00,UTC,8,1029,-1,95,0,51,-3.7,-4.4,7970,161,1.8,0.9
2013,2,15,05:00,UTC,8,1028.9,-1,96,0,51,-3.8,-4.4,7180,148,2.3,1.2
2013,2,15,06:00,UTC,8,1028.9,-1,96,0,51,-3.8,-4.4,6540,153,1.9,1.1
2013,2,15,07:00,UTC,8,1028.8,-1,95,0,51,-3.8,-4.4,5880,134,1.5,0.8
2013,2,15,08:00,UTC,7,1028.8,-1,94,0,51,-3.5,-4.3,5770,152,1.8,0.9
2013,2,15,09:00,UTC,8,1028.9,-1,93,0,52,-3.3,-4.3,5470,146,2.1,1.2
2013,2,15,10:00,UTC,8,1028.8,-1,92,0,51,-3.1,-4.2,6930,160,1.9,1.1
2013,2,15,11:00,UTC,8,1028.5,-1,90,0,51,-2.8,-4.1,9180,204,2.2,1.1
2013,2,15,12:00,UTC,8,1028.4,-1,90,0,51,-2.6,-4,9900,221,1.7,0.8
2013,2,15,13:00,UTC,8,1028.2,-1,91,0,51,-2.7,-4,9930,174,1.5,1
2013,2,15,14:00,UTC,8,1028.1,-1,91,0,51,-2.7,-3.9,10560,187,1.4,0.8
2013,2,15,15:00,UTC,8,1027.9,-1,93,0,51,-2.8,-3.9,9050,170,1.4,0.9
2013,2,15,16:00,UTC,8,1027.9,-1,94,0,51,-3,-3.9,8420,181,1.1,0.6
2013,2,15,17:00,UTC,8,1027.9,-1,94,0,51,-3.3,-4.1,7240,0,0.7,0
2013,2,15,18:00,UTC,8,1027.7,-1,95,0,51,-3.4,-4.1,5930,160,1.1,0.8
2013,2,15,19:00,UTC,8,1027.7,-1,96,0,51,-3.5,-4.1,5650,168,1.5,0.8
2013,2,15,20:00,UTC,8,1027.5,-1,96,0,51,-3.4,-4,5030,173,1.1,0.7
2013,2,15,21:00,UTC,7,1027.5,-1,96,0,51,-3.5,-4,6110,170,1.6,0.9
2013,2,15,22:00,UTC,8,1027.4,-1,96,0,51,-3.8,-4.3,4990,0,0.8,0
2013,2,15,23:00,UTC,8,1027.4,-1,97,0,51,-3.9,-4.4,5400,150,0.7,0.6
2013,2,16,00:00,UTC,8,1027.3,-1,96,0,51,-3.9,-4.4,5940,0,0.6,0
2013,2,16,01:00,UTC,8,1026.9,-1,96,0,50,-3.9,-4.4,6520,0,1.3,0
2013,2,16,02:00,UTC,8,1026.7,-1,95,0,50,-3.6,-4.4,11360,240,2.8,1.4
2013,2,16,03:00,UTC,8,1026.6,-1,95,0,50,-4.1,-4.8,6480,0,1.1,0
2013,2,16,04:00,UTC,8,1026.6,-1,96,0,50,-4.4,-4.9,4910,131,0.8,0.6
2013,2,16,05:00,UTC,8,1026.5,-1,97,0,50,-4.5,-4.9,5520,135,1,0.8
2013,2,16,06:00,UTC,8,1026.4,-1,97,0,50,-4.6,-5,6360,145,1,0.7
2013,2,16,07:00,UTC,8,1026.6,-1,96,0,50,-4.3,-4.8,6940,142,1.3,0.9
2013,2,16,08:00,UTC,8,1026.6,-1,95,0,50,-4.1,-4.7,7170,131,1.6,1.1
2013,2,16,09:00,UTC,8,1026.7,-1,93,0,50,-3.6,-4.5,8430,156,1.8,0.9
2013,2,16,10:00,UTC,8,1026.6,-1,92,0,50,-3.2,-4.4,10830,135,2.2,1.4
2013,2,16,11:00,UTC,8,1026.5,-1,90,0,50,-2.8,-4.2,12230,130,2.3,1.5
2013,2,16,12:00,UTC,8,1026.2,-1,85,0,50,-2.2,-4.3,17740,163,2.1,0.9
2013,2,16,13:00,UTC,8,1025.9,-1,85,0,50,-2.3,-4.4,24710,167,2.7,1.4
2013,2,16,14:00,UTC,8,1025.7,-1,86,0,50,-2.5,-4.4,24330,159,2.7,1.3
2013,2,16,15:00,UTC,8,1025.7,-1,89,0,50,-2.8,-4.4,20200,154,2.3,1.4
2013,2,16,16:00,UTC,8,1025.5,-1,91,0,50,-3.2,-4.5,13670,155,1.9,1.1
2013,2,16,17:00,UTC,8,1025.2,-1,92,0,50,-3.4,-4.6,12040,154,2.2,1.1
2013,2,16,18:00,UTC,8,1025,-1,92,0,50,-3.6,-4.7,12640,143,2.5,1.5
2013,2,16,19:00,UTC,8,1024.8,-1,92,0,50,-3.4,-4.6,15150,147,2.9,1.7
2013,2,16,20:00,UTC,8,1024.5,-1,91,0,50,-3.3,-4.5,13960,155,3.3,1.7
2013,2,16,21:00,UTC,8,1024.3,-1,93,0,50,-3.2,-4.3,10280,163,3.1,1.6
2013,2,16,22:00,UTC,8,1024.2,-1,93,0,50,-3.2,-4.2,10460,156,3,1.4
2013,2,16,23:00,UTC,8,1023.8,-1,93,0,50,-3.2,-4.2,10270,159,3.8,1.6
2013,2,17,00:00,UTC,8,1023.4,-1,94,0,50,-3.1,-4,8470,183,3.3,1.8
2013,2,17,01:00,UTC,8,1022.9,-1,95,0,50,-3.1,-3.7,6430,186,3.7,2
2013,2,17,02:00,UTC,8,1022.6,-1,96,0,50,-3,-3.6,5800,168,3,1.4
2013,2,17,03:00,UTC,8,1022.1,-1,96,0,50,-2.9,-3.4,4840,171,3.4,1.7
2013,2,17,04:00,UTC,8,1021.6,-1,97,0,50,-2.8,-3.2,4160,161,2.8,1.2
2013,2,17,05:00,UTC,8,1021.4,-1,97,0,50,-2.6,-3,4260,179,3,1.8
2013,2,17,06:00,UTC,8,1021.2,-1,98,0,50,-2.5,-2.8,3350,183,2.6,1.5
2013,2,17,07:00,UTC,8,1021.2,-1,98,0,50,-2.3,-2.5,2650,175,2.9,1.6
2013,2,17,08:00,UTC,8,1020.9,-1,97,0,50,-1.9,-2.3,3570,182,3.2,1.8
2013,2,17,09:00,UTC,8,1020.8,-1,97,0,50,-1.6,-2.1,4250,186,3.2,1.8
2013,2,17,10:00,UTC,8,1020.7,-1,96,0,50,-1.4,-1.9,6030,188,3.2,1.9
2013,2,17,11:00,UTC,8,1020.4,-1,95,0,50,-1.1,-1.8,6470,184,2.9,1.4
2013,2,17,12:00,UTC,8,1020,-1,95,0,50,-1.1,-1.8,6370,181,2.7,1.4
2013,2,17,13:00,UTC,8,1019.6,-1,95,0,50,-1,-1.7,6550,180,2.9,1.3
2013,2,17,14:00,UTC,8,1019.2,-1,95,0,50,-1.1,-1.8,5780,174,2.6,1.1
2013,2,17,15:00,UTC,7,1019,-1,96,0,50,-1.3,-1.8,5550,155,2.4,1.1
2013,2,17,16:00,UTC,7,1018.9,-1,96,0,50,-1.4,-1.9,6220,153,2.2,1.1
2013,2,17,17:00,UTC,8,1018.6,-1,97,0,50,-1.5,-1.9,4950,161,1.7,0.7
2013,2,17,18:00,UTC,8,1018.4,-1,97,0,50,-1.6,-2,2970,154,2.3,1.2
2013,2,17,19:00,UTC,8,1018.2,-1,97,0,50,-1.5,-1.9,4820,159,2.2,1.1
2013,2,17,20:00,UTC,8,1018,-1,97,0,50,-1.5,-1.9,5800,165,2.8,1.4
2013,2,17,21:00,UTC,8,1017.8,-1,98,0,50,-1.6,-1.9,4640,155,1.8,0.9
2013,2,17,22:00,UTC,8,1017.4,-1,98,0,49,-1.6,-1.9,4420,152,2.4,1.2
2013,2,17,23:00,UTC,8,1017.3,-1,98,0,49,-1.7,-2,3980,141,1.7,0.9
2013,2,18,00:00,UTC,7,1016.9,-1,98,0,49,-1.8,-2.1,3380,125,2,1.2
2013,2,18,01:00,UTC,8,1016.5,-1,98,0,49,-1.9,-2.2,3890,128,1.8,1.1
2013,2,18,02:00,UTC,8,1016,-1,98,0,49,-2,-2.3,3570,128,1.5,0.9
2013,2,18,03:00,UTC,8,1015.8,-1,98,0,49,-2.3,-2.6,5370,113,3,2.2
2013,2,18,04:00,UTC,8,1015.6,-1,98,0,49,-2.3,-2.6,2920,123,1.5,1
2013,2,18,05:00,UTC,8,1015.4,0.3,98,0.2,49,-2.3,-2.6,3020,100,1.9,1.4
2013,2,18,06:00,UTC,8,1015.4,-1,98,0,49,-2.4,-2.8,4820,103,2.4,1.5
2013,2,18,07:00,UTC,8,1015.4,-1,98,0,49,-2.4,-2.8,3740,103,2.9,2
2013,2,18,08:00,UTC,7,1015.5,-1,97,0,49,-2.4,-2.7,4430,97,2.9,1.9
2013,2,18,09:00,UTC,8,1015.5,-1,96,0,49,-2.2,-2.7,6490,80,3,2.2
2013,2,18,10:00,UTC,7,1015.6,-1,92,0,49,-2.1,-3.2,6890,80,3.4,2.6
2013,2,18,11:00,UTC,8,1015.7,0.3,90,0.2,50,-2.1,-3.6,8490,68,3.8,2.4
2013,2,18,12:00,UTC,8,1015.6,-1,87,0,50,-1.9,-3.7,16060,78,4.6,3
2013,2,18,13:00,UTC,8,1015.7,-1,88,0,50,-1.9,-3.6,5530,82,4.4,3.3
2013,2,18,14:00,UTC,7,1015.9,-1,88,0,49,-2.1,-3.8,11210,79,3.9,2.8
2013,2,18,15:00,UTC,8,1016.3,0.2,91,0,49,-2.3,-3.5,8710,89,4.3,3.2
2013,2,18,16:00,UTC,8,1016.6,-1,91,0,49,-2.4,-3.7,14730,71,3.4,1.9
2013,2,18,17:00,UTC,8,1016.9,-1,92,0,49,-2.5,-3.6,9710,76,3.2,2.2
2013,2,18,18:00,UTC,8,1017.4,-1,88,0,49,-2.7,-4.5,18950,96,5,3.8
2013,2,18,19:00,UTC,8,1017.9,-1,90,0,50,-2.9,-4.3,24200,83,2.7,2
2013,2,18,20:00,UTC,8,1018.3,-1,92,0,49,-2.8,-3.9,21220,77,4.6,3.1
2013,2,18,21:00,UTC,8,1018.8,-1,92,0,49,-3,-4.2,20330,92,4.1,2.5
2013,2,18,22:00,UTC,8,1019.2,-1,92,0,49,-4,-5.1,6670,47,2.1,1.6
2013,2,18,23:00,UTC,7,1019.7,-1,94,0,48,-4.4,-5.3,8400,351,2.1,1.6
2013,2,19,00:00,UTC,8,1019.8,-1,94,0,48,-3.8,-4.6,12180,345,3.3,2.6
2013,2,19,01:00,UTC,8,1020,-1,94,0,48,-3.3,-4.1,13880,359,3.6,2.4
2013,2,19,02:00,UTC,8,1020.3,-1,95,0,48,-3.3,-4,7710,349,4.6,2.9
2013,2,19,03:00,UTC,7,1020.4,-1,95,0,48,-3.2,-3.9,5680,12,6.1,3.4
2013,2,19,04:00,UTC,7,1020.7,-1,95,0,48,-3.1,-3.9,10780,355,3.9,2.8
2013,2,19,05:00,UTC,7,1021.1,-1,94,0,49,-2.7,-3.6,13640,19,5.2,3.4
2013,2,19,06:00,UTC,7,1021.5,-1,94,0,48,-2.6,-3.4,8950,16,3.8,2.5
2013,2,19,07:00,UTC,7,1021.9,-1,93,0,49,-2.4,-3.4,9160,25,4.3,2.9
2013,2,19,08:00,UTC,7,1022.3,-1,92,0,48,-2.2,-3.3,11000,44,5.1,3.3
2013,2,19,09:00,UTC,7,1023,-1,88,0,48,-2,-3.7,21490,41,5,3.2
2013,2,19,10:00,UTC,7,1023.4,-1,85,0,48,-2,-4.1,21150,35,6.1,4.3
2013,2,19,11:00,UTC,7,1023.8,-1,79,0,49,-1.8,-5,38740,52,6.4,4.4
2013,2,19,12:00,UTC,7,1024.3,-1,75,0,49,-2.2,-6,43060,45,7.3,4.3
2013,2,19,13:00,UTC,7,1024.6,-1,71,0,49,-2.2,-6.8,38830,66,6.1,4.1
2013,2,19,14:00,UTC,7,1024.8,-1,80,0,49,-2.8,-5.7,49850,27,3.1,2.3
2013,2,19,15:00,UTC,7,1025.2,-1,81,0,48,-2.8,-5.6,36200,30,4.8,3.3
2013,2,19,16:00,UTC,7,1025.7,-1,82,0,48,-3,-5.7,48940,26,4.2,2.7
2013,2,19,17:00,UTC,7,1026.1,-1,87,0,48,-3.2,-5.1,38200,16,4.2,2.6
2013,2,19,18:00,UTC,7,1026.7,-1,82,0,48,-3.5,-6.2,50000,34,8.4,4.7
2013,2,19,19:00,UTC,7,1027.2,-1,81,0,48,-4,-6.8,39310,27,6,3.2
2013,2,19,20:00,UTC,7,1027.7,-1,82,0,48,-4.4,-7.1,27560,29,5.1,3.7
2013,2,19,21:00,UTC,7,1028.2,-1,82,0,48,-4.9,-7.6,41110,5,7,4.9
2013,2,19,22:00,UTC,7,1028.6,-1,82,0,48,-5.3,-7.8,50000,31,6.3,4.5
2013,2,19,23:00,UTC,7,1029.1,-1,83,0,48,-5.7,-8.1,50000,359,7.6,5.4
2013,2,20,00:00,UTC,7,1029.6,-1,85,0,48,-6,-8.2,50000,28,4.3,3
2013,2,20,01:00,UTC,7,1029.6,-1,86,0,49,-6.1,-8,39100,34,5.9,4.1
2013,2,20,02:00,UTC,7,1029.5,-1,86,0,49,-6.2,-8.2,27170,5,5,3.3
2013,2,20,03:00,UTC,7,1029.6,-1,87,0,49,-6.5,-8.3,12130,337,4.6,3.3
2013,2,20,04:00,UTC,1,1030.1,-1,89,0,48,-9.3,-10.7,44520,331,4.8,3.4
2013,2,20,05:00,UTC,1,1029.9,-1,93,0,48,-10.5,-11.5,27430,326,5.6,4.2
2013,2,20,06:00,UTC,0,1030,-1,91,0,48,-9.2,-10.3,47590,343,5.5,4
2013,2,20,07:00,UTC,3,1030.4,-1,89,0,49,-9.1,-10.6,39050,338,5.2,4.1
2013,2,20,08:00,UTC,0,1030.7,-1,86,0,49,-8.8,-10.7,31120,352,6.4,5.2
2013,2,20,09:00,UTC,0,1030.9,-1,83,0,49,-8.1,-10.4,30020,349,5.7,3.9
2013,2,20,10:00,UTC,0,1030.8,-1,82,0,49,-7.2,-9.8,32130,349,6,4.6
2013,2,20,11:00,UTC,0,1030.9,-1,81,0,48,-6.6,-9.4,25960,342,6.8,5.2
2013,2,20,12:00,UTC,0,1030.7,-1,79,0,48,-6.1,-9.1,23940,346,4.5,3.3
2013,2,20,13:00,UTC,0,1030.6,-1,79,0,48,-5.9,-8.9,20120,339,5.6,4.3
2013,2,20,14:00,UTC,0,1030.7,-1,80,0,48,-6.1,-9,19560,355,5.5,4.3
2013,2,20,15:00,UTC,0,1030.9,-1,83,0,48,-8.7,-11.1,20790,347,4.2,3.1
2013,2,20,16:00,UTC,0,1030.8,-1,89,0,49,-8.2,-9.8,19950,359,3.4,2.4
2013,2,20,17:00,UTC,0,1030.9,-1,91,0,48,-9.3,-10.6,31510,344,3.4,2.5
2013,2,20,18:00,UTC,0,1031,-1,93,0,48,-9.1,-10,21750,337,2.7,2.1
2013,2,20,19:00,UTC,0,1031.3,-1,90,0,48,-13.8,-15.1,18480,307,2.6,2
2013,2,20,20:00,UTC,0,1031.3,-1,90,0,48,-13.2,-14.5,20300,304,2.5,1.4
2013,2,20,21:00,UTC,0,1031.1,-1,88,0,48,-13.4,-15,35430,306,2.3,1.7
2013,2,20,22:00,UTC,0,1031.1,-1,89,0,48,-14.6,-16,50000,311,1.9,1.1
2013,2,20,23:00,UTC,5,1031.3,-1,86,0,49,-16.5,-18.2,29560,0,0.9,0
2013,2,21,00:00,UTC,8,1030.8,-1,88,0,49,-14.1,-15.7,14180,187,1.4,0.8
2013,2,21,01:00,UTC,8,1030.3,-1,88,0,49,-13,-14.5,6390,289,1.6,1.2
2013,2,21,02:00,UTC,8,1029.6,-1,91,0,49,-10.6,-11.8,2590,276,2.9,1.5
2013,2,21,03:00,UTC,8,1029.1,-1,91,0,49,-10.8,-12,2830,206,2.8,1.1
2013,2,21,04:00,UTC,8,1028.9,-1,90,0,49,-11,-12.3,2150,216,2.3,1
2013,2,21,05:00,UTC,8,1028.4,-1,90,0,49,-11.3,-12.6,3070,194,2.6,1.2
2013,2,21,06:00,UTC,8,1028,-1,90,0,49,-11.6,-13,4430,192,2.6,1.6
2013,2,21,07:00,UTC,8,1027.6,-1,90,0,48,-11,-12.3,5310,180,2.7,1.4
2013,2,21,08:00,UTC,7,1027.3,-1,91,0,48,-10,-11.3,7770,190,3.3,1.6
2013,2,21,09:00,UTC,1,1026.7,-1,91,0,48,-9.4,-10.6,14860,184,5.3,2.8
2013,2,21,10:00,UTC,1,1025.8,-1,91,0,48,-8.2,-9.4,19130,198,3.9,2.3
2013,2,21,11:00,UTC,5,1024.8,-1,88,0,48,-7.6,-9.2,33660,211,6.5,2.9
2013,2,21,12:00,UTC,3,1024.2,-1,85,0,48,-6.8,-8.9,38060,215,4.9,2.3
2013,2,21,13:00,UTC,7,1023.4,-1,82,0,48,-6.2,-8.7,43820,203,7.1,2.7
2013,2,21,14:00,UTC,7,1022.8,-1,82,0,48,-5.9,-8.5,46010,210,4.1,2
2013,2,21,15:00,UTC,7,1022,-1,84,0,48,-5.9,-8.2,46190,220,4.4,2
2013,2,21,16:00,UTC,7,1021.3,-1,88,0,48,-5.9,-7.6,37920,233,5.7,2.4
2013,2,21,17:00,UTC,8,1021.1,-1,90,0,48,-5.6,-6.9,32280,251,6.2,2.6
2013,2,21,18:00,UTC,8,1020.5,-1,92,0,48,-5.4,-6.6,19980,236,6.1,3.2
2013,2,21,19:00,UTC,8,1020.4,-1,93,0,48,-5.1,-6.2,16010,256,6.6,2.5
2013,2,21,20:00,UTC,8,1020.1,-1,93,0,48,-5,-5.9,15110,250,4.6,1.9
2013,2,21,21:00,UTC,8,1019.5,-1,95,0,48,-4.7,-5.4,10760,253,4.9,2.3
2013,2,21,22:00,UTC,8,1019.4,-1,95,0,48,-4.4,-5.1,2320,254,3.1,1.7
2013,2,21,23:00,UTC,8,1019.3,-1,94,0,48,-4.3,-5.2,3780,234,3,1.4
2013,2,22,00:00,UTC,7,1019.2,0.3,94,0.3,49,-4.3,-5.2,2080,267,3.5,1.3
2013,2,22,01:00,UTC,8,1019.7,-1,95,0,49,-4.7,-5.3,17120,0,1,0
2013,2,22,02:00,UTC,8,1019.8,-1,95,0,49,-4.3,-5,14820,137,1,0.6
2013,2,22,03:00,UTC,8,1020,-1,95,0,49,-4.1,-4.8,3180,305,1.1,0.7
2013,2,22,04:00,UTC,8,1020.1,-1,97,0,49,-3.6,-4,6880,299,1.8,1.3
2013,2,22,05:00,UTC,8,1020.7,-1,97,0,49,-2.8,-3.2,10820,324,2.4,1.9
2013,2,22,06:00,UTC,8,1021.1,-1,98,0,48,-2.7,-3.1,3010,319,2.2,1.9
2013,2,22,07:00,UTC,8,1021.9,-1,98,0,48,-2.3,-2.6,1610,360,3,2.2
2013,2,22,08:00,UTC,8,1022.7,-1,97,0,48,-2.1,-2.5,7140,69,3.6,2.2
2013,2,22,09:00,UTC,8,1023.3,-1,95,0,48,-2.2,-2.9,5950,64,3.7,2.8
2013,2,22,10:00,UTC,8,1023.6,-1,93,0,48,-2,-3,32650,95,4,2.8
2013,2,22,11:00,UTC,8,1024.1,-1,91,0,48,-2,-3.2,49020,72,3.6,2.2
2013,2,22,12:00,UTC,8,1024.2,-1,91,0,48,-1.9,-3.2,12330,91,2.2,1.1
2013,2,22,13:00,UTC,8,1024.3,-1,90,0,48,-2,-3.4,11250,69,2.5,1.9
2013,2,22,14:00,UTC,8,1024.9,-1,89,0,48,-2.1,-3.6,31230,63,3.7,2.5
2013,2,22,15:00,UTC,8,1025.7,-1,90,0,48,-2.9,-4.4,20150,53,4.7,3.3
2013,2,22,16:00,UTC,8,1026.2,-1,90,0,48,-3.7,-5.1,27470,81,4,2.9
2013,2,22,17:00,UTC,8,1026.6,-1,91,0,48,-4,-5.3,33110,77,2.7,1.9
2013,2,22,18:00,UTC,8,1027.1,-1,91,0,48,-4.2,-5.4,39520,58,2.2,1.6
2013,2,22,19:00,UTC,8,1027.5,-1,91,0,48,-4.4,-5.7,48010,89,2,1.4
2013,2,22,20:00,UTC,8,1027.7,-1,90,0,48,-4.4,-5.7,36570,102,2,1.6
2013,2,22,21:00,UTC,7,1027.8,-1,91,0,48,-4.6,-5.9,33480,116,1.8,1.3
2013,2,22,22:00,UTC,8,1027.9,-1,91,0,48,-4.6,-5.8,27920,157,1.6,0.8
2013,2,22,23:00,UTC,8,1028.1,-1,92,0,48,-4.6,-5.8,28800,155,1.7,0.9
2013,2,23,00:00,UTC,7,1027.7,-1,93,0,48,-4.6,-5.6,30700,161,2,1.2
2013,2,23,01:00,UTC,8,1027.9,-1,93,0,48,-4.6,-5.5,23690,122,1.7,0.9
2013,2,23,02:00,UTC,8,1027.8,-1,94,0,48,-4.4,-5.3,17590,160,2.2,1.2
2013,2,23,03:00,UTC,8,1027.5,-1,94,0,48,-4.1,-5,19980,167,1.9,1.1
2013,2,23,04:00,UTC,8,1027.2,-1,94,0,48,-3.9,-4.7,16830,162,2,1.1
2013,2,23,05:00,UTC,8,1027.1,-1,94,0,48,-3.1,-3.8,10360,231,4.3,1.2
2013,2,23,06:00,UTC,8,1027,-1,94,0,48,-2.9,-3.7,4160,232,4.7,2.4
2013,2,23,07:00,UTC,8,1027,-1,91,0,48,-2.8,-4,10350,231,3.9,1.5
2013,2,23,08:00,UTC,8,1027,-1,91,0,48,-2.6,-3.9,9730,230,5.2,2.3
2013,2,23,09:00,UTC,8,1027.2,-1,89,0,48,-2.2,-3.7,19150,231,7.1,2.9
2013,2,23,10:00,UTC,8,1027.1,-1,88,0,48,-1.7,-3.4,31490,241,6.6,2.8
2013,2,23,11:00,UTC,8,1026.8,-1,88,0,48,-1.4,-3.2,17180,232,7.1,3.5
2013,2,23,12:00,UTC,8,1026.7,-1,88,0,48,-1.1,-2.8,17460,244,6.2,3.3
2013,2,23,13:00,UTC,8,1026.6,-1,90,0,48,-1,-2.5,37440,247,7.7,3.3
2013,2,23,14:00,UTC,8,1026.5,-1,89,0,48,-0.9,-2.5,44840,253,7.3,3.5
2013,2,23,15:00,UTC,8,1026.6,-1,88,0,48,-0.9,-2.6,45900,249,7.7,3.1
2013,2,23,16:00,UTC,8,1026.8,-1,89,0,48,-1,-2.6,34060,253,6.5,2.8
2013,2,23,17:00,UTC,7,1026.7,-1,90,0,48,-1,-2.4,27630,242,5.7,2.5
2013,2,23,18:00,UTC,8,1027,-1,90,0,48,-1,-2.5,26900,240,6.2,2.7
2013,2,23,19:00,UTC,8,1026.8,-1,90,0,48,-1,-2.5,31540,243,6.8,3.3
2013,2,23,20:00,UTC,8,1026.9,-1,90,0,48,-1.3,-2.7,46850,246,5,2.3
2013,2,23,21:00,UTC,8,1027.4,-1,89,0,48,-1.6,-3.2,50000,257,6.1,2.6
2013,2,23,22:00,UTC,8,1027.5,-1,89,0,48,-1.9,-3.4,47550,240,4.2,2.6
2013,2,23,23:00,UTC,8,1027.5,-1,90,0,48,-2.1,-3.4,49770,236,5.3,2.4
2013,2,24,00:00,UTC,8,1027.4,-1,91,0,48,-2.2,-3.5,50000,240,5.2,2.5
2013,2,24,01:00,UTC,8,1027.8,-1,91,0,48,-2.3,-3.6,50000,261,5.5,2.4
2013,2,24,02:00,UTC,8,1027.7,-1,92,0,48,-2.3,-3.5,50000,247,5.8,2.4
2013,2,24,03:00,UTC,8,1027.5,-1,93,0,48,-2.4,-3.4,47400,237,5,2.5
2013,2,24,04:00,UTC,7,1027.6,-1,93,0,48,-2.3,-3.3,44470,225,3.7,2
2013,2,24,05:00,UTC,7,1027.5,-1,93,0,48,-2.3,-3.3,49710,228,5.2,2.4
2013,2,24,06:00,UTC,7,1027.7,-1,94,0,48,-2.3,-3.2,41660,235,4.9,2.4
2013,2,24,07:00,UTC,7,1027.9,-1,94,0,48,-2.2,-3.1,32280,226,5,1.8
2013,2,24,08:00,UTC,7,1028,-1,94,0,48,-2.1,-2.9,25270,236,4.6,2.1
2013,2,24,09:00,UTC,7,1028,-1,94,0,48,-1.6,-2.5,21580,233,4,2.2
2013,2,24,10:00,UTC,7,1028.2,-1,93,0,48,-1.5,-2.4,18760,235,6.6,2.9
2013,2,24,11:00,UTC,7,1028.2,-1,92,0,48,-1.2,-2.3,31370,236,5.3,2.2
2013,2,24,12:00,UTC,7,1028.3,-1,93,0,48,-1.2,-2.2,22730,244,6.4,3
2013,2,24,13:00,UTC,7,1028.3,-1,93,0,48,-1.1,-2.2,24660,230,7.5,3.4
2013,2,24,14:00,UTC,7,1028.3,-1,92,0,48,-1,-2.1,20570,246,5,2.1
2013,2,24,15:00,UTC,7,1028.2,-1,92,0,48,-1,-2.1,26300,240,3.9,1.7
2013,2,24,16:00,UTC,7,1028.2,-1,93,0,48,-1.1,-2.1,29030,244,5.5,2.7
2013,2,24,17:00,UTC,7,1028.6,-1,93,0,48,-1.1,-2,22870,248,5.7,2.8
2013,2,24,18:00,UTC,7,1028.7,-1,94,0,48,-1.1,-1.8,8890,248,5.3,2.5
2013,2,24,19:00,UTC,7,1028.7,-1,96,0,48,-0.9,-1.5,7210,260,5.6,2.2
2013,2,24,20:00,UTC,7,1028.9,-1,94,0,48,-0.6,-1.4,25910,261,5.5,2.1
2013,2,24,21:00,UTC,7,1029.3,-1,95,0,48,-0.8,-1.5,27740,252,5.2,2.6
2013,2,24,22:00,UTC,7,1029.8,-1,95,0,48,-0.9,-1.6,38430,252,4.9,2.6
2013,2,24,23:00,UTC,7,1030,-1,95,0,48,-1,-1.8,39970,265,5.3,2.9
2013,2,25,00:00,UTC,7,1030.2,-1,95,0,48,-1,-1.8,42850,249,4.7,2.2
2013,2,25,01:00,UTC,7,1030.2,-1,95,0,48,-1.2,-1.9,39990,251,3.7,1.9
2013,2,25,02:00,UTC,7,1030.2,-1,95,0,48,-1.4,-2.1,39460,242,4,1.9
2013,2,25,03:00,UTC,7,1030.2,-1,96,0,48,-1.7,-2.2,24230,241,5.2,2.2
2013,2,25,04:00,UTC,7,1030.3,-1,96,0,48,-1.7,-2.3,33890,261,3.7,1.8
2013,2,25,05:00,UTC,7,1030.7,-1,95,0,47,-1.7,-2.3,43400,267,3.3,1.6
2013,2,25,06:00,UTC,7,1030.9,-1,95,0,47,-1.7,-2.4,36470,247,4.3,2.2
2013,2,25,07:00,UTC,7,1031.3,-1,95,0,47,-1.7,-2.4,29740,258,5,1.7
2013,2,25,08:00,UTC,7,1031.5,-1,94,0,47,-1.4,-2.3,28380,246,4.6,2.4
2013,2,25,09:00,UTC,7,1031.8,-1,91,0,47,-1,-2.3,46100,269,5.4,2.6
2013,2,25,10:00,UTC,7,1031.9,-1,89,0,47,-0.5,-2.1,47970,260,4.2,2.4
2013,2,25,11:00,UTC,7,1032,-1,87,0,47,-0.1,-2,39810,256,4.7,2.5
2013,2,25,12:00,UTC,7,1031.8,-1,85,0,47,0.4,-1.9,36250,256,3.9,2
2013,2,25,13:00,UTC,3,1031.7,-1,85,0,47,0.4,-1.8,36440,266,4.6,2
2013,2,25,14:00,UTC,3,1031.6,-1,87,0,47,0.1,-1.8,50000,235,3.5,1.6
2013,2,25,15:00,UTC,7,1031.8,-1,91,0,47,-0.4,-1.7,50000,243,3.9,1.9
2013,2,25,16:00,UTC,8,1031.5,-1,92,0,47,-0.5,-1.7,50000,236,4.6,2.5
2013,2,25,17:00,UTC,7,1031.4,-1,92,0,47,-0.9,-2,49340,240,4.5,1.9
2013,2,25,18:00,UTC,3,1031.4,-1,95,0,47,-1.5,-2.2,39850,250,3.8,1.1
2013,2,25,19:00,UTC,7,1031.5,-1,94,0,47,-1.2,-2.1,50000,245,5.2,2.2
2013,2,25,20:00,UTC,7,1031.3,-1,93,0,47,-1.4,-2.4,45910,255,5,2.3
2013,2,25,21:00,UTC,8,1030.9,-1,92,0,47,-1.3,-2.4,50000,232,5.9,2.3
2013,2,25,22:00,UTC,8,1030.6,-1,93,0,47,-1.1,-2.1,48210,249,5.6,2.8
2013,2,25,23:00,UTC,8,1030,-1,93,0,47,-1,-2,50000,240,4.7,2.6
2013,2,26,00:00,UTC,8,1029.7,-1,94,0,47,-1.3,-2.2,50000,248,4.1,2
2013,2,26,01:00,UTC,7,1028.7,-1,93,0,47,-1.5,-2.5,50000,248,6.6,3
2013,2,26,02:00,UTC,7,1027.7,-1,93,0,47,-1.8,-2.8,50000,227,4.5,2
2013,2,26,03:00,UTC,5,1026.5,-1,92,0,47,-2,-3.2,50000,211,5.8,2.5
2013,2,26,04:00,UTC,5,1025.6,-1,89,0,47,-1.9,-3.4,50000,231,5.9,3.2
2013,2,26,05:00,UTC,7,1023.8,-1,85,0,47,-1,-3.2,50000,242,9.1,3.2
2013,2,26,06:00,UTC,7,1022.9,-1,81,0,47,-0.3,-3.1,50000,258,8.4,3.9
2013,2,26,07:00,UTC,7,1022,-1,82,0,47,-0.2,-2.9,50000,243,6.2,2.9
2013,2,26,08:00,UTC,7,1021.3,-1,80,0,47,0.7,-2.4,47730,255,8,3.1
2013,2,26,09:00,UTC,7,1020.2,-1,75,0,47,1.7,-2.3,46800,260,8.9,3.6
2013,2,26,10:00,UTC,8,1020,-1,75,0,47,1.9,-2,13850,267,8.8,4.3
2013,2,26,11:00,UTC,7,1019,-1,81,0,47,2,-0.9,45880,266,11,5.5
2013,2,26,12:00,UTC,1,1018.2,-1,77,0,47,3.1,-0.5,41140,270,10.4,5.7
2013,2,26,13:00,UTC,0,1017.8,-1,74,0,47,3.8,-0.4,50000,273,11.8,5
2013,2,26,14:00,UTC,0,1018.2,-1,76,0,47,3.2,-0.6,50000,279,10.2,5.2
2013,2,26,15:00,UTC,0,1018.3,-1,80,0,47,2.3,-0.8,50000,284,9,5.2
2013,2,26,16:00,UTC,1,1019,-1,81,0,47,2.3,-0.6,50000,291,7.8,5
2013,2,26,17:00,UTC,7,1019.3,-1,82,0,47,2.2,-0.6,50000,296,6,3.9
2013,2,26,18:00,UTC,7,1019.9,-1,86,0,46,1.5,-0.6,50000,307,4.1,2.8
2013,2,26,19:00,UTC,5,1020.4,-1,90,0,46,0.1,-1.4,50000,301,3.3,1.8
2013,2,26,20:00,UTC,7,1020.6,-1,92,0,46,0.5,-0.7,32410,288,3.6,2.8
2013,2,26,21:00,UTC,7,1021.5,-1,96,0,47,-0.1,-0.6,43180,266,3,1.9
2013,2,26,22:00,UTC,7,1022.1,-1,96,0,46,-3.7,-4.2,50000,289,3.6,2.3
2013,2,26,23:00,UTC,1,1022.8,-1,98,0,46,-2.7,-3.1,590,319,2.5,1.3
2013,2,27,00:00,UTC,5,1023.2,-1,97,0,46,-4.6,-5,2060,0,0.5,0
2013,2,27,01:00,UTC,1,1023.4,-1,97,0,46,-4.2,-4.7,38120,149,0.8,0.6
2013,2,27,02:00,UTC,5,1023.1,-1,97,0,46,-3.8,-4.2,510,0,1,0
2013,2,27,03:00,UTC,7,1023.1,-1,95,0,46,-5.2,-5.9,46240,276,2,1.4
2013,2,27,04:00,UTC,7,1022.5,-1,96,0,46,-4.4,-4.9,46960,0,0.6,0
2013,2,27,05:00,UTC,7,1021.8,-1,97,0,46,-4,-4.5,30320,152,2.4,1.7
2013,2,27,06:00,UTC,8,1021.5,-1,97,0,46,-2.9,-3.3,4300,177,2,1.3
2013,2,27,07:00,UTC,8,1020.9,-1,98,0,46,-1.3,-1.6,2540,136,1.4,0.9
2013,2,27,08:00,UTC,7,1020.4,-1,99,0,46,0.5,0.3,13540,240,3.9,1.6
2013,2,27,09:00,UTC,8,1019.6,-1,98,0,46,1.4,1.2,3800,237,2.8,1.3
2013,2,27,10:00,UTC,8,1019,-1,97,0,46,2,1.6,21450,250,5.4,2.2
2013,2,27,11:00,UTC,7,1017.9,-1,92,0,46,3.2,2,43410,251,5.2,2.4
2013,2,27,12:00,UTC,3,1016.5,-1,82,0,46,5,2.2,43560,264,7.5,3.5
2013,2,27,13:00,UTC,0,1015.5,-1,77,0,45,5.4,1.7,50000,278,5.7,3.2
2013,2,27,14:00,UTC,0,1014.7,-1,76,0,45,5.4,1.4,50000,271,7.7,3
2013,2,27,15:00,UTC,1,1014.3,-1,78,0,45,4.7,1.1,50000,276,6.9,3.3
2013,2,27,16:00,UTC,0,1014,-1,80,0,45,4,0.9,50000,272,4.5,2.5
2013,2,27,17:00,UTC,0,1013.1,-1,81,0,45,3.5,0.6,50000,277,7.2,3.7
2013,2,27,18:00,UTC,0,1012.7,-1,80,0,45,3.2,0.1,50000,275,6.4,3.5
2013,2,27,19:00,UTC,1,1012,-1,79,0,45,3.1,-0.1,50000,273,8,3.5
2013,2,27,20:00,UTC,0,1011,-1,81,0,45,2.5,-0.4,50000,282,8.8,4
2013,2,27,21:00,UTC,0,1010,-1,82,0,45,2.3,-0.5,50000,279,8.1,4.3
2013,2,27,22:00,UTC,0,1009,-1,83,0,45,2.1,-0.5,50000,276,9.6,4.6
2013,2,27,23:00,UTC,1,1008.1,-1,82,0,45,2.1,-0.6,50000,278,10.7,5.7
2013,2,28,00:00,UTC,0,1007.4,-1,85,0,45,1.6,-0.6,50000,276,9.3,4.8
2013,2,28,01:00,UTC,1,1007.2,-1,86,0,45,1.4,-0.7,50000,287,6.6,4
2013,2,28,02:00,UTC,0,1006.4,-1,89,0,45,0.7,-1,50000,272,4.1,2.1
2013,2,28,03:00,UTC,0,1006.2,-1,94,0,45,-1.1,-2,46810,259,2.1,1.1
2013,2,28,04:00,UTC,5,1005.2,-1,94,0,45,0.1,-0.8,50000,260,4.9,2.3
2013,2,28,05:00,UTC,1,1004.7,-1,92,0,45,0.4,-0.8,50000,267,5.2,2.8
2013,2,28,06:00,UTC,0,1004.2,-1,91,0,45,0.5,-0.8,50000,262,5.4,2.9
2013,2,28,07:00,UTC,0,1003.6,-1,85,0,45,1.7,-0.6,50000,274,5.7,2.9
2013,2,28,08:00,UTC,0,1002.5,-1,79,0,45,3,-0.3,46710,277,7.3,3.5
2013,2,28,09:00,UTC,3,1000.9,-1,75,0,45,3.9,-0.2,42770,286,7.4,3.8
2013,2,28,10:00,UTC,7,1000.3,-1,73,0,45,4.4,-0.1,50000,258,5.7,3
2013,2,28,11:00,UTC,9,999.1,0.2,86,1.2,45,3,1,13400,255,5.6,2.9
2013,2,28,12:00,UTC,8,997.8,0.9,95,1,45,1.8,1.1,10250,213,4,1.7
2013,2,28,13:00,UTC,8,995.9,0.6,96,0.7,45,1.6,1.1,6800,201,3.4,1.4
2013,2,28,14:00,UTC,8,994.5,0.4,96,0.4,45,1.9,1.3,11470,233,4.5,1.9
2013,2,28,15:00,UTC,8,993.3,0.2,96,0.6,45,1.9,1.3,7520,232,3.5,1.3
2013,2,28,16:00,UTC,8,991.9,0.2,97,0,45,1.9,1.4,21280,225,3.7,1.7
2013,2,28,17:00,UTC,8,990.8,-1,96,0,44,1.7,1.2,12840,259,5,2.2
2013,2,28,18:00,UTC,9,990,1.5,97,2.7,44,0.4,-0.1,1160,268,3.7,1.8
2013,2,28,19:00,UTC,8,989.2,0.8,97,0,45,0.6,0.2,7290,282,4,2.3
2013,2,28,20:00,UTC,9,989,0.6,97,1.1,45,0.5,0.1,1890,294,6.3,4.1
2013,2,28,21:00,UTC,8,989,0.8,98,0.5,45,0.5,0.2,3950,305,5.6,4.1
2013,2,28,22:00,UTC,7,989.4,0.1,97,0,45,0.7,0.2,11840,310,6.5,4.9
2013,2,28,23:00,UTC,8,989.7,-1,96,0,45,0.6,0.1,5710,328,6.2,5.2
2013,3,1,00:00,UTC,7,990.6,-1,97,0,45,0.2,-0.2,3120,346,7.5,5.5
2013,3,1,01:00,UTC,7,991.8,-1,97,0,45,0.4,0,13750,352,8.1,5.5
2013,3,1,02:00,UTC,8,992.9,-1,95,0,45,0.3,-0.5,3940,356,11.6,7.5
2013,3,1,03:00,UTC,8,994.4,-1,94,0,45,-0.6,-1.4,4290,358,11.1,7.3
2013,3,1,04:00,UTC,8,995.8,-1,93,0,45,-2.1,-3.1,42030,358,10.8,7.1
2013,3,1,05:00,UTC,8,997.2,-1,91,0,45,-2.9,-4.2,40450,12,11,8.2
2013,3,1,06:00,UTC,8,998.4,-1,92,0,45,-3.7,-4.9,31250,14,8.9,6.3
2013,3,1,07:00,UTC,8,999.6,-1,91,0,45,-4.3,-5.6,16520,357,8.2,5.8
2013,3,1,08:00,UTC,8,1001.4,-1,87,0,45,-5.1,-7,9640,360,9.7,6.2
2013,3,1,09:00,UTC,7,1002.7,-1,84,0,45,-5.8,-8.2,7210,354,9.3,7.3
2013,3,1,10:00,UTC,7,1004.3,-1,84,0,45,-5.9,-8.2,5220,358,8.7,5.5
2013,3,1,11:00,UTC,7,1005.7,-1,81,0,45,-6.3,-9,5680,18,9.3,6.1
2013,3,1,12:00,UTC,7,1007.1,-1,73,0,45,-6.5,-10.6,24630,7,10.4,7
2013,3,1,13:00,UTC,3,1008.2,-1,66,0,45,-6.6,-11.8,44000,355,9.4,7.5
2013,3,1,14:00,UTC,0,1009.6,-1,60,0,45,-7,-13.4,50000,7,8.7,5.8
2013,3,1,15:00,UTC,0,1010.8,-1,55,0,45,-7.8,-15.3,50000,360,10.6,6.3
2013,3,1,16:00,UTC,0,1011.8,-1,61,0,45,-9.1,-15.3,50000,349,8.5,6
2013,3,1,17:00,UTC,0,1012.9,-1,65,0,44,-10.7,-16.1,50000,360,8,5.9
2013,3,1,18:00,UTC,7,1014,-1,74,0,44,-12.1,-15.8,50000,341,4.7,3.6
2013,3,1,19:00,UTC,7,1014.6,-1,66,0,44,-12.3,-17.4,50000,335,4.7,3.4
2013,3,1,20:00,UTC,5,1015.1,-1,69,0,44,-13.8,-18.2,50000,325,4.9,3.8
2013,3,1,21:00,UTC,5,1015.5,-1,72,0,44,-14.5,-18.3,50000,324,5.5,4.3
2013,3,1,22:00,UTC,0,1015.7,-1,77,0,44,-15.1,-18.2,50000,321,4.5,4
2013,3,1,23:00,UTC,0,1015.6,-1,77,0,44,-14,-17.1,50000,291,3.7,3
2013,3,2,00:00,UTC,0,1015.8,-1,83,0,44,-16,-18.3,50000,311,4.8,4.3
2013,3,2,01:00,UTC,0,1015.5,-1,83,0,44,-17.3,-19.5,50000,300,3.7,3.1
2013,3,2,02:00,UTC,0,1014.9,-1,81,0,44,-15.6,-18.1,30680,292,4.1,3
2013,3,2,03:00,UTC,0,1014.9,-1,89,0,44,-16.4,-17.8,9940,278,3,2.3
2013,3,2,04:00,UTC,0,1014.6,-1,87,0,44,-16.2,-17.9,3810,282,3.5,2.4
2013,3,2,05:00,UTC,0,1014.1,-1,84,0,44,-19.9,-21.9,42270,250,1.4,0.7
2013,3,2,06:00,UTC,3,1013.6,-1,84,0,44,-19.1,-21.2,34790,168,1.4,1.1
2013,3,2,07:00,UTC,1,1012.7,-1,81,0,44,-17.7,-20.2,41910,0,0.5,0
2013,3,2,08:00,UTC,3,1011.7,-1,81,0,44,-14.5,-17.1,30570,133,1.8,1.1
2013,3,2,09:00,UTC,7,1010.2,-1,75,0,44,-11.9,-15.4,27810,130,3.1,1.7
2013,3,2,10:00,UTC,7,1009.3,-1,69,0,44,-9.7,-14.3,41320,183,3.2,1.8
2013,3,2,11:00,UTC,7,1007.8,-1,67,0,44,-8.9,-14,31050,144,4.5,2.2
2013,3,2,12:00,UTC,7,1006.7,-1,63,0,44,-8.5,-14.3,37600,151,6.6,3.4
2013,3,2,13:00,UTC,7,1005,-1,67,0,44,-8.4,-13.4,42720,142,6.2,3.3
2013,3,2,14:00,UTC,7,1003.7,-1,71,0,44,-8.1,-12.4,50000,143,4.6,2.5
2013,3,2,15:00,UTC,7,1002.6,-1,66,0,44,-8,-13.2,50000,134,6.1,3.3
2013,3,2,16:00,UTC,7,1001.3,-1,69,0,45,-8.4,-13.1,50000,129,5.7,3.7
2013,3,2,17:00,UTC,7,1000,-1,58,0,44,-8.5,-15.2,50000,131,8.1,4.5
2013,3,2,18:00,UTC,7,999.6,-1,44,0,44,-8.8,-18.9,50000,136,6.8,3.4
2013,3,2,19:00,UTC,7,999,-1,43,0,44,-9.1,-19.2,50000,125,8.8,4.6
2013,3,2,20:00,UTC,7,998.5,-1,44,0,44,-9.2,-19.2,50000,120,8.3,5.3
2013,3,2,21:00,UTC,8,998.7,-1,44,0,44,-9.4,-19.5,50000,124,8.4,5
2013,3,2,22:00,UTC,8,998.8,-1,51,0,44,-9.7,-18,50000,111,8,5.5
2013,3,2,23:00,UTC,8,998.9,-1,59,0,44,-10.2,-16.6,50000,108,7.4,5.4
2013,3,3,00:00,UTC,8,999.2,-1,64,0,44,-10.3,-15.8,50000,100,7.7,5.5
2013,3,3,01:00,UTC,8,999.5,-1,64,0,44,-10.4,-15.9,50000,97,6.4,4.5
2013,3,3,02:00,UTC,8,1000.2,-1,63,0,44,-10.5,-16.1,50000,78,5.7,4.1
2013,3,3,03:00,UTC,7,1001,-1,59,0,44,-10.5,-17.1,50000,73,5.5,3.5
2013,3,3,04:00,UTC,7,1001.8,-1,61,0,44,-10.9,-16.9,50000,65,5.4,3.1
2013,3,3,05:00,UTC,7,1002.7,-1,61,0,44,-10.7,-16.7,50000,76,6.5,3.2
2013,3,3,06:00,UTC,7,1003.7,-1,66,0,44,-10.9,-16,50000,78,7,4.1
2013,3,3,07:00,UTC,5,1005,-1,63,0,44,-10.8,-16.6,50000,78,6,4
2013,3,3,08:00,UTC,7,1006.2,-1,63,0,44,-10.5,-16.2,40600,80,5.5,3.6
2013,3,3,09:00,UTC,7,1007.1,-1,59,0,44,-9.4,-16,36990,79,5.8,3.5
2013,3,3,10:00,UTC,0,1007.9,-1,48,0,44,-8.4,-17.5,41520,80,7.7,5.3
2013,3,3,11:00,UTC,0,1008.8,-1,43,0,44,-7.7,-18.2,33530,85,6.5,4.7
2013,3,3,12:00,UTC,0,1009.4,-1,43,0,44,-7.2,-17.7,42380,75,4.8,3.2
2013,3,3,13:00,UTC,0,1010.2,-1,47,0,44,-7.1,-16.5,40390,37,4.6,2.7
2013,3,3,14:00,UTC,5,1011.1,-1,51,0,44,-7.3,-15.8,50000,24,5.1,3.6
2013,3,3,15:00,UTC,5,1012,-1,62,0,44,-8.1,-14.1,49740,33,3.7,2.6
2013,3,3,16:00,UTC,7,1013,-1,68,0,44,-9.6,-14.4,24440,20,2.4,1.8
2013,3,3,17:00,UTC,7,1014,-1,74,0,44,-10.7,-14.4,50000,352,2.5,1.9
2013,3,3,18:00,UTC,8,1014.8,-1,80,0,44,-12.3,-15,38340,34,2.6,1
2013,3,3,19:00,UTC,7,1015.6,-1,83,0,44,-15.3,-17.5,30200,0,0.9,0
2013,3,3,20:00,UTC,5,1016.5,-1,91,0,44,-15.5,-16.7,36840,0,0.8,0
2013,3,3,21:00,UTC,3,1016.7,-1,87,0,44,-16.3,-17.9,34510,153,1.7,0.8
2013,3,3,22:00,UTC,5,1017.4,-1,87,0,44,-17.7,-19.3,35490,0,0.9,0
2013,3,3,23:00,UTC,5,1018,-1,84,0,44,-18.2,-20.3,40820,0,0.6,0
2013,3,4,00:00,UTC,0,1018.4,-1,84,0,44,-19.7,-21.8,42340,0,0.5,0
2013,3,4,01:00,UTC,0,1018.4,-1,84,0,44,-20.7,-22.7,29090,0,0.7,0
2013,3,4,02:00,UTC,0,1018.7,-1,81,0,44,-21.6,-24,29500,0,0.6,0
2013,3,4,03:00,UTC,0,1018.9,-1,82,0,44,-21.8,-24.1,36250,0,0.3,0
2013,3,4,04:00,UTC,0,1018.8,-1,79,0,44,-22.8,-25.4,31200,155,1.8,1.4
2013,3,4,05:00,UTC,0,1018.8,-1,81,0,44,-23.1,-25.5,27880,146,1.2,0.6
2013,3,4,06:00,UTC,0,1018.8,-1,82,0,44,-22.3,-24.6,24910,152,2.1,1.3
2013,3,4,07:00,UTC,7,1018.4,-1,84,0,44,-17.5,-19.5,12060,156,3.2,1.7
2013,3,4,08:00,UTC,5,1018.1,-1,83,0,44,-14.1,-16.3,21200,148,3.5,2
2013,3,4,09:00,UTC,7,1018.1,-1,83,0,44,-12.8,-15,19600,134,3.4,2.2
2013,3,4,10:00,UTC,7,1017.9,-1,78,0,44,-10.9,-14,27460,131,3.6,2
2013,3,4,11:00,UTC,7,1017.3,-1,71,0,44,-9.3,-13.5,37350,131,5.6,3.1
2013,3,4,12:00,UTC,7,1016.7,-1,65,0,44,-8.5,-13.9,35100,148,4.9,2.5
2013,3,4,13:00,UTC,7,1016.6,-1,67,0,44,-9,-14.1,46860,154,4.7,2.1
2013,3,4,14:00,UTC,8,1016.2,-1,70,0,44,-8.3,-12.9,6220,166,3.8,1.6
2013,3,4,15:00,UTC,8,1016.2,-1,84,0,44,-8.6,-10.8,3200,146,3.7,2.2
2013,3,4,16:00,UTC,8,1016.2,0.2,88,0,44,-8.7,-10.4,2310,142,3.3,1.7
2013,3,4,17:00,UTC,8,1016.3,0.2,90,0,44,-9.1,-10.5,2490,138,3.8,2.3
2013,3,4,18:00,UTC,8,1016.1,-1,90,0,44,-9.1,-10.4,3380,149,4.8,2.5
2013,3,4,19:00,UTC,8,1016.3,0.2,90,0,45,-9.2,-10.5,4450,148,4.3,1.9
2013,3,4,20:00,UTC,8,1016.2,-1,90,0,45,-9.6,-10.9,6370,141,3.4,1.8
2013,3,4,21:00,UTC,8,1016.3,-1,90,0,45,-9.4,-10.7,20850,146,3.8,2.1
2013,3,4,22:00,UTC,8,1016.5,-1,90,0,45,-9.5,-10.9,27610,155,3.8,1.7
2013,3,4,23:00,UTC,8,1016.4,-1,89,0,45,-9.5,-10.9,33670,124,3,2
2013,3,5,00:00,UTC,8,1016.1,-1,90,0,45,-9.7,-11.1,12850,119,2.6,1.9
2013,3,5,01:00,UTC,8,1015.9,-1,90,0,45,-9.8,-11.1,17260,134,2.5,1.3
2013,3,5,02:00,UTC,8,1015.8,-1,90,0,45,-9.8,-11.1,27600,135,2,1.1
2013,3,5,03:00,UTC,8,1015.6,-1,90,0,45,-9.5,-10.8,23760,122,3.4,2.1
2013,3,5,04:00,UTC,8,1015.5,-1,90,0,45,-9.4,-10.7,16450,124,2.7,1.6
2013,3,5,05:00,UTC,8,1015.2,-1,90,0,45,-9.4,-10.7,14400,131,3.5,2.1
2013,3,5,06:00,UTC,8,1014.7,-1,90,0,45,-9.1,-10.5,14660,139,4.6,2.4
2013,3,5,07:00,UTC,8,1014.2,-1,89,0,45,-8.4,-9.9,8200,137,5.5,2.5
2013,3,5,08:00,UTC,8,1014,-1,88,0,45,-7.5,-9.2,10370,143,5,2.5
2013,3,5,09:00,UTC,8,1013.6,-1,86,0,45,-6.5,-8.4,8020,149,5.4,2.5
2013,3,5,10:00,UTC,8,1013,-1,86,0,46,-5.8,-7.8,9040,148,5.6,3.1
2013,3,5,11:00,UTC,8,1012.4,-1,86,0,46,-5.3,-7.3,7820,149,5.5,2.7
2013,3,5,12:00,UTC,8,1011.6,-1,89,0,46,-5,-6.6,5630,153,6.5,3.3
2013,3,5,13:00,UTC,8,1010.7,-1,89,0,46,-4.7,-6.1,3910,150,7.4,3.3
2013,3,5,14:00,UTC,8,1010,0.4,94,0.5,46,-4.5,-5.3,1450,154,4.5,2.5
2013,3,5,15:00,UTC,8,1009.1,0.1,93,0,46,-4.4,-5.4,5510,159,5.1,2.7
2013,3,5,16:00,UTC,8,1008.5,0.2,94,1,46,-4.4,-5.3,4410,155,3.9,1.9
2013,3,5,17:00,UTC,7,1007.6,0.2,95,0.3,46,-4.2,-5,3210,149,4.8,2.4
2013,3,5,18:00,UTC,7,1007.1,0.2,95,0.3,46,-3.7,-4.5,3640,163,4.9,2.6
2013,3,5,19:00,UTC,8,1006.2,0.3,96,0.4,47,-3.6,-4.2,1980,169,5.6,2.9
2013,3,5,20:00,UTC,8,1005.5,0.2,96,0,46,-3.5,-4.1,7700,169,5.9,2.9
2013,3,5,21:00,UTC,8,1004.5,-1,97,0,46,-3.4,-3.8,2080,169,4.4,2.5
2013,3,5,22:00,UTC,8,1003.4,-1,97,0,46,-3.1,-3.6,1860,159,4.6,2.5
2013,3,5,23:00,UTC,8,1002.4,-1,97,0,47,-2.7,-3.1,3580,171,3.9,1.8
2013,3,6,00:00,UTC,8,1001.7,-1,97,0,47,-2.5,-2.8,9810,182,3.8,1.8
2013,3,6,01:00,UTC,8,1000.6,-1,98,0,47,-2.3,-2.6,5890,173,3.6,2
2013,3,6,02:00,UTC,8,999.6,-1,98,0,47,-1.8,-2.1,19130,178,4.3,1.8
2013,3,6,03:00,UTC,8,998.8,-1,98,0,47,-1.4,-1.7,4940,192,4,1.5
2013,3,6,04:00,UTC,8,997.8,-1,98,0,47,-1.1,-1.3,9150,189,4,2.2
2013,3,6,05:00,UTC,7,997,-1,98,0,47,-0.8,-1.1,8700,211,5.9,2.4
2013,3,6,06:00,UTC,8,996.2,-1,98,0,47,-0.7,-1,11770,216,5.6,2.3
2013,3,6,07:00,UTC,8,995.5,-1,96,0,47,-0.4,-1,17440,217,6.3,3.1
2013,3,6,08:00,UTC,7,994.9,-1,92,0,47,-0.2,-1.3,21420,229,6.8,3.3
2013,3,6,09:00,UTC,8,993.7,-1,95,0,46,-0.2,-1,2500,212,6.7,2.5
2013,3,6,10:00,UTC,8,992.8,0.4,97,0,47,0.1,-0.3,4690,247,5.1,2.1
2013,3,6,11:00,UTC,9,992.4,0.2,97,1,47,0.1,-0.3,970,266,6.8,3.3
2013,3,6,12:00,UTC,7,991.5,0.5,91,0,47,0.3,-1,13960,254,8.3,3.6
2013,3,6,13:00,UTC,7,991,-1,87,0,47,0.3,-1.7,25730,263,6,3
2013,3,6,14:00,UTC,9,990.6,0.4,96,0.8,49,-0.3,-0.9,1010,256,6.3,2.7
2013,3,6,15:00,UTC,7,991.5,1.3,95,0.4,51,-1.1,-1.8,2190,300,11.6,8.4
2013,3,6,16:00,UTC,7,994.2,-1,85,0,51,-6.8,-9,1040,299,18,11.9
2013,3,6,17:00,UTC,7,995.7,-1,83,0,50,-8.5,-10.8,970,296,16.4,12.3
2013,3,6,18:00,UTC,7,996.7,-1,86,0,45,-8,-9.9,750,301,16.6,12.2
2013,3,6,19:00,UTC,7,998.8,-1,84,0,44,-8.1,-10.4,530,308,16.9,12.9
2013,3,6,20:00,UTC,0,1000.5,-1,80,0,44,-9.2,-12,1140,310,17.3,12
2013,3,6,21:00,UTC,0,1002.1,-1,74,0,44,-9.3,-13.1,5270,302,13.1,9
2013,3,6,22:00,UTC,5,1003,-1,77,0,44,-9.8,-13.1,23720,301,11.8,7.7
2013,3,6,23:00,UTC,1,1003.7,-1,77,0,44,-9.9,-13.2,50000,294,8.8,6.4
2013,3,7,00:00,UTC,0,1004.3,-1,78,0,44,-10.2,-13.3,50000,293,9.4,6.5
2013,3,7,01:00,UTC,0,1004.7,-1,81,0,44,-11,-13.6,50000,285,6.9,4.1
2013,3,7,02:00,UTC,0,1004.6,-1,84,0,44,-11.5,-13.6,50000,280,6,3
2013,3,7,03:00,UTC,0,1004.4,-1,83,0,44,-11.5,-13.8,50000,273,7.6,3.5
2013,3,7,04:00,UTC,0,1004.4,-1,83,0,44,-11.9,-14.1,50000,278,6.1,3.4
2013,3,7,05:00,UTC,0,1004.1,-1,84,0,44,-10.9,-13.1,50000,286,8.5,5.5
2013,3,7,06:00,UTC,0,1004.2,-1,82,0,44,-10.1,-12.6,46130,290,8.3,5.6
2013,3,7,07:00,UTC,0,1004.4,-1,77,0,44,-9.1,-12.4,23640,292,10.8,6.7
2013,3,7,08:00,UTC,5,1004.8,-1,74,0,44,-7.9,-11.8,24540,293,10.3,6.7
2013,3,7,09:00,UTC,7,1005.6,-1,77,0,44,-7.6,-11,2560,310,12.9,9.9
2013,3,7,10:00,UTC,9,1006.9,-1,82,0,44,-7.6,-10.1,1320,310,11.7,9.1
2013,3,7,11:00,UTC,7,1008.7,-1,73,0,44,-7.8,-11.9,1970,322,14.1,10.9
2013,3,7,12:00,UTC,7,1010.9,-1,68,0,44,-8.2,-13.1,2420,328,13.8,10.4
2013,3,7,13:00,UTC,0,1012.2,-1,62,0,44,-7.7,-13.7,11570,327,11,7.8
2013,3,7,14:00,UTC,0,1013.3,-1,60,0,44,-7.5,-14,34560,328,9.8,7.1
2013,3,7,15:00,UTC,0,1014.3,-1,60,0,44,-8.1,-14.4,50000,316,8.9,6
2013,3,7,16:00,UTC,0,1015.1,-1,62,0,44,-8.5,-14.6,50000,306,6,4.5
2013,3,7,17:00,UTC,0,1016.1,-1,62,0,44,-8.8,-14.8,50000,306,6.4,4.8
2013,3,7,18:00,UTC,0,1017.2,-1,70,0,44,-9,-13.5,50000,306,7.4,4.6
2013,3,7,19:00,UTC,0,1017.8,-1,75,0,44,-9.5,-13,50000,301,6.8,5.1
2013,3,7,20:00,UTC,0,1018.5,-1,81,0,44,-10.3,-13.1,25020,296,5.4,4.2
2013,3,7,21:00,UTC,0,1019.2,-1,86,0,44,-13.9,-15.7,25890,238,2.5,0.6
2013,3,7,22:00,UTC,0,1019.5,-1,87,0,44,-13.9,-15.6,48000,275,3.1,1.4
2013,3,7,23:00,UTC,0,1020,-1,87,0,44,-16.8,-18.4,13820,0,1,0
2013,3,8,00:00,UTC,0,1020.1,-1,85,0,44,-18.3,-20.2,42450,188,2.3,1.5
2013,3,8,01:00,UTC,0,1019.9,-1,82,0,44,-19.7,-22,45760,152,2.1,1.4
2013,3,8,02:00,UTC,1,1019.3,-1,84,0,44,-19.7,-21.7,47960,187,2.9,1.5
2013,3,8,03:00,UTC,7,1018.5,-1,89,0,44,-12,-13.5,50000,273,3.7,1.9
2013,3,8,04:00,UTC,7,1017.8,-1,85,0,44,-10.3,-12.4,50000,272,4.6,2.4
2013,3,8,05:00,UTC,7,1017.2,-1,85,0,44,-10.1,-12.2,3450,280,5.8,2.5
2013,3,8,06:00,UTC,7,1017,0.4,89,0.5,45,-10.8,-12.3,2400,249,5.4,3
2013,3,8,07:00,UTC,9,1016.7,-1,89,0,45,-9.8,-11.3,2430,244,5.6,2.5
2013,3,8,08:00,UTC,5,1016.2,0.2,88,0,46,-8.7,-10.3,42220,248,5,2.8
2013,3,8,09:00,UTC,1,1015.7,-1,88,0,46,-7.1,-8.7,26280,263,5.6,3
2013,3,8,10:00,UTC,5,1015.6,-1,71,0,46,-5.4,-9.8,17960,283,9,4.6
2013,3,8,11:00,UTC,1,1015.3,-1,60,0,45,-5.5,-12.1,22980,287,9,5.6
2013,3,8,12:00,UTC,1,1015.1,-1,52,0,45,-5.2,-13.6,10780,295,11.6,6.9
2013,3,8,13:00,UTC,7,1015.4,-1,54,0,45,-5.5,-13.3,25250,297,9.9,6.4
2013,3,8,14:00,UTC,7,1015.7,-1,67,0,44,-6.5,-11.7,6860,298,10.6,7.2
2013,3,8,15:00,UTC,7,1015.4,-1,69,0,44,-6.9,-11.7,15300,294,7.7,5.2
2013,3,8,16:00,UTC,7,1015.8,-1,84,0,44,-7.5,-9.8,2000,301,6.4,4.8
2013,3,8,17:00,UTC,7,1016.5,-1,78,0,44,-9.2,-12.3,3580,309,10.7,7.1
2013,3,8,18:00,UTC,7,1017.1,-1,81,0,44,-9.9,-12.5,6000,320,8.7,6.8
2013,3,8,19:00,UTC,7,1017.7,-1,79,0,44,-9.6,-12.5,15180,323,8.8,6.1
2013,3,8,20:00,UTC,7,1018,-1,82,0,44,-9.5,-12,4810,325,9.3,6.5
2013,3,8,21:00,UTC,3,1018.6,-1,83,0,44,-10.8,-13.2,50000,324,7.7,6.2
2013,3,8,22:00,UTC,0,1019.1,-1,82,0,44,-11.8,-14.3,17660,322,7.8,5.6
2013,3,8,23:00,UTC,0,1019.5,-1,84,0,44,-12.2,-14.4,50000,306,4.2,3.2
2013,3,9,00:00,UTC,0,1019.9,-1,87,0,44,-13.4,-15.2,50000,283,4.1,2.7
2013,3,9,01:00,UTC,0,1020.2,-1,84,0,44,-15.5,-17.6,29920,295,3.8,3
2013,3,9,02:00,UTC,0,1020.2,-1,87,0,44,-14.9,-16.6,18900,293,4.3,3.6
2013,3,9,03:00,UTC,0,1020.3,-1,87,0,44,-15.3,-17.1,20690,291,5.3,3.9
2013,3,9,04:00,UTC,0,1020.5,-1,86,0,44,-16.3,-18.1,50000,293,3.9,3
2013,3,9,05:00,UTC,0,1020.6,-1,85,0,44,-16.2,-18.2,22120,293,5.1,3.9
2013,3,9,06:00,UTC,0,1020.8,-1,84,0,44,-15.4,-17.6,48750,295,3.7,3.3
2013,3,9,07:00,UTC,0,1021.1,-1,82,0,44,-14.5,-16.9,43200,326,1.6,1.1
2013,3,9,08:00,UTC,0,1021,-1,77,0,44,-12.7,-15.9,45570,347,2.9,1.9
2013,3,9,09:00,UTC,0,1021,-1,67,0,44,-10.3,-15.3,39410,7,4.8,3.6
2013,3,9,10:00,UTC,0,1021.3,-1,68,0,44,-9.7,-14.5,33290,353,5.9,4.7
2013,3,9,11:00,UTC,1,1021.4,-1,64,0,44,-8.9,-14.5,38290,3,5.8,4.1
2013,3,9,12:00,UTC,0,1021.2,-1,61,0,44,-8.4,-14.6,32470,1,5.7,4.3
2013,3,9,13:00,UTC,0,1021.3,-1,55,0,44,-8.2,-15.7,37960,1,6.4,4.3
2013,3,9,14:00,UTC,0,1021.2,-1,52,0,44,-8.3,-16.3,50000,347,5,3.8
2013,3,9,15:00,UTC,0,1021.4,-1,56,0,44,-9.4,-16.5,50000,326,6.6,4.6
2013,3,9,16:00,UTC,0,1021.6,-1,57,0,44,-10.3,-17.1,50000,334,3.3,2.7
2013,3,9,17:00,UTC,0,1021.9,-1,67,0,44,-12.6,-17.5,50000,301,2.4,2
2013,3,9,18:00,UTC,0,1022.3,-1,80,0,44,-17.7,-20.3,50000,302,2.1,1.8
2013,3,9,19:00,UTC,7,1022.2,-1,79,0,44,-15.8,-18.6,50000,291,2,1.6
2013,3,9,20:00,UTC,1,1022.3,-1,75,0,44,-13.6,-17.1,50000,293,3.7,2.5
2013,3,9,21:00,UTC,0,1022.5,-1,74,0,44,-14.5,-18.1,50000,301,3,2.6
2013,3,9,22:00,UTC,0,1022.9,-1,83,0,44,-20.5,-22.7,50000,292,3.1,2.5
2013,3,9,23:00,UTC,0,1022.7,-1,83,0,44,-18.6,-20.7,42700,292,2.8,2.2
2013,3,10,00:00,UTC,0,1022.7,-1,83,0,44,-20.7,-22.8,23040,288,2.7,1.6
2013,3,10,01:00,UTC,0,1022.7,-1,82,0,44,-21.8,-24.1,4950,0,0.6,0
2013,3,10,02:00,UTC,0,1022.4,-1,79,0,44,-22.8,-25.5,1730,297,3.3,2.6
2013,3,10,03:00,UTC,0,1022.2,-1,80,0,44,-23.7,-26.2,12040,291,2.2,1.6
2013,3,10,04:00,UTC,0,1022,-1,76,0,44,-25.2,-28.2,12380,0,0.8,0
2013,3,10,05:00,UTC,0,1021.5,-1,76,0,44,-26,-28.9,50000,159,1.5,1.1
2013,3,10,06:00,UTC,0,1020.8,-1,76,0,44,-24.4,-27.3,44260,151,2,1.1
2013,3,10,07:00,UTC,0,1020.2,-1,77,0,44,-20.4,-23.3,34170,152,1.4,1.1
2013,3,10,08:00,UTC,0,1019.2,-1,76,0,44,-15.3,-18.6,22850,239,2.1,0.7
2013,3,10,09:00,UTC,0,1017.8,-1,46,0,44,-8.7,-18.3,40790,271,6.9,3.5
2013,3,10,10:00,UTC,0,1017.1,-1,38,0,44,-7.6,-19.4,40770,264,8.4,4.5
2013,3,10,11:00,UTC,1,1016.1,-1,35,0,44,-5.9,-19.1,34440,271,5.1,2.8
2013,3,10,12:00,UTC,3,1015.4,-1,33,0,44,-5.1,-18.9,35980,265,9.7,4.4
2013,3,10,13:00,UTC,5,1014.7,-1,33,0,44,-5,-18.8,46260,272,8.3,3.8
2013,3,10,14:00,UTC,7,1014,-1,32,0,44,-4.8,-19,40110,273,6.3,3
2013,3,10,15:00,UTC,7,1013.4,-1,36,0,44,-5.4,-18.2,46590,290,9.7,5.7
2013,3,10,16:00,UTC,7,1013,-1,38,0,44,-5.6,-17.8,50000,274,5.5,2.9
2013,3,10,17:00,UTC,8,1012.8,-1,53,0,44,-6.1,-14.1,50000,285,7.2,4.3
2013,3,10,18:00,UTC,8,1012.4,-1,60,0,44,-6.5,-13,50000,270,6.6,2.9
2013,3,10,19:00,UTC,7,1012.1,-1,58,0,44,-6.7,-13.7,50000,278,6.5,3.4
2013,3,10,20:00,UTC,8,1011.8,-1,65,0,44,-7.1,-12.5,26960,279,6.8,3.2
2013,3,10,21:00,UTC,7,1011.4,-1,70,0,44,-7.8,-12.3,50000,260,4.7,2.5
2013,3,10,22:00,UTC,8,1011,-1,74,0,44,-8.3,-12,50000,240,4.3,1.1
2013,3,10,23:00,UTC,8,1010.4,-1,77,0,44,-8.4,-11.8,50000,229,4.2,1.8
2013,3,11,00:00,UTC,9,1009.6,-1,88,0,44,-8.6,-10.3,1960,235,4.5,2.1
2013,3,11,01:00,UTC,8,1009,0.5,88,0,45,-8.6,-10.2,2950,240,4.7,2.5
2013,3,11,02:00,UTC,8,1008.2,0.2,89,0.9,45,-8.7,-10.2,2220,247,4.7,2.2
2013,3,11,03:00,UTC,8,1007.8,0.2,90,0,45,-8.7,-10.1,2220,287,4.2,1.8
2013,3,11,04:00,UTC,8,1007.7,0.2,90,0,45,-8.5,-9.9,5830,288,5.8,3.7
2013,3,11,05:00,UTC,7,1008.2,-1,89,0,45,-9.2,-10.7,50000,318,5.2,4
2013,3,11,06:00,UTC,7,1008.4,-1,90,0,45,-9.2,-10.5,39630,321,4.7,3.7
2013,3,11,07:00,UTC,1,1008.8,-1,90,0,45,-9.3,-10.7,39080,310,5.3,4.4
2013,3,11,08:00,UTC,0,1009,-1,83,0,45,-7.8,-10.2,37690,309,4.7,3.5
2013,3,11,09:00,UTC,0,1009.2,-1,76,0,45,-7.5,-11.1,15850,326,6.4,5.3
2013,3,11,10:00,UTC,0,1009.3,-1,70,0,45,-7.3,-11.8,35870,314,5,4
2013,3,11,11:00,UTC,0,1009,-1,59,0,45,-6.3,-12.9,42060,336,7,4.9
2013,3,11,12:00,UTC,1,1008.8,-1,50,0,45,-5.8,-14.5,43210,304,6.8,5
2013,3,11,13:00,UTC,1,1008.6,-1,46,0,45,-5.7,-15.4,39870,312,6.2,4.5
2013,3,11,14:00,UTC,3,1008.3,-1,47,0,45,-5.3,-14.8,48340,326,5.1,4.1
2013,3,11,15:00,UTC,5,1008,-1,47,0,45,-6.1,-15.5,50000,305,5.3,4.1
2013,3,11,16:00,UTC,7,1007.9,-1,49,0,45,-5.7,-14.7,50000,262,3.3,1.8
2013,3,11,17:00,UTC,7,1007.8,-1,58,0,45,-7.3,-14.1,50000,258,2.8,1.6
2013,3,11,18:00,UTC,5,1007.8,-1,69,0,45,-10.1,-14.6,50000,267,2.2,1.2
2013,3,11,19:00,UTC,1,1007.9,-1,73,0,45,-11.4,-15.3,50000,327,2.1,1.7
2013,3,11,20:00,UTC,7,1007.8,-1,71,0,45,-10.8,-15,50000,309,1.4,1.1
2013,3,11,21:00,UTC,7,1008,-1,77,0,45,-12.1,-15.3,50000,0,0.9,0
2013,3,11,22:00,UTC,7,1008,-1,83,0,45,-13.2,-15.5,46760,180,1.4,0.9
2013,3,11,23:00,UTC,7,1007.8,-1,84,0,45,-13.7,-15.8,25160,0,0.7,0
2013,3,12,00:00,UTC,7,1007.7,-1,86,0,47,-14.3,-16.1,5610,329,1.2,0.9
2013,3,12,01:00,UTC,8,1007.6,-1,86,0,45,-14.2,-16.1,900,298,0.7,0.6
2013,3,12,02:00,UTC,8,1007.1,-1,86,0,45,-13.2,-15,1930,357,0.8,0.6
2013,3,12,03:00,UTC,9,1006.9,-1,88,0,46,-12.5,-14.1,790,306,0.9,0.8
2013,3,12,04:00,UTC,9,1006.6,0.9,88,1.2,48,-12,-13.5,530,313,1.7,1.4
2013,3,12,05:00,UTC,7,1006.5,0.7,88,0.4,49,-11.7,-13.3,1740,0,0.9,0
2013,3,12,06:00,UTC,7,1006.5,-1,89,0,49,-11.7,-13.2,3800,98,1.6,0.6
2013,3,12,07:00,UTC,7,1006.5,-1,88,0,48,-9.9,-11.5,5400,111,2.5,1.8
2013,3,12,08:00,UTC,7,1006.3,-1,86,0,49,-8.7,-10.6,12150,133,2.6,1.4
2013,3,12,09:00,UTC,7,1006.4,-1,89,0,50,-8.3,-9.8,2030,98,3.4,2.6
2013,3,12,10:00,UTC,7,1006.1,-1,89,0,50,-7.6,-9.1,2710,103,4.8,3.8
2013,3,12,11:00,UTC,7,1005.7,-1,88,0,50,-7.2,-8.8,2310,103,6.5,4.8
2013,3,12,12:00,UTC,7,1005.2,0.4,88,0,51,-7,-8.6,2870,100,7.7,5.8
2013,3,12,13:00,UTC,7,1004.6,0.2,90,0.3,51,-7.1,-8.5,1420,89,6.2,4.2
2013,3,12,14:00,UTC,9,1004.2,0.4,91,0.4,51,-7.4,-8.7,1250,82,7.3,5.6
2013,3,12,15:00,UTC,9,1003.8,0.5,91,0.7,51,-7.5,-8.7,1340,103,5.3,3.7
2013,3,12,16:00,UTC,9,1003.4,0.5,91,0.5,52,-7.7,-8.9,1350,92,5.8,4.3
2013,3,12,17:00,UTC,7,1002.9,0.5,91,0.4,52,-7.8,-9,1830,93,6.1,4.1
2013,3,12,18:00,UTC,7,1002.2,0.7,92,1,53,-7.8,-8.8,1280,112,5.5,3.5
2013,3,12,19:00,UTC,7,1001.7,0.6,93,0.7,54,-7.2,-8.1,2210,114,4.1,2.9
2013,3,12,20:00,UTC,7,1001.3,0.4,94,0.5,54,-6.3,-7.1,2080,141,5.2,2.5
2013,3,12,21:00,UTC,9,1000.9,0.7,94,0.7,55,-6.1,-6.9,1510,143,5.3,2.8
2013,3,12,22:00,UTC,7,1000.3,0.5,94,0.4,55,-6,-6.8,2320,148,6.3,3.2
2013,3,12,23:00,UTC,7,999.8,0.4,94,0.6,55,-5.7,-6.5,1840,154,7.3,4
2013,3,13,00:00,UTC,9,999.5,0.6,94,0.6,58,-6.2,-7.1,1500,148,7.7,3.8
2013,3,13,01:00,UTC,9,999.1,0.8,94,0,56,-6.5,-7.3,900,152,6.4,3.2
2013,3,13,02:00,UTC,9,998.5,0.8,93,1,59,-6.7,-7.6,820,156,7.7,3.4
2013,3,13,03:00,UTC,7,998.3,0.6,93,0.5,59,-6.9,-7.9,1980,155,8,3.2
2013,3,13,04:00,UTC,7,998.1,0.1,92,0,59,-7.3,-8.4,10140,165,9.7,4.5
2013,3,13,05:00,UTC,7,998.3,-1,92,0,59,-7.6,-8.7,6690,169,6.8,3.5
2013,3,13,06:00,UTC,7,998.2,0.2,92,0,59,-7.5,-8.6,5360,166,6,2.8
2013,3,13,07:00,UTC,7,997.9,-1,92,0,59,-7.2,-8.2,3110,156,5.2,2
2013,3,13,08:00,UTC,7,998,-1,92,0,59,-6.7,-7.7,1570,181,5.4,2.3
2013,3,13,09:00,UTC,8,998.7,0.3,91,0,59,-8.2,-9.5,3010,299,6,4.6
2013,3,13,10:00,UTC,8,999.5,-1,90,0,59,-8.9,-10.2,4840,301,5.9,4.7
2013,3,13,11:00,UTC,7,1000.1,-1,88,0,59,-9.2,-10.8,3830,296,5.8,4.5
2013,3,13,12:00,UTC,7,1000.5,-1,88,0,59,-9.1,-10.7,4630,294,6.5,4.4
2013,3,13,13:00,UTC,7,1000.8,-1,90,0,60,-8.6,-9.9,2960,288,5.4,3.2
2013,3,13,14:00,UTC,7,1001.2,0.2,89,0,60,-9.3,-10.8,4140,303,7.2,5.3
2013,3,13,15:00,UTC,9,1001.6,-1,90,0,60,-9.2,-10.5,1280,303,6.5,4.5
2013,3,13,16:00,UTC,7,1002.3,-1,89,0,62,-9.7,-11.2,5780,293,7.2,4.5
2013,3,13,17:00,UTC,7,1003,-1,86,0,61,-10.7,-12.6,50000,283,6.1,3.3
2013,3,13,18:00,UTC,1,1003.8,-1,81,0,61,-12.8,-15.4,50000,284,5.7,3.2
2013,3,13,19:00,UTC,0,1004.5,-1,74,0,61,-13.9,-17.5,50000,286,6.2,3.7
2013,3,13,20:00,UTC,0,1005,-1,75,0,61,-16.7,-20.1,50000,304,4.7,3
2013,3,13,21:00,UTC,0,1005.5,-1,85,0,61,-18.5,-20.4,50000,322,2.9,2
2013,3,13,22:00,UTC,0,1005.9,-1,87,0,61,-18.4,-20.1,50000,318,2.7,1.9
2013,3,13,23:00,UTC,0,1006.4,-1,84,0,61,-21,-23,50000,294,2,1.1
2013,3,14,00:00,UTC,0,1006.8,-1,81,0,60,-22.9,-25.3,50000,199,1.3,0.9
2013,3,14,01:00,UTC,0,1006.9,-1,80,0,60,-24.3,-26.7,5500,0,0.5,0
2013,3,14,02:00,UTC,0,1007.3,-1,77,0,60,-25,-27.8,50000,211,1.3,0.8
2013,3,14,03:00,UTC,1,1007.4,-1,77,0,60,-26,-28.8,6250,359,0.9,0.6
2013,3,14,04:00,UTC,7,1007.2,-1,78,0,60,-25.5,-28.3,50000,0,0.5,0
2013,3,14,05:00,UTC,3,1007.2,-1,78,0,60,-25,-27.8,1030,343,1,0.7
2013,3,14,06:00,UTC,7,1007.2,-1,81,0,60,-22.5,-25,8950,0,0.8,0
2013,3,14,07:00,UTC,7,1007,-1,82,0,60,-18.9,-21.2,31300,153,2.8,2.1
2013,3,14,08:00,UTC,7,1006.7,-1,82,0,60,-16,-18.4,35650,136,2.9,2
2013,3,14,09:00,UTC,8,1006.2,-1,80,0,60,-13.4,-16,2290,121,2.5,1.7
2013,3,14,10:00,UTC,8,1005.8,-1,85,0,60,-10.5,-12.6,1680,142,2.3,1.4
2013,3,14,11:00,UTC,7,1005.6,-1,80,0,60,-8.8,-11.7,34140,180,3.9,1.9
2013,3,14,12:00,UTC,8,1005.3,-1,79,0,60,-7.5,-10.6,8180,201,3.9,1.6
2013,3,14,13:00,UTC,7,1005.1,-1,70,0,60,-7,-11.6,14600,209,6,2.8
2013,3,14,14:00,UTC,7,1005.2,-1,76,0,59,-7.6,-11.1,14460,207,5.7,3
2013,3,14,15:00,UTC,7,1005.2,-1,76,0,59,-8.2,-11.7,17170,207,3.9,2.1
2013,3,14,16:00,UTC,9,1005.6,-1,87,0,59,-8.6,-10.4,1340,231,3.1,1.8
2013,3,14,17:00,UTC,7,1006.4,-1,90,0,60,-10,-11.3,1130,305,4.6,3.2
2013,3,14,18:00,UTC,1,1007.6,-1,82,0,59,-12.6,-15.1,50000,306,5.9,4.7
2013,3,14,19:00,UTC,1,1008.4,-1,82,0,59,-13.9,-16.2,29760,303,5.6,4
2013,3,14,20:00,UTC,0,1009.2,-1,87,0,59,-14.8,-16.4,31360,305,3.4,2.3
2013,3,14,21:00,UTC,0,1010,-1,87,0,59,-15.9,-17.6,17580,267,2.7,1.6
2013,3,14,22:00,UTC,0,1011.1,-1,84,0,59,-20.1,-22.1,1130,292,2.4,1.2
2013,3,14,23:00,UTC,3,1011.5,-1,83,0,59,-19.9,-22,1200,290,1.3,1.1
2013,3,15,00:00,UTC,1,1012,-1,80,0,59,-22.4,-24.9,1480,207,1,0.8
2013,3,15,01:00,UTC,3,1012.4,-1,81,0,59,-22.7,-25.1,50000,176,2.3,1.4
2013,3,15,02:00,UTC,7,1012.2,-1,80,0,59,-21.3,-23.9,50000,154,1.5,0.9
2013,3,15,03:00,UTC,1,1012.6,-1,80,0,59,-22.7,-25.2,50000,148,2.6,2.2
2013,3,15,04:00,UTC,7,1012.4,-1,80,0,59,-21.6,-24.2,35730,156,1.4,1
2013,3,15,05:00,UTC,0,1012.4,-1,83,0,58,-21.5,-23.6,34070,159,1.9,1.3
2013,3,15,06:00,UTC,0,1012.4,-1,82,0,58,-19.8,-22.1,34540,136,2.3,1.5
2013,3,15,07:00,UTC,1,1012.5,-1,80,0,58,-17.7,-20.3,28210,126,2.1,1.4
2013,3,15,08:00,UTC,0,1012.4,-1,78,0,58,-10.6,-13.6,38200,157,2.8,1.6
2013,3,15,09:00,UTC,0,1012.4,-1,70,0,58,-6.8,-11.4,30560,218,4.7,2.5
2013,3,15,10:00,UTC,0,1012.7,-1,63,0,58,-5.4,-11.4,39870,225,5.5,2.8
2013,3,15,11:00,UTC,0,1012.4,-1,55,0,58,-3.1,-10.8,38050,204,4.3,2.2
2013,3,15,12:00,UTC,0,1012.1,-1,45,0,58,-2.3,-12.7,38180,236,5.4,2.5
2013,3,15,13:00,UTC,0,1011.9,-1,46,0,57,-1.4,-11.6,31610,241,4.9,2.1
2013,3,15,14:00,UTC,0,1011.8,-1,49,0,57,-0.9,-10.3,48510,240,3.3,1.6
2013,3,15,15:00,UTC,0,1011.8,-1,55,0,57,-1.7,-9.6,50000,225,4.1,1.9
2013,3,15,16:00,UTC,0,1012.3,-1,73,0,57,-4.8,-8.8,50000,202,2.4,1.1
2013,3,15,17:00,UTC,0,1013,-1,90,0,57,-10.6,-11.9,21050,268,1.5,0.9
2013,3,15,18:00,UTC,0,1013.3,-1,90,0,57,-11,-12.3,31630,283,1.3,0.8
2013,3,15,19:00,UTC,0,1013.6,-1,91,0,57,-12.6,-13.7,36600,343,1.3,0.9
2013,3,15,20:00,UTC,0,1014,-1,81,0,56,-17.1,-19.6,42850,262,1,0.6
2013,3,15,21:00,UTC,0,1014.2,-1,86,0,56,-17.4,-19.2,48270,289,1.9,1
2013,3,15,22:00,UTC,0,1014.4,-1,83,0,57,-19.5,-21.7,46560,262,1.1,0.6
2013,3,15,23:00,UTC,0,1014.5,-1,86,0,57,-18.8,-20.6,50000,0,0.8,0
2013,3,16,00:00,UTC,0,1014.9,-1,83,0,57,-21.6,-23.8,50000,162,1.3,0.8
2013,3,16,01:00,UTC,0,1014.9,-1,79,0,57,-22.1,-24.7,50000,314,1.8,1.4
2013,3,16,02:00,UTC,0,1014.8,-1,78,0,57,-23.1,-25.9,50000,274,0.9,0.6
2013,3,16,03:00,UTC,0,1014.8,-1,80,0,57,-22.5,-25,50000,0,0.7,0
2013,3,16,04:00,UTC,0,1015.2,-1,78,0,57,-23.5,-26.2,50000,192,0.9,0.6
2013,3,16,05:00,UTC,0,1015.7,-1,78,0,57,-24.8,-27.5,50000,292,1.3,0.8
2013,3,16,06:00,UTC,0,1015.6,-1,80,0,57,-22.3,-24.8,17850,0,0.7,0
2013,3,16,07:00,UTC,0,1015.7,-1,84,0,57,-18.5,-20.6,49310,0,0.9,0
2013,3,16,08:00,UTC,0,1015.5,-1,85,0,57,-12.2,-14.2,27830,123,1.9,1.5
2013,3,16,09:00,UTC,0,1015.5,-1,81,0,57,-8.2,-10.8,30450,345,1.3,1
2013,3,16,10:00,UTC,0,1015.4,-1,62,0,57,-5.2,-11.4,34720,64,1.4,0.9
2013,3,16,11:00,UTC,0,1015.4,-1,50,0,57,-3,-12,36270,66,0.8,0.6
2013,3,16,12:00,UTC,0,1015.4,-1,41,0,57,-1.7,-13.4,34910,19,1.2,0.8
2013,3,16,13:00,UTC,0,1015.7,-1,47,0,57,-2.7,-12.6,41420,18,3.2,2.3
2013,3,16,14:00,UTC,0,1016,-1,43,0,57,-3.3,-14.2,43470,25,2.6,1.9
2013,3,16,15:00,UTC,0,1016.3,-1,50,0,57,-3.4,-12.3,50000,124,2.5,1.5
2013,3,16,16:00,UTC,0,1017.1,-1,65,0,57,-5.4,-10.9,50000,120,3,1.7
2013,3,16,17:00,UTC,0,1018,-1,78,0,57,-9.8,-13,41920,0,0.9,0
2013,3,16,18:00,UTC,0,1018.8,-1,90,0,57,-12.8,-14.1,36560,319,1.3,1
2013,3,16,19:00,UTC,0,1019.5,-1,87,0,57,-15.2,-16.9,40570,325,1.1,0.8
2013,3,16,20:00,UTC,0,1020,-1,88,0,57,-15.5,-17,38770,303,0.7,0.6
2013,3,16,21:00,UTC,0,1020.5,-1,89,0,57,-14.9,-16.3,13450,315,1.2,0.9
2013,3,16,22:00,UTC,0,1021.3,-1,84,0,57,-18.6,-20.7,50000,0,0.7,0
2013,3,16,23:00,UTC,0,1021.8,-1,83,0,57,-19.3,-21.4,50000,305,1.4,1.1
2013,3,17,00:00,UTC,0,1022.5,-1,82,0,57,-20.2,-22.5,50000,295,1.1,0.8
2013,3,17,01:00,UTC,0,1022.9,-1,81,0,57,-20.3,-22.7,50000,314,1.2,1
2013,3,17,02:00,UTC,0,1023.7,-1,81,0,57,-21.4,-23.8,50000,0,0.5,0
2013,3,17,03:00,UTC,0,1024.4,-1,81,0,57,-21.5,-24,50000,107,1.4,0.9
2013,3,17,04:00,UTC,0,1025.1,-1,81,0,57,-21.5,-23.9,50000,132,1.6,0.7
2013,3,17,05:00,UTC,0,1026,-1,80,0,56,-22.5,-24.9,50000,0,1.2,0
2013,3,17,06:00,UTC,0,1026.4,-1,89,0,57,-16.7,-18.1,47990,113,2.5,2.1
2013,3,17,07:00,UTC,1,1026.8,-1,81,0,57,-12.9,-15.5,44020,122,2.8,1.7
2013,3,17,08:00,UTC,1,1027.1,-1,69,0,57,-10.5,-15.1,35940,128,2.6,1.5
2013,3,17,09:00,UTC,0,1027.4,-1,43,0,57,-8.9,-19.2,29690,103,4.2,2.9
2013,3,17,10:00,UTC,0,1027.7,-1,38,0,57,-7.9,-19.9,38070,109,5.1,3.2
2013,3,17,11:00,UTC,0,1027.7,-1,34,0,57,-7.2,-20.5,31100,105,5.1,3.9
2013,3,17,12:00,UTC,0,1027.8,-1,28,0,57,-6,-21.6,41160,116,4.6,3
2013,3,17,13:00,UTC,0,1027.8,-1,34,0,57,-6.2,-19.4,38200,103,3.4,2.6
2013,3,17,14:00,UTC,0,1028.1,-1,32,0,56,-6.1,-20.3,41240,107,4.2,3.3
2013,3,17,15:00,UTC,0,1028.4,-1,35,0,56,-7.7,-20.6,50000,95,5,3.2
2013,3,17,16:00,UTC,0,1029,-1,41,0,56,-10.1,-20.9,50000,75,2.5,1.9
2013,3,17,17:00,UTC,0,1029.6,-1,43,0,55,-10.9,-21,50000,59,2.9,2.4
2013,3,17,18:00,UTC,0,1030.4,-1,69,0,56,-15.3,-19.8,50000,45,3,2.1
2013,3,17,19:00,UTC,0,1031.2,-1,75,0,56,-18.9,-22.3,36250,325,1.1,0.8
2013,3,17,20:00,UTC,0,1031.5,-1,79,0,56,-19.6,-22.3,48690,57,2,1.1
2013,3,17,21:00,UTC,0,1031.9,-1,84,0,56,-19.9,-21.8,48570,0,1.1,0
2013,3,17,22:00,UTC,0,1032.5,-1,82,0,56,-21.1,-23.4,50000,359,1.3,0.6
2013,3,17,23:00,UTC,0,1032.8,-1,82,0,56,-21.3,-23.5,50000,104,1.6,1.1
2013,3,18,00:00,UTC,0,1033.2,-1,80,0,56,-21.6,-24.2,50000,5,1.5,0.9
2013,3,18,01:00,UTC,0,1033.6,-1,82,0,56,-22.6,-24.9,50000,10,1.5,0.9
2013,3,18,02:00,UTC,0,1034.1,-1,81,0,56,-23.7,-26,50000,23,1,0.6
2013,3,18,03:00,UTC,0,1034.1,-1,86,0,56,-21.7,-23.4,50000,341,1.3,0.6
2013,3,18,04:00,UTC,0,1034.7,-1,75,0,56,-26.9,-30,50000,352,1.5,0.9
2013,3,18,05:00,UTC,0,1034.4,-1,77,0,56,-24.5,-27.3,21780,12,1.2,0.6
2013,3,18,06:00,UTC,1,1034,-1,84,0,55,-17.9,-20,43820,39,1.6,0.8
2013,3,18,07:00,UTC,0,1033.7,-1,78,0,56,-14.8,-17.8,33790,110,2.5,1.6
2013,3,18,08:00,UTC,0,1033.1,-1,65,0,56,-12.7,-18,36010,104,2.7,1.9
2013,3,18,09:00,UTC,0,1032.5,-1,54,0,56,-11.3,-18.8,35020,79,5,3.6
2013,3,18,10:00,UTC,0,1032.1,-1,44,0,56,-9.8,-19.8,37040,81,5.7,4.2
2013,3,18,11:00,UTC,0,1031.6,-1,38,0,56,-8.4,-20.2,34870,78,7.3,4.8
2013,3,18,12:00,UTC,0,1030.9,-1,35,0,56,-7.3,-20.2,37580,59,7.8,5.3
2013,3,18,13:00,UTC,0,1030.2,-1,34,0,56,-6.8,-20.2,39930,88,7.9,5.5
2013,3,18,14:00,UTC,0,1029.2,-1,32,0,56,-6.6,-20.7,41600,61,8.4,6
2013,3,18,15:00,UTC,1,1028.6,-1,31,0,56,-6.8,-21.2,50000,62,7.2,4.8
2013,3,18,16:00,UTC,1,1028.1,-1,35,0,55,-7.9,-20.7,50000,62,6.6,4.1
2013,3,18,17:00,UTC,7,1027.8,-1,41,0,55,-8.7,-19.7,50000,56,4.1,2.6
2013,3,18,18:00,UTC,7,1027.4,-1,40,0,55,-8.8,-20,50000,68,5.3,3.4
2013,3,18,19:00,UTC,7,1027.2,-1,43,0,55,-8.7,-19,50000,83,7.3,4.7
2013,3,18,20:00,UTC,7,1027.1,-1,42,0,55,-8.4,-19.1,50000,87,6.2,4.7
2013,3,18,21:00,UTC,8,1026.9,-1,38,0,55,-8.3,-20.3,50000,107,9.2,5.5
2013,3,18,22:00,UTC,7,1026.9,-1,41,0,55,-8.9,-19.9,50000,102,8,5.2
2013,3,18,23:00,UTC,8,1026.8,-1,39,0,55,-9.3,-20.6,50000,107,7.9,4.7
2013,3,19,00:00,UTC,8,1026.8,-1,41,0,55,-9.9,-20.6,50000,95,7,4.4
2013,3,19,01:00,UTC,8,1026.7,-1,42,0,55,-10.1,-20.7,50000,89,5.5,3.4
2013,3,19,02:00,UTC,8,1026.6,-1,49,0,55,-10.5,-19.2,16050,89,5.9,3.7
2013,3,19,03:00,UTC,7,1026.5,-1,48,0,55,-11.2,-20,50000,76,4.7,3.2
2013,3,19,04:00,UTC,7,1026.5,-1,47,0,55,-11.5,-20.6,50000,77,4.8,2.9
2013,3,19,05:00,UTC,7,1026.3,-1,51,0,55,-11.9,-20,50000,77,5,3.3
2013,3,19,06:00,UTC,7,1026.1,-1,53,0,55,-11.7,-19.3,50000,82,6.3,3.9
2013,3,19,07:00,UTC,5,1025.9,-1,51,0,55,-11.2,-19.5,45080,77,7.3,4.5
2013,3,19,08:00,UTC,7,1025.8,-1,49,0,55,-10.5,-19.2,41060,69,6.8,4.1
2013,3,19,09:00,UTC,7,1025.6,-1,47,0,55,-10.1,-19.4,49670,56,7,5.2
2013,3,19,10:00,UTC,7,1025,-1,46,0,55,-9.5,-18.9,31800,52,7.2,4.8
2013,3,19,11:00,UTC,7,1024.6,-1,42,0,55,-8.7,-19.3,42780,66,8.3,4.8
2013,3,19,12:00,UTC,7,1024.3,-1,41,0,55,-8.2,-19.2,42870,52,8,5.1
2013,3,19,13:00,UTC,7,1023.5,-1,38,0,55,-7.2,-19,36430,54,7.7,5
2013,3,19,14:00,UTC,7,1023,-1,33,0,55,-6.7,-20.3,46870,57,8.1,5.3
2013,3,19,15:00,UTC,7,1022.4,-1,31,0,55,-5.9,-20.4,50000,68,7.5,5.4
2013,3,19,16:00,UTC,7,1022.3,-1,36,0,55,-7.5,-20.1,50000,29,3.8,2.4
2013,3,19,17:00,UTC,7,1022.6,-1,34,0,55,-6.8,-20.2,50000,45,4.2,2.4
2013,3,19,18:00,UTC,7,1023,-1,34,0,55,-6.5,-19.8,50000,80,9.6,6.1
2013,3,19,19:00,UTC,7,1023.2,-1,35,0,55,-7,-19.8,50000,77,8,4.8
2013,3,19,20:00,UTC,7,1023.3,-1,34,0,55,-7,-20.2,50000,80,7,4
2013,3,19,21:00,UTC,7,1023.6,-1,35,0,55,-7.5,-20.3,50000,65,7,4.1
2013,3,19,22:00,UTC,7,1023.9,-1,36,0,55,-8,-20.5,50000,65,7.3,5.1
2013,3,19,23:00,UTC,7,1024.3,-1,37,0,55,-8.4,-20.6,50000,59,6.4,4.3
2013,3,20,00:00,UTC,7,1024.5,-1,38,0,55,-8.5,-20.4,50000,54,6.4,4
2013,3,20,01:00,UTC,7,1024.7,-1,39,0,55,-8.6,-20,50000,47,8.8,4.7
2013,3,20,02:00,UTC,7,1024.8,-1,38,0,55,-8.6,-20.3,50000,43,5.9,3.4
2013,3,20,03:00,UTC,7,1024.8,-1,38,0,55,-8.5,-20.3,50000,45,8.1,5.3
2013,3,20,04:00,UTC,7,1025.2,-1,39,0,55,-8.7,-20.3,50000,36,6.9,4.8
2013,3,20,05:00,UTC,1,1025.2,-1,39,0,55,-8.4,-20,50000,41,6.5,4.3
2013,3,20,06:00,UTC,7,1025.5,-1,39,0,55,-7.8,-19.5,49960,47,9.2,5.5
2013,3,20,07:00,UTC,1,1026.2,-1,36,0,54,-7.6,-20.2,43330,44,8.9,4.9
2013,3,20,08:00,UTC,0,1026.5,-1,31,0,54,-6.2,-20.7,28830,52,10.6,5.9
2013,3,20,09:00,UTC,0,1026.9,-1,27,0,54,-5.1,-21.2,15240,51,11.2,6.6
2013,3,20,10:00,UTC,0,1027.4,-1,27,0,53,-4.6,-20.8,29070,44,9.7,6.1
2013,3,20,11:00,UTC,1,1027.2,-1,29,0,54,-4.2,-19.6,33380,34,11.3,6.2
2013,3,20,12:00,UTC,0,1027.4,-1,26,0,54,-3.6,-20.3,21860,44,11.5,6.8
2013,3,20,13:00,UTC,0,1027.1,-1,23,0,54,-3.2,-21.3,30660,47,11.1,6.5
2013,3,20,14:00,UTC,0,1027.1,-1,26,0,54,-3.4,-20.4,41060,26,10.2,5.7
2013,3,20,15:00,UTC,0,1027,-1,31,0,53,-3.8,-18.6,47590,30,9.8,6.5
2013,3,20,16:00,UTC,0,1027.1,-1,34,0,53,-4.5,-18,50000,26,10.3,6.2
2013,3,20,17:00,UTC,0,1027.8,-1,36,0,53,-5.3,-18.1,50000,23,7.1,5.1
2013,3,20,18:00,UTC,0,1028.2,-1,39,0,53,-6.3,-18.1,50000,16,7.2,4.6
2013,3,20,19:00,UTC,0,1028.8,-1,54,0,53,-6.9,-14.7,50000,24,7.2,4.4
2013,3,20,20:00,UTC,0,1029.1,-1,61,0,53,-7.8,-13.9,50000,23,7.1,4.5
2013,3,20,21:00,UTC,0,1029.4,-1,61,0,53,-8.7,-14.9,50000,39,6.2,3.6
2013,3,20,22:00,UTC,0,1029.8,-1,64,0,53,-9.6,-15.2,50000,32,5.3,3.4
2013,3,20,23:00,UTC,0,1030.1,-1,71,0,53,-10.8,-15.1,50000,25,3.9,2.6
2013,3,21,00:00,UTC,0,1030.3,-1,75,0,53,-12.1,-15.6,50000,344,4,2.6
2013,3,21,01:00,UTC,0,1030.2,-1,81,0,53,-13.4,-16,50000,340,4.4,3.5
2013,3,21,02:00,UTC,0,1030,-1,84,0,53,-14.5,-16.7,43030,340,5,4.1
2013,3,21,03:00,UTC,0,1030.2,-1,84,0,53,-14.9,-17,46320,338,5.2,4.1
2013,3,21,04:00,UTC,1,1030.1,-1,85,0,53,-14.3,-16.3,42330,343,5,3.9
2013,3,21,05:00,UTC,7,1030.5,-1,85,0,53,-13.3,-15.3,41140,346,5,4
2013,3,21,06:00,UTC,0,1030.7,-1,83,0,53,-12.3,-14.6,33680,351,5.4,3.6
2013,3,21,07:00,UTC,0,1030.5,-1,65,0,53,-9.7,-15.1,43860,47,6.3,4.3
2013,3,21,08:00,UTC,0,1030.4,-1,51,0,53,-8.5,-16.9,37980,61,7.6,4.5
2013,3,21,09:00,UTC,0,1030.4,-1,50,0,53,-8.1,-16.7,38630,56,7.8,4.6
2013,3,21,10:00,UTC,3,1030,-1,43,0,53,-7.3,-17.8,43440,31,6.4,3.8
2013,3,21,11:00,UTC,3,1029.6,-1,44,0,53,-7,-17.1,38880,335,7.1,4.4
2013,3,21,12:00,UTC,7,1029.4,-1,47,0,53,-6.6,-16,41940,4,6.5,4.9
2013,3,21,13:00,UTC,7,1028.9,-1,51,0,53,-6.2,-14.7,49670,358,6.6,4.6
2013,3,21,14:00,UTC,7,1028.6,-1,66,0,53,-6.4,-11.8,28530,344,7.7,5.7
2013,3,21,15:00,UTC,5,1028.9,-1,72,0,53,-7.4,-11.6,46900,357,8.1,5.1
2013,3,21,16:00,UTC,3,1029.4,-1,73,0,53,-8.4,-12.3,42450,3,6,4.1
2013,3,21,17:00,UTC,7,1030,-1,77,0,53,-9.4,-12.8,5030,14,7.1,4.3
2013,3,21,18:00,UTC,0,1030.4,-1,76,0,53,-12.1,-15.4,50000,332,3.1,2.6
2013,3,21,19:00,UTC,0,1030.8,-1,82,0,53,-14.1,-16.5,49640,334,3.3,2.7
2013,3,21,20:00,UTC,0,1031.2,-1,71,0,53,-12.8,-16.9,50000,357,6.6,4.2
2013,3,21,21:00,UTC,1,1031.9,-1,73,0,53,-12.6,-16.5,50000,19,5.7,4
2013,3,21,22:00,UTC,0,1032.7,-1,65,0,53,-13.5,-18.7,28590,14,6.1,4
2013,3,21,23:00,UTC,0,1033.1,-1,66,0,53,-14.8,-19.8,50000,8,4.9,2.7
2013,3,22,00:00,UTC,0,1033.6,-1,72,0,53,-15.9,-19.8,50000,337,3.2,2.4
2013,3,22,01:00,UTC,0,1033.9,-1,78,0,53,-17.4,-20.3,50000,333,2.4,2.1
2013,3,22,02:00,UTC,0,1033.9,-1,84,0,53,-18.4,-20.5,50000,312,2.8,2.3
2013,3,22,03:00,UTC,0,1033.9,-1,82,0,53,-18.5,-20.7,50000,311,2.9,2.5
2013,3,22,04:00,UTC,1,1034.1,-1,83,0,53,-23.2,-25.3,50000,295,3.2,2.8
2013,3,22,05:00,UTC,7,1033.3,-1,82,0,53,-17.6,-19.9,47680,291,3.9,3
2013,3,22,06:00,UTC,7,1033.1,-1,77,0,53,-16.4,-19.4,27230,287,3,1.9
2013,3,22,07:00,UTC,3,1032.5,-1,70,0,53,-13.7,-18,41660,294,5.1,3.7
2013,3,22,08:00,UTC,3,1031.7,-1,61,0,53,-10.7,-16.8,31310,300,4.7,3.3
2013,3,22,09:00,UTC,0,1030.7,-1,64,0,53,-8.5,-14.2,38080,305,8.5,6.2
2013,3,22,10:00,UTC,5,1030,-1,65,0,53,-6.7,-12.2,34220,306,7.9,5.5
2013,3,22,11:00,UTC,7,1029.1,-1,63,0,53,-5.5,-11.4,42470,314,7.7,5.4
2013,3,22,12:00,UTC,7,1028.4,-1,69,0,53,-5.4,-10.2,19710,305,9,5.4
2013,3,22,13:00,UTC,7,1028,-1,78,0,53,-5.7,-8.9,5910,320,9.1,7.1
2013,3,22,14:00,UTC,7,1027.7,-1,77,0,53,-5.8,-9.2,6230,308,9,6.7
2013,3,22,15:00,UTC,7,1027.5,-1,81,0,53,-5.9,-8.7,3910,317,10.2,7.5
2013,3,22,16:00,UTC,9,1027.5,-1,84,0,53,-6.1,-8.4,2080,314,9.1,6.7
2013,3,22,17:00,UTC,7,1027.4,0.2,81,0,53,-6.2,-8.9,7880,307,6.3,5
2013,3,22,18:00,UTC,7,1027.2,-1,83,0,53,-6.2,-8.6,18710,296,7.2,5
2013,3,22,19:00,UTC,7,1027,-1,83,0,53,-6.8,-9.1,38660,303,5.4,3.9
2013,3,22,20:00,UTC,7,1026.9,-1,89,0,53,-6.5,-8.1,23010,317,7.2,5.5
2013,3,22,21:00,UTC,0,1026.9,-1,90,0,53,-7.2,-8.6,19360,306,6.3,4.6
2013,3,22,22:00,UTC,0,1027,-1,87,0,53,-7.9,-9.7,21330,320,6.5,5.4
2013,3,22,23:00,UTC,0,1027.2,-1,85,0,53,-8,-10.1,23250,310,4.6,3.7
2013,3,23,00:00,UTC,0,1027.2,-1,85,0,53,-8.1,-10.2,21160,299,4.1,3.1
2013,3,23,01:00,UTC,0,1027.5,-1,88,0,53,-8.5,-10.2,18020,290,5,3.9
2013,3,23,02:00,UTC,1,1027.4,-1,89,0,53,-9.4,-10.9,17280,290,4.5,3.7
2013,3,23,03:00,UTC,3,1027.4,-1,88,0,53,-10.3,-12,21860,306,4.6,3.6
2013,3,23,04:00,UTC,7,1027.2,-1,87,0,53,-8.9,-10.7,21350,309,4.8,3.9
2013,3,23,05:00,UTC,7,1027.3,-1,87,0,53,-8.5,-10.2,23570,317,4.5,3.8
2013,3,23,06:00,UTC,7,1027.6,-1,86,0,53,-9,-10.9,26020,313,3.7,2.8
2013,3,23,07:00,UTC,7,1027.6,-1,85,0,53,-5.5,-7.7,2910,333,7.5,5.2
2013,3,23,08:00,UTC,1,1027.9,-1,77,0,53,-5,-8.4,34820,350,6.1,4.3
2013,3,23,09:00,UTC,3,1028.1,-1,73,0,53,-3.9,-8.1,32200,2,6.7,5
2013,3,23,10:00,UTC,5,1028.3,-1,70,0,53,-2.9,-7.6,28430,354,6.5,4.5
2013,3,23,11:00,UTC,7,1028.5,-1,68,0,53,-2.9,-7.9,7910,321,8,5.1
2013,3,23,12:00,UTC,7,1028.6,-1,59,0,54,-2.1,-9.1,30830,359,5.7,4.2
2013,3,23,13:00,UTC,7,1028.6,-1,53,0,54,-2.1,-10.4,39710,350,6.9,4.3
2013,3,23,14:00,UTC,3,1028.9,-1,55,0,53,-2.3,-10,40910,327,3.8,2.7
2013,3,23,15:00,UTC,7,1029,-1,55,0,54,-2.3,-10.1,46310,339,7.5,5.7
2013,3,23,16:00,UTC,7,1029.2,-1,58,0,53,-2.9,-10.1,46830,329,6.9,5.3
2013,3,23,17:00,UTC,7,1029.4,-1,55,0,53,-3.3,-11,50000,302,2.8,2.3
2013,3,23,18:00,UTC,7,1030,-1,62,0,53,-4.2,-10.5,50000,319,4.2,3.4
2013,3,23,19:00,UTC,7,1030.3,-1,56,0,53,-3.8,-11.3,50000,329,6.1,4
2013,3,23,20:00,UTC,7,1030.7,-1,52,0,53,-3.6,-12,50000,347,5.3,3.4
2013,3,23,21:00,UTC,8,1030.9,-1,61,0,53,-5.4,-11.8,50000,317,3,2.1
2013,3,23,22:00,UTC,7,1031.1,-1,55,0,53,-4.8,-12.4,50000,313,2.6,2.3
2013,3,23,23:00,UTC,7,1031.4,-1,63,0,53,-6.3,-12.2,50000,308,4.4,3.3
2013,3,24,00:00,UTC,7,1031.4,-1,70,0,53,-6.3,-10.9,50000,292,4.1,3
2013,3,24,01:00,UTC,0,1031.5,-1,78,0,53,-8,-11.1,33360,285,3.5,2.3
2013,3,24,02:00,UTC,7,1031.5,-1,82,0,53,-8.2,-10.7,41830,290,3.8,2.9
2013,3,24,03:00,UTC,7,1031.3,-1,81,0,53,-7.9,-10.5,45870,288,3.3,2.4
2013,3,24,04:00,UTC,7,1031.3,-1,86,0,53,-9.9,-11.8,25470,291,2.9,2.2
2013,3,24,05:00,UTC,7,1031.1,-1,85,0,53,-8.4,-10.6,48240,298,3.5,2.3
2013,3,24,06:00,UTC,7,1030.7,-1,74,0,53,-6.2,-10.1,36540,295,3.3,2.5
2013,3,24,07:00,UTC,7,1030.7,-1,70,0,53,-5.1,-9.8,46700,297,4.7,3.8
2013,3,24,08:00,UTC,5,1030.5,-1,63,0,53,-2.8,-8.9,39010,311,6,3.4
2013,3,24,09:00,UTC,1,1029.8,-1,57,0,53,-0.7,-8.1,19610,318,9.7,7.1
2013,3,24,10:00,UTC,0,1029.6,-1,58,0,53,-0.2,-7.4,18880,337,9.6,7.3
2013,3,24,11:00,UTC,0,1029.4,-1,54,0,52,0.5,-7.7,25070,341,9.1,7.1
2013,3,24,12:00,UTC,1,1029.1,-1,49,0,53,0.9,-8.6,40100,351,8.6,6.3
2013,3,24,13:00,UTC,1,1028.8,-1,45,0,53,1.1,-9.4,41910,347,8.2,6
2013,3,24,14:00,UTC,0,1028.7,-1,43,0,53,1.2,-9.9,46060,352,7.5,5.7
2013,3,24,15:00,UTC,0,1028.6,-1,45,0,52,0.7,-9.8,50000,349,7.2,5
2013,3,24,16:00,UTC,0,1028.6,-1,47,0,52,-0.5,-10.4,50000,6,5.3,3.5
2013,3,24,17:00,UTC,0,1028.9,-1,55,0,52,-2.5,-10.3,50000,337,2.2,1.4
2013,3,24,18:00,UTC,0,1029.4,-1,66,0,52,-4.2,-9.6,50000,298,2.2,1.8
2013,3,24,19:00,UTC,0,1029.9,-1,76,0,52,-8.9,-12.4,49200,0,0.6,0
2013,3,24,20:00,UTC,0,1029.9,-1,85,0,52,-8.5,-10.6,50000,308,1,0.8
2013,3,24,21:00,UTC,0,1030,-1,87,0,52,-11.9,-13.6,50000,309,2.5,2
2013,3,24,22:00,UTC,0,1029.7,-1,91,0,53,-10.7,-11.9,50000,316,1.5,1.2
2013,3,24,23:00,UTC,0,1029.6,-1,90,0,52,-12.6,-13.9,50000,133,1,0.8
2013,3,25,00:00,UTC,0,1029.3,-1,88,0,52,-12.8,-14.3,50000,0,0.3,0
2013,3,25,01:00,UTC,0,1029.1,-1,86,0,52,-14.5,-16.4,50000,309,1.4,0.7
2013,3,25,02:00,UTC,0,1028.9,-1,87,0,52,-14.8,-16.5,50000,0,0.3,0
2013,3,25,03:00,UTC,0,1028.8,-1,85,0,52,-15.9,-17.8,50000,282,0.9,0.6
2013,3,25,04:00,UTC,0,1028.5,-1,85,0,52,-16.6,-18.5,50000,177,1.6,0.9
2013,3,25,05:00,UTC,0,1028,-1,84,0,52,-15.8,-17.9,50000,143,1.8,1.1
2013,3,25,06:00,UTC,0,1027.3,-1,82,0,52,-13.3,-15.7,27010,133,1.5,1.1
2013,3,25,07:00,UTC,8,1026.8,-1,79,0,52,-8.2,-11.3,39450,144,2.4,1.3
2013,3,25,08:00,UTC,3,1026.2,-1,67,0,52,-5.3,-10.4,31340,131,1.9,1.4
2013,3,25,09:00,UTC,3,1025.1,-1,49,0,52,0.8,-8.8,40800,277,4.5,2.6
2013,3,25,10:00,UTC,7,1024.7,-1,53,0,53,1.4,-7.2,37800,311,7,5.1
2013,3,25,11:00,UTC,5,1024.4,-1,52,0,52,0.9,-7.9,34030,312,6.8,4.8
2013,3,25,12:00,UTC,5,1024,-1,54,0,52,1.5,-6.8,45630,326,7.1,4.7
2013,3,25,13:00,UTC,8,1023.6,-1,61,0,52,0.8,-5.9,43100,324,8.2,6.6
2013,3,25,14:00,UTC,3,1023.3,-1,61,0,52,0.9,-5.6,42620,321,7.4,5.7
2013,3,25,15:00,UTC,7,1023.3,-1,65,0,52,0.6,-5.2,46720,323,8.4,5.6
2013,3,25,16:00,UTC,7,1023.5,-1,80,0,52,-0.5,-3.5,27820,7,7.5,4.7
2013,3,25,17:00,UTC,5,1023.5,-1,80,0,52,-1.9,-4.8,50000,308,5.8,4.3
2013,3,25,18:00,UTC,7,1023.7,-1,79,0,52,-3.5,-6.6,50000,309,5.1,4.1
2013,3,25,19:00,UTC,1,1024.1,-1,74,0,52,-4.7,-8.7,50000,322,5.7,4.8
2013,3,25,20:00,UTC,5,1024.1,-1,71,0,52,-4.6,-9,50000,333,6.3,4.3
2013,3,25,21:00,UTC,0,1024.2,-1,74,0,52,-6.2,-10.1,50000,325,5.3,4.1
2013,3,25,22:00,UTC,0,1024,-1,74,0,52,-5.3,-9.2,50000,308,3.9,3.2
2013,3,25,23:00,UTC,0,1024.2,-1,80,0,52,-7.4,-10.2,50000,313,4.7,3.8
2013,3,26,00:00,UTC,0,1024.3,-1,81,0,52,-8.5,-11.3,50000,328,4.8,4.1
2013,3,26,01:00,UTC,0,1024.2,-1,81,0,52,-9.5,-12.1,50000,322,4.8,3.5
2013,3,26,02:00,UTC,0,1024.2,-1,81,0,52,-8.5,-11.2,50000,306,3,2.6
2013,3,26,03:00,UTC,0,1024.5,-1,89,0,52,-10.7,-12.2,50000,331,3.2,2.7
2013,3,26,04:00,UTC,0,1024.7,-1,89,0,52,-13,-14.5,50000,296,3.7,3.1
2013,3,26,05:00,UTC,0,1024.8,-1,87,0,52,-11.9,-13.6,44420,311,2.6,2.3
2013,3,26,06:00,UTC,0,1024.4,-1,82,0,52,-9.6,-12.1,44610,315,2.5,2.2
2013,3,26,07:00,UTC,0,1024.3,-1,71,0,52,-7.8,-12.1,32210,350,2.8,2.2
2013,3,26,08:00,UTC,0,1023.9,-1,57,0,52,-4.4,-11.5,30220,358,5,2.5
2013,3,26,09:00,UTC,0,1023.7,-1,48,0,52,-2.8,-12.4,33890,7,7.4,5
2013,3,26,10:00,UTC,0,1023.3,-1,43,0,52,-2,-13,39900,1,6.2,4.6
2013,3,26,11:00,UTC,0,1022.8,-1,37,0,52,-1.3,-14.2,40510,13,6.5,4.5
2013,3,26,12:00,UTC,0,1022.3,-1,37,0,52,-1,-13.9,37700,8,5.1,3.4
2013,3,26,13:00,UTC,0,1021.9,-1,36,0,52,-1.2,-14.5,40710,353,6.4,5
2013,3,26,14:00,UTC,0,1021.7,-1,33,0,52,-1.2,-15.4,39170,345,6.5,4.1
2013,3,26,15:00,UTC,0,1021.5,-1,32,0,52,-1.7,-16.4,50000,354,5.6,3.3
2013,3,26,16:00,UTC,0,1021.4,-1,33,0,52,-2.8,-17,50000,341,2.9,2.1
2013,3,26,17:00,UTC,0,1021.4,-1,36,0,52,-4.5,-17.3,50000,317,1.4,1.2
2013,3,26,18:00,UTC,0,1021.7,-1,63,0,52,-9,-14.8,50000,294,1.1,0.9
2013,3,26,19:00,UTC,0,1021.7,-1,72,0,52,-10.7,-14.8,45950,0,0.4,0
2013,3,26,20:00,UTC,0,1021.9,-1,75,0,52,-12.3,-15.8,50000,0,0.4,0
2013,3,26,21:00,UTC,0,1021.8,-1,77,0,52,-12.1,-15.3,50000,0,0.7,0
2013,3,26,22:00,UTC,0,1022,-1,84,0,52,-15.1,-17.2,50000,0,0.6,0
2013,3,26,23:00,UTC,0,1022,-1,83,0,52,-16.4,-18.6,50000,0,0.3,0
2013,3,27,00:00,UTC,0,1022.1,-1,84,0,52,-19.5,-21.5,50000,256,1.7,1
2013,3,27,01:00,UTC,0,1021.9,-1,85,0,52,-17.1,-19,50000,0,0.5,0
2013,3,27,02:00,UTC,0,1021.6,-1,86,0,52,-18.1,-20,50000,127,0.8,0.6
2013,3,27,03:00,UTC,0,1021.6,-1,83,0,52,-18.8,-20.9,50000,0,0.7,0
2013,3,27,04:00,UTC,7,1021.5,-1,85,0,52,-18.3,-20.2,50000,0,0.7,0
2013,3,27,05:00,UTC,7,1020.8,-1,82,0,52,-16,-18.3,43160,192,1.3,0.6
2013,3,27,06:00,UTC,7,1020.1,-1,74,0,52,-12.3,-16,33010,163,3.5,2.7
2013,3,27,07:00,UTC,7,1019.9,-1,65,0,52,-9.4,-14.7,31130,137,2.4,1.6
2013,3,27,08:00,UTC,5,1019.1,-1,55,0,52,-4.1,-11.9,37140,119,3.7,1.9
2013,3,27,09:00,UTC,5,1018.4,-1,40,0,52,-0.2,-12.1,37480,233,8.2,3.4
2013,3,27,10:00,UTC,0,1017.8,-1,38,0,52,1.3,-11.4,35960,217,6.6,3
2013,3,27,11:00,UTC,0,1017.5,-1,39,0,52,2.4,-10.3,32160,248,5.7,3
2013,3,27,12:00,UTC,7,1017.2,-1,39,0,52,2.7,-9.8,34630,242,7,2.9
2013,3,27,13:00,UTC,5,1016.8,-1,39,0,52,3.6,-9.1,42910,248,6.9,3.3
2013,3,27,14:00,UTC,7,1016.8,-1,48,0,52,3.1,-7,45740,281,7.4,4.2
2013,3,27,15:00,UTC,7,1016.9,-1,48,0,52,2.8,-7,50000,237,4.9,2.1
2013,3,27,16:00,UTC,7,1016.9,-1,47,0,52,2.9,-7.3,50000,263,7.4,3
2013,3,27,17:00,UTC,7,1017,-1,52,0,52,1.7,-7.1,50000,283,2.6,1.5
2013,3,27,18:00,UTC,3,1017.4,-1,61,0,52,-0.4,-7.1,50000,286,3.7,2.3
2013,3,27,19:00,UTC,7,1017.8,-1,67,0,52,-1.7,-7,50000,248,2.3,1.1
2013,3,27,20:00,UTC,0,1018.1,-1,73,0,52,-2.9,-7.1,50000,260,2.7,1.4
2013,3,27,21:00,UTC,0,1018.3,-1,74,0,52,-3.2,-7.2,50000,262,3.8,1.7
2013,3,27,22:00,UTC,3,1018.6,-1,73,0,52,-3.2,-7.3,50000,245,4.2,2
2013,3,27,23:00,UTC,0,1018.7,-1,75,0,52,-3.8,-7.6,50000,231,4,2
2013,3,28,00:00,UTC,1,1018.8,-1,80,0,52,-4.7,-7.6,50000,223,3.7,1.5
2013,3,28,01:00,UTC,1,1018.9,-1,91,0,52,-7.7,-8.9,47580,147,1.9,0.8
2013,3,28,02:00,UTC,0,1018.9,-1,93,0,52,-8.1,-8.9,49210,169,1.7,1.1
2013,3,28,03:00,UTC,0,1019,-1,93,0,52,-8.9,-9.9,40920,158,2.2,1.6
2013,3,28,04:00,UTC,7,1018.9,-1,92,0,52,-9.8,-10.9,36740,123,1.3,0.7
2013,3,28,05:00,UTC,3,1018.6,-1,93,0,52,-8.9,-9.9,35200,157,2.1,1.3
2013,3,28,06:00,UTC,3,1018.3,-1,89,0,52,-4.7,-6.3,43380,188,3,1.4
2013,3,28,07:00,UTC,1,1018,-1,69,0,52,-1.8,-6.8,39430,217,4.3,2.7
2013,3,28,08:00,UTC,7,1018.1,-1,65,0,52,-1.1,-6.8,37460,250,5.9,2.7
2013,3,28,09:00,UTC,3,1018.2,-1,60,0,52,0.3,-6.5,36430,244,4.1,1.4
2013,3,28,10:00,UTC,0,1018,-1,51,0,52,2.3,-6.9,30940,253,6,2.7
2013,3,28,11:00,UTC,0,1018,-1,46,0,52,2.8,-7.8,41650,279,8.3,4.1
2013,3,28,12:00,UTC,5,1017.8,-1,39,0,52,4,-8.8,50000,256,7.4,3
2013,3,28,13:00,UTC,5,1018.2,-1,56,0,52,2,-5.8,50000,317,10.8,6.6
2013,3,28,14:00,UTC,7,1018.4,-1,45,0,52,1.9,-8.8,46160,303,9.9,6.9
2013,3,28,15:00,UTC,5,1018.6,-1,47,0,52,1.4,-8.7,50000,311,8.5,5.8
2013,3,28,16:00,UTC,0,1019.1,-1,44,0,52,1,-10,50000,291,6.6,4.2
2013,3,28,17:00,UTC,0,1020,-1,49,0,51,-2.6,-11.9,50000,303,4.8,3.5
2013,3,28,18:00,UTC,0,1020.6,-1,57,0,51,-2.7,-10.1,50000,307,4.2,3.5
2013,3,28,19:00,UTC,0,1021.1,-1,60,0,52,-3.4,-10.1,50000,301,4.8,3.5
2013,3,28,20:00,UTC,0,1021.5,-1,68,0,51,-4.7,-9.7,50000,306,3.6,3
2013,3,28,21:00,UTC,0,1022,-1,75,0,51,-6,-9.7,50000,309,3,2.6
2013,3,28,22:00,UTC,0,1022.4,-1,78,0,51,-7.8,-11,50000,304,2.7,2.3
2013,3,28,23:00,UTC,0,1023.1,-1,89,0,51,-9.6,-11.2,50000,311,1.4,1.1
2013,3,29,00:00,UTC,0,1023.6,-1,90,0,51,-13.1,-14.3,50000,289,2.5,1.9
2013,3,29,01:00,UTC,0,1023.7,-1,89,0,51,-13.5,-14.9,50000,301,0.9,0.7
2013,3,29,02:00,UTC,0,1023.9,-1,89,0,51,-13.7,-15.1,50000,321,1.6,1.3
2013,3,29,03:00,UTC,0,1024.1,-1,88,0,51,-14.6,-16.1,50000,0,0.7,0
2013,3,29,04:00,UTC,5,1024.5,-1,87,0,51,-15.6,-17.3,50000,322,0.8,0.6
2013,3,29,05:00,UTC,0,1024.7,-1,84,0,51,-16.4,-18.4,49570,0,0.6,0
2013,3,29,06:00,UTC,0,1024.7,-1,82,0,51,-13.2,-15.7,39700,111,0.9,0.6
2013,3,29,07:00,UTC,0,1024.3,-1,76,0,51,-9.5,-13,35450,126,1.3,1.1
2013,3,29,08:00,UTC,0,1023.9,-1,56,0,51,-4.4,-11.8,46180,109,1.9,1.3
2013,3,29,09:00,UTC,0,1023.7,-1,39,0,51,-1.9,-14,36220,104,2.8,2
2013,3,29,10:00,UTC,0,1023.3,-1,35,0,51,-1.1,-14.6,32990,95,3.1,2.2
2013,3,29,11:00,UTC,0,1022.8,-1,28,0,51,0.2,-16.4,36400,120,3,1.8
2013,3,29,12:00,UTC,0,1022.2,-1,23,0,51,1.1,-17.6,33150,159,4.2,2.3
2013,3,29,13:00,UTC,0,1021.7,-1,26,0,51,0.8,-16.7,36090,149,4.6,2.5
2013,3,29,14:00,UTC,0,1021.1,-1,21,0,51,0.7,-19.2,37130,134,4.6,2.5
2013,3,29,15:00,UTC,0,1020.6,-1,25,0,51,0.5,-17.5,50000,130,4.1,2.3
2013,3,29,16:00,UTC,0,1020.2,-1,28,0,51,-0.8,-17,50000,140,3,1.6
2013,3,29,17:00,UTC,0,1020.2,-1,33,0,51,-3.4,-17.4,50000,159,1.8,1.1
2013,3,29,18:00,UTC,0,1020.2,-1,40,0,51,-6,-17.4,50000,162,1.6,1
2013,3,29,19:00,UTC,0,1020.1,-1,60,0,51,-8.7,-15.1,42000,0,0.3,0
2013,3,29,20:00,UTC,0,1020.2,-1,70,0,51,-11.1,-15.4,43910,0,0.6,0
2013,3,29,21:00,UTC,0,1020,-1,73,0,51,-12.2,-16.1,45090,0,0.7,0
2013,3,29,22:00,UTC,3,1019.8,-1,75,0,51,-13,-16.5,41320,0,0.8,0
2013,3,29,23:00,UTC,7,1019.3,-1,74,0,51,-13.5,-17.2,29230,311,1.1,0.7
2013,3,30,00:00,UTC,5,1018.9,-1,79,0,51,-14.5,-17.4,48570,191,1.1,0.6
2013,3,30,01:00,UTC,7,1018.6,-1,78,0,51,-14.3,-17.3,50000,0,0.9,0
2013,3,30,02:00,UTC,7,1018.1,-1,79,0,51,-14.9,-17.8,44710,0,0.9,0
2013,3,30,03:00,UTC,7,1017.7,-1,84,0,51,-15.2,-17.3,50000,0,0.6,0
2013,3,30,04:00,UTC,3,1017.6,-1,84,0,51,-16.4,-18.4,48460,0,0.6,0
2013,3,30,05:00,UTC,1,1017.2,-1,83,0,51,-16,-18.3,50000,302,1.6,1.4
2013,3,30,06:00,UTC,1,1016.5,-1,62,0,51,-10.8,-16.6,38670,144,1,0.8
2013,3,30,07:00,UTC,0,1015.8,-1,55,0,51,-6.9,-14.4,36310,109,1.6,1
2013,3,30,08:00,UTC,0,1015.2,-1,54,0,51,-4.2,-12.2,33870,108,2.3,1.5
2013,3,30,09:00,UTC,0,1014.3,-1,46,0,51,-1.6,-11.6,37940,100,2.6,2
2013,3,30,10:00,UTC,1,1013.7,-1,41,0,51,-0.1,-11.9,42690,67,3,1.8
2013,3,30,11:00,UTC,1,1013,-1,40,0,51,0.7,-11.3,32600,324,2.5,1.6
2013,3,30,12:00,UTC,1,1012.5,-1,35,0,51,1.7,-12.1,42720,23,4,1.3
2013,3,30,13:00,UTC,1,1012.2,-1,37,0,51,1.4,-11.8,41530,98,4.5,2.5
2013,3,30,14:00,UTC,1,1011.8,-1,40,0,51,0.9,-11.4,48810,35,4.5,3.1
2013,3,30,15:00,UTC,5,1011.7,-1,36,0,51,0.7,-12.7,47210,69,4.4,3
2013,3,30,16:00,UTC,3,1011.7,-1,37,0,51,-0.3,-13.2,50000,56,5,2.7
2013,3,30,17:00,UTC,1,1011.7,-1,40,0,51,-2.3,-14.1,50000,30,2.8,2.2
2013,3,30,18:00,UTC,0,1011.9,-1,46,0,51,-3.5,-13.5,50000,356,1.5,1.2
2013,3,30,19:00,UTC,0,1012.1,-1,51,0,51,-4.7,-13.5,50000,340,1.9,1.6
2013,3,30,20:00,UTC,0,1012.1,-1,56,0,51,-5.8,-13,50000,319,2.2,1.9
2013,3,30,21:00,UTC,0,1012.3,-1,62,0,51,-6.8,-12.9,50000,332,3.1,2.3
2013,3,30,22:00,UTC,0,1012.6,-1,65,0,51,-8,-13.5,50000,321,2.8,2
2013,3,30,23:00,UTC,0,1012.9,-1,83,0,51,-10.7,-13,50000,311,2.1,1.8
2013,3,31,00:00,UTC,0,1012.9,-1,72,0,51,-9.2,-13.2,50000,314,2.6,2.4
2013,3,31,01:00,UTC,0,1013.3,-1,75,0,51,-11.7,-15.2,46290,320,2.3,2
2013,3,31,02:00,UTC,0,1013.5,-1,79,0,50,-11.7,-14.6,50000,317,2.7,2.3
2013,3,31,03:00,UTC,0,1013.8,-1,78,0,51,-11.4,-14.5,50000,326,3.5,3
2013,3,31,04:00,UTC,0,1014,-1,82,0,51,-13.3,-15.7,49750,331,3.3,2.8
2013,3,31,05:00,UTC,0,1014.1,-1,77,0,51,-10.5,-13.8,44460,319,1.6,1.1
2013,3,31,06:00,UTC,0,1014.4,-1,71,0,51,-9.1,-13.3,38600,316,1.5,1.1
2013,3,31,07:00,UTC,0,1014.2,-1,53,0,51,-5,-13,42930,0,0.9,0
2013,3,31,08:00,UTC,0,1014.1,-1,42,0,51,-1.5,-12.9,32270,98,1.7,0.9
2013,3,31,09:00,UTC,0,1014.2,-1,39,0,51,0.8,-11.8,35090,126,2.9,1.7
2013,3,31,10:00,UTC,0,1014.1,-1,35,0,51,2.1,-11.8,42670,139,3.7,2.3
2013,3,31,11:00,UTC,0,1014.1,-1,33,0,51,2.6,-11.9,33190,131,5,3.2
2013,3,31,12:00,UTC,0,1013.8,-1,32,0,51,3.6,-11.5,33860,177,5,2.7
2013,3,31,13:00,UTC,0,1013.8,-1,32,0,51,3.7,-11.6,36790,172,3.6,1.4
2013,3,31,14:00,UTC,0,1013.8,-1,30,0,51,3.3,-12.8,37500,151,5.6,2.2
2013,3,31,15:00,UTC,0,1013.7,-1,30,0,51,3.4,-12.4,50000,169,3.4,2
2013,3,31,16:00,UTC,0,1014,-1,36,0,51,1.1,-12.4,50000,150,2.7,1.2
2013,3,31,17:00,UTC,0,1014.2,-1,41,0,51,-1.2,-12.8,50000,182,2.1,1.3
2013,3,31,18:00,UTC,0,1014.5,-1,57,0,51,-3.7,-11,50000,168,1.7,1.2
2013,3,31,19:00,UTC,0,1014.9,-1,70,0,51,-6,-10.6,50000,0,0.6,0
2013,3,31,20:00,UTC,0,1015.1,-1,80,0,51,-8.1,-10.9,50000,148,0.9,0.7
2013,3,31,21:00,UTC,0,1015.5,-1,83,0,51,-9.3,-11.6,48680,0,0.8,0
2013,3,31,22:00,UTC,0,1015.6,-1,84,0,51,-9.7,-11.9,46080,352,1.1,0.7
2013,3,31,23:00,UTC,0,1015.6,-1,85,0,51,-10.5,-12.6,43630,0,0.6,0
2013,4,1,00:00,UTC,0,1015.8,-1,89,0,51,-11.7,-13.3,40580,0,0.7,0
2013,4,1,01:00,UTC,0,1015.9,-1,91,0,51,-13.1,-14.3,24220,0,0.7,0
2013,4,1,02:00,UTC,0,1015.8,-1,90,0,51,-13.4,-14.7,35620,333,0.8,0.7
2013,4,1,03:00,UTC,0,1015.8,-1,89,0,51,-15.1,-16.6,31370,291,1.4,1.3
2013,4,1,04:00,UTC,0,1015.5,-1,88,0,51,-15,-16.6,41690,0,0.7,0
2013,4,1,05:00,UTC,0,1015.4,-1,85,0,51,-13.5,-15.5,28460,0,0.9,0
2013,4,1,06:00,UTC,0,1015.2,-1,87,0,51,-10.5,-12.3,27570,314,0.9,0.7
2013,4,1,07:00,UTC,0,1014.7,-1,64,0,51,-4.9,-10.8,37950,123,2.3,1.6
2013,4,1,08:00,UTC,0,1014.3,-1,53,0,51,-1.3,-9.6,40020,125,2.6,1.7
2013,4,1,09:00,UTC,0,1014,-1,44,0,51,1.4,-9.5,40000,125,3.7,2.5
2013,4,1,10:00,UTC,0,1013.6,-1,40,0,51,2.3,-9.8,40420,128,3.5,1.6
2013,4,1,11:00,UTC,0,1013.2,-1,41,0,51,2.5,-9.5,26270,76,2.6,1.2
2013,4,1,12:00,UTC,5,1012.6,-1,36,0,51,2.9,-10.6,41990,330,1.9,1.1
2013,4,1,13:00,UTC,1,1012.1,-1,32,0,51,3.3,-11.9,38000,53,1.5,0.7
2013,4,1,14:00,UTC,0,1011.7,-1,36,0,51,2.6,-11,40200,7,5.8,3.6
2013,4,1,15:00,UTC,5,1011.3,-1,36,0,51,2.3,-11.3,42740,81,3.9,3.1
2013,4,1,16:00,UTC,5,1011.2,-1,39,0,51,1.4,-11.3,50000,54,4.2,2.8
2013,4,1,17:00,UTC,0,1011,-1,42,0,51,-0.4,-11.9,50000,23,1.7,1.3
2013,4,1,18:00,UTC,0,1011.1,-1,68,0,51,-4.9,-9.9,50000,310,2,1.7
2013,4,1,19:00,UTC,0,1011,-1,71,0,51,-5.3,-9.8,47120,167,2.3,0.9
2013,4,1,20:00,UTC,0,1010.9,-1,81,0,51,-8.7,-11.4,50000,295,1.4,1.1
2013,4,1,21:00,UTC,0,1010.8,-1,81,0,51,-9.3,-11.9,50000,324,2.4,2.2
2013,4,1,22:00,UTC,0,1010.7,-1,83,0,51,-9.2,-11.6,50000,290,2.8,2.1
2013,4,1,23:00,UTC,0,1010.6,-1,77,0,50,-10.6,-14,50000,0,1,0
2013,4,2,00:00,UTC,0,1010.4,-1,84,0,51,-10.9,-13.1,50000,291,0.9,0.6
2013,4,2,01:00,UTC,0,1010.4,-1,87,0,51,-12.6,-14.3,50000,312,1.6,1.5
2013,4,2,02:00,UTC,0,1010.3,-1,86,0,51,-11.8,-13.6,50000,306,2.1,1.8
2013,4,2,03:00,UTC,0,1010.3,-1,88,0,51,-12.8,-14.4,50000,320,1.8,1.6
2013,4,2,04:00,UTC,0,1010.3,-1,91,0,51,-12.1,-13.3,43180,293,2.7,2.1
2013,4,2,05:00,UTC,0,1010.5,-1,89,0,51,-11,-12.5,31820,293,3,2
2013,4,2,06:00,UTC,0,1010,-1,75,0,51,-4.3,-8,32350,293,3.7,2.9
2013,4,2,07:00,UTC,0,1010,-1,70,0,51,-2.3,-7,40840,296,4.2,3.1
2013,4,2,08:00,UTC,0,1009.6,-1,59,0,51,0,-7.1,47650,297,4.7,3
2013,4,2,09:00,UTC,0,1009.8,-1,42,0,51,0.5,-11,38660,317,5.4,3.9
2013,4,2,10:00,UTC,0,1009.8,-1,37,0,51,1.7,-11.5,30230,308,5.5,4.1
2013,4,2,11:00,UTC,0,1009.7,-1,37,0,51,2.9,-10.5,29720,308,7.6,5.5
2013,4,2,12:00,UTC,7,1009.8,-1,44,0,51,3.4,-7.9,44050,290,7.2,4.4
2013,4,2,13:00,UTC,7,1010.2,-1,36,0,51,2.5,-11.1,48040,309,10.1,7.2
2013,4,2,14:00,UTC,1,1010.7,-1,36,0,51,2.3,-11.2,38940,308,9.1,6.3
2013,4,2,15:00,UTC,3,1011.4,-1,43,0,51,1.8,-9.4,49070,319,7.9,5.7
2013,4,2,16:00,UTC,0,1012.1,-1,46,0,51,0.7,-9.5,50000,310,9.6,7.3
2013,4,2,17:00,UTC,0,1013.1,-1,50,0,51,-0.4,-9.7,50000,304,5.7,4
2013,4,2,18:00,UTC,0,1013.7,-1,55,0,51,-1.1,-9.2,50000,283,4.1,2.7
2013,4,2,19:00,UTC,0,1014.3,-1,56,0,51,-1.9,-9.5,50000,275,4.6,2.5
2013,4,2,20:00,UTC,0,1014.7,-1,56,0,51,-2.1,-9.7,50000,281,6.5,3.7
2013,4,2,21:00,UTC,0,1015.4,-1,55,0,51,-2.7,-10.4,50000,283,5.6,3.5
2013,4,2,22:00,UTC,0,1015.9,-1,54,0,51,-2.9,-10.9,50000,288,5.2,3.7
2013,4,2,23:00,UTC,0,1016.8,-1,62,0,51,-5.6,-11.8,49950,306,3.7,1.9
2013,4,3,00:00,UTC,0,1017.6,-1,69,0,51,-7.7,-12.4,49370,306,3.5,2.5
2013,4,3,01:00,UTC,0,1018.3,-1,72,0,51,-7.7,-11.9,50000,300,2.6,1.4
2013,4,3,02:00,UTC,0,1018.7,-1,72,0,51,-7.7,-12,50000,301,4,2.9
2013,4,3,03:00,UTC,0,1019.3,-1,80,0,51,-8.8,-11.6,47970,311,2.3,1.6
2013,4,3,04:00,UTC,0,1020,-1,86,0,51,-9.6,-11.6,35780,316,2.1,1.4
2013,4,3,05:00,UTC,0,1020.2,-1,70,0,51,-7.7,-12.2,31200,303,4.4,3
2013,4,3,06:00,UTC,0,1020.6,-1,67,0,51,-5.8,-11,33480,308,3.3,2.4
2013,4,3,07:00,UTC,0,1021,-1,59,0,51,-3.2,-10,36250,301,4,2.7
2013,4,3,08:00,UTC,0,1021.1,-1,46,0,51,-0.5,-10.8,34000,296,6.2,4.7
2013,4,3,09:00,UTC,0,1021.5,-1,44,0,51,0.2,-10.6,28680,300,6.4,3.7
2013,4,3,10:00,UTC,0,1022,-1,34,0,51,1.9,-12.3,34850,259,4.9,2.6
2013,4,3,11:00,UTC,0,1022.3,-1,36,0,51,1.4,-12.2,38130,305,5.6,3.4
2013,4,3,12:00,UTC,0,1022.5,-1,31,0,51,2.2,-13.4,46080,269,5.2,2.8
2013,4,3,13:00,UTC,0,1022.1,-1,26,0,51,3.5,-14.1,44890,272,6.1,3.3
2013,4,3,14:00,UTC,0,1022.2,-1,28,0,51,3.1,-13.8,46600,262,5.7,2.9
2013,4,3,15:00,UTC,0,1022.1,-1,28,0,51,3.7,-13.2,49420,268,4.3,1.8
2013,4,3,16:00,UTC,0,1022.2,-1,33,0,51,2.1,-12.6,50000,276,3.6,1.9
2013,4,3,17:00,UTC,1,1022.3,-1,39,0,51,-0.3,-12.7,50000,224,2.4,1.3
2013,4,3,18:00,UTC,0,1022.8,-1,46,0,51,-2.3,-12.2,50000,185,2.5,1.7
2013,4,3,19:00,UTC,0,1023.1,-1,58,0,51,-3.8,-10.9,50000,182,2.4,1.6
2013,4,3,20:00,UTC,0,1023.3,-1,57,0,51,-4,-11.2,50000,197,2.5,1.3
2013,4,3,21:00,UTC,0,1023.5,-1,66,0,51,-5.1,-10.6,50000,172,2.3,1.7
2013,4,3,22:00,UTC,0,1023.7,-1,65,0,51,-4.8,-10.4,50000,162,2.5,1.8
2013,4,3,23:00,UTC,0,1023.8,-1,70,0,51,-4.7,-9.3,50000,152,2.8,1.8
2013,4,4,00:00,UTC,1,1023.7,-1,80,0,51,-6.5,-9.4,50000,141,2.3,1.4
2013,4,4,01:00,UTC,7,1023.3,-1,77,0,51,-3.9,-7.4,50000,142,2.4,1.5
2013,4,4,02:00,UTC,7,1022.9,-1,75,0,51,-2.6,-6.4,50000,191,2.8,1.1
2013,4,4,03:00,UTC,7,1022.8,-1,77,0,51,-3.6,-6.9,49010,146,2.3,1.1
2013,4,4,04:00,UTC,7,1022.8,-1,79,0,51,-3.7,-6.9,50000,174,2.9,1.7
2013,4,4,05:00,UTC,3,1022.7,-1,70,0,51,-1.5,-6.3,46040,194,3.8,1.8
2013,4,4,06:00,UTC,0,1022.7,-1,61,0,51,0.4,-6.2,37140,229,5.6,3.1
2013,4,4,07:00,UTC,1,1022.8,-1,60,0,51,1.2,-5.7,46760,241,5.5,2.8
2013,4,4,08:00,UTC,5,1023.2,-1,56,0,51,2.1,-5.7,50000,233,5.3,2.9
2013,4,4,09:00,UTC,0,1023.2,-1,49,0,51,3.9,-5.8,42570,230,5.6,2.5
2013,4,4,10:00,UTC,0,1023,-1,44,0,50,5.6,-5.7,41890,251,4.5,2.1
2013,4,4,11:00,UTC,1,1023,-1,43,0,50,6.4,-5.1,41950,276,4.6,2.4
2013,4,4,12:00,UTC,7,1022.8,-1,41,0,50,6,-6.1,39550,274,5.5,2.9
2013,4,4,13:00,UTC,7,1022.6,-1,42,0,49,6.5,-5.6,40930,234,4,1.7
2013,4,4,14:00,UTC,7,1022.2,-1,42,0,49,6.1,-5.7,47800,253,2.4,1.1
2013,4,4,15:00,UTC,7,1022.1,-1,42,0,49,6.5,-5.5,39810,191,3.5,1.6
2013,4,4,16:00,UTC,8,1021.8,-1,44,0,49,5.5,-5.7,50000,232,2.8,1.5
2013,4,4,17:00,UTC,8,1021.9,-1,48,0,49,3.3,-6.7,50000,289,1.3,0.8
2013,4,4,18:00,UTC,8,1022.1,-1,59,0,49,2.2,-5.1,50000,245,1,0.6
2013,4,4,19:00,UTC,7,1022.2,-1,65,0,49,1.2,-4.6,50000,272,1.2,0.6
2013,4,4,20:00,UTC,8,1022.1,-1,76,0,49,0.6,-3.2,50000,297,2.1,1.6
2013,4,4,21:00,UTC,7,1022,-1,53,0,49,1.6,-6.8,50000,307,2.2,1.6
2013,4,4,22:00,UTC,7,1021.8,-1,56,0,49,1.2,-6.7,50000,309,2.1,1.7
2013,4,4,23:00,UTC,8,1021.8,-1,71,0,49,0,-4.7,48500,155,2.4,1.8
2013,4,5,00:00,UTC,8,1021.4,-1,72,0,49,0,-4.5,50000,242,1.8,0.9
2013,4,5,01:00,UTC,8,1021,-1,80,0,49,-0.8,-3.9,50000,334,2.4,1.9
2013,4,5,02:00,UTC,8,1020.6,-1,72,0,49,-0.6,-5.1,50000,282,2.5,1.6
2013,4,5,03:00,UTC,3,1020.5,-1,72,0,49,-2.1,-6.6,50000,307,2.8,2.2
2013,4,5,04:00,UTC,0,1020.5,-1,79,0,48,-4.3,-7.4,50000,302,2.3,2
2013,4,5,05:00,UTC,1,1020.2,-1,75,0,48,-3.7,-7.4,39950,318,1.9,1.8
2013,4,5,06:00,UTC,0,1019.8,-1,58,0,49,-1.9,-9.1,37360,343,4.5,3.3
2013,4,5,07:00,UTC,0,1019.7,-1,51,0,49,-0.4,-9.4,41040,347,4.2,3.1
2013,4,5,08:00,UTC,0,1019.3,-1,45,0,49,1.2,-9.4,33410,332,3.1,2.1
2013,4,5,09:00,UTC,0,1018.8,-1,48,0,49,2.1,-7.7,28040,342,3.6,2.9
2013,4,5,10:00,UTC,0,1018.2,-1,45,0,48,2.6,-8.2,41920,325,3.8,3
2013,4,5,11:00,UTC,0,1017.8,-1,40,0,48,3.4,-8.8,35450,346,4.7,3.3
2013,4,5,12:00,UTC,0,1017,-1,39,0,48,3.7,-8.9,34140,9,5.3,3
2013,4,5,13:00,UTC,0,1016.3,-1,36,0,48,3.8,-10.1,33870,347,6.8,4.1
2013,4,5,14:00,UTC,0,1015.8,-1,41,0,47,2.6,-9.4,42640,343,5.9,4.3
2013,4,5,15:00,UTC,1,1015.3,-1,38,0,47,3.1,-9.8,50000,12,5.9,4
2013,4,5,16:00,UTC,1,1015,-1,36,0,47,2.8,-10.8,50000,9,6,3.5
2013,4,5,17:00,UTC,0,1015,-1,39,0,47,1.1,-11.2,50000,347,5.6,3.7
2013,4,5,18:00,UTC,0,1015.2,-1,50,0,47,-1.3,-10.5,50000,330,6.4,4.9
2013,4,5,19:00,UTC,0,1015.3,-1,49,0,47,-1.8,-11.2,50000,333,6.7,5.2
2013,4,5,20:00,UTC,0,1015.4,-1,51,0,47,-3.1,-11.8,50000,333,6.7,5.3
2013,4,5,21:00,UTC,0,1015.5,-1,58,0,47,-3.9,-10.9,50000,345,6.1,4.1
2013,4,5,22:00,UTC,0,1015.4,-1,67,0,47,-5,-10.3,50000,332,6.4,4.7
2013,4,5,23:00,UTC,0,1015.2,-1,74,0,47,-6.1,-10,50000,332,5.4,4.3
2013,4,6,00:00,UTC,0,1015.3,-1,78,0,47,-7.5,-10.6,50000,332,5.3,3.9
2013,4,6,01:00,UTC,0,1015.2,-1,83,0,47,-8,-10.4,50000,321,4.1,3.2
2013,4,6,02:00,UTC,0,1014.9,-1,87,0,47,-8.7,-10.5,50000,331,4.2,3
2013,4,6,03:00,UTC,0,1014.8,-1,90,0,47,-9.4,-10.7,50000,319,4.2,3.7
2013,4,6,04:00,UTC,0,1014.8,-1,89,0,47,-8.1,-9.6,43670,291,4.3,3.1
2013,4,6,05:00,UTC,0,1014.9,-1,83,0,47,-7.3,-9.7,32990,296,4.6,3.8
2013,4,6,06:00,UTC,0,1014.8,-1,80,0,47,-5.8,-8.6,42930,318,5.1,4.1
2013,4,6,07:00,UTC,0,1014.6,-1,70,0,47,-3.6,-8.2,43270,324,8.1,5.9
2013,4,6,08:00,UTC,0,1014.8,-1,55,0,47,-1.8,-9.7,40600,345,7.1,4.8
2013,4,6,09:00,UTC,0,1014.5,-1,39,0,47,-0.6,-13,36530,359,8.2,5.7
2013,4,6,10:00,UTC,0,1014.6,-1,43,0,47,0,-11.3,36400,347,6.8,4
2013,4,6,11:00,UTC,0,1014.5,-1,35,0,47,0.5,-13.2,39600,342,6.7,4.7
2013,4,6,12:00,UTC,0,1014.3,-1,31,0,47,1,-14.4,37980,2,6.5,4.3
2013,4,6,13:00,UTC,0,1014.2,-1,25,0,48,1.5,-16.5,46090,3,3.6,2.1
2013,4,6,14:00,UTC,0,1013.9,-1,28,0,47,1.2,-15.3,42530,342,5.7,2.6
2013,4,6,15:00,UTC,0,1013.7,-1,38,0,47,0.7,-12.2,50000,310,4.3,2.7
2013,4,6,16:00,UTC,0,1013.7,-1,31,0,47,0.3,-14.9,50000,333,2.4,1.8
2013,4,6,17:00,UTC,0,1013.8,-1,29,0,47,-1.2,-17.1,50000,296,1.3,1
2013,4,6,18:00,UTC,0,1014.3,-1,57,0,47,-5.5,-12.7,50000,0,0.6,0
2013,4,6,19:00,UTC,0,1014.5,-1,41,0,47,-5.3,-16.6,50000,0,0.7,0
2013,4,6,20:00,UTC,0,1014.7,-1,71,0,47,-8.1,-12.4,50000,0,0.5,0
2013,4,6,21:00,UTC,0,1014.8,-1,74,0,47,-8.8,-12.7,49360,0,0.6,0
2013,4,6,22:00,UTC,1,1014.9,-1,77,0,47,-9.7,-13,44460,0,0.3,0
2013,4,6,23:00,UTC,5,1014.8,-1,83,0,47,-10.6,-12.9,50000,0,0.5,0
2013,4,7,00:00,UTC,7,1014.8,-1,78,0,47,-10.6,-13.7,50000,283,0.9,0.6
2013,4,7,01:00,UTC,8,1014.5,-1,79,0,47,-10.4,-13.3,42210,160,1,0.8
2013,4,7,02:00,UTC,7,1014.1,-1,84,0,47,-11.2,-13.4,44410,0,0.4,0
2013,4,7,03:00,UTC,7,1013.7,-1,84,0,47,-11.5,-13.7,50000,0,0.6,0
2013,4,7,04:00,UTC,7,1013.2,-1,81,0,47,-10.6,-13.3,48510,158,1.4,0.9
2013,4,7,05:00,UTC,7,1012.9,-1,78,0,47,-9.7,-12.8,44230,161,1.8,1
2013,4,7,06:00,UTC,7,1012.4,-1,65,0,47,-7,-12.6,39620,141,2,1.1
2013,4,7,07:00,UTC,1,1011.6,-1,45,0,47,-2.6,-13,41580,146,6.1,3
2013,4,7,08:00,UTC,5,1011.1,-1,41,0,47,-0.8,-12.6,41390,150,7,3.9
2013,4,7,09:00,UTC,3,1010.5,-1,39,0,47,0.8,-11.7,41670,146,7.1,3.6
2013,4,7,10:00,UTC,5,1010,-1,36,0,47,1.2,-12.3,37980,157,8.8,3.7
2013,4,7,11:00,UTC,7,1009.5,-1,36,0,47,1.7,-11.7,42760,146,9.6,4.8
2013,4,7,12:00,UTC,7,1009,-1,34,0,47,1.9,-12.2,38230,153,9.7,4.2
2013,4,7,13:00,UTC,7,1008.3,-1,33,0,47,2.1,-12.5,42340,156,8.1,4.5
2013,4,7,14:00,UTC,7,1007.9,-1,34,0,47,2.2,-12.1,45490,146,6,3.2
2013,4,7,15:00,UTC,7,1007.6,-1,33,0,47,1.9,-12.9,43890,152,6.1,3.1
2013,4,7,16:00,UTC,7,1007.4,-1,39,0,47,1.1,-11.3,50000,130,8.8,4.8
2013,4,7,17:00,UTC,7,1007.6,-1,48,0,47,0,-9.6,50000,184,6.3,2.6
2013,4,7,18:00,UTC,7,1007.5,-1,60,0,47,-0.9,-7.6,50000,156,5.1,2
2013,4,7,19:00,UTC,7,1007.4,-1,68,0,47,-1.5,-6.6,48040,168,3.5,1.6
2013,4,7,20:00,UTC,7,1007.2,-1,78,0,47,-2.1,-5.5,10550,138,4.2,2.4
2013,4,7,21:00,UTC,7,1007,-1,87,0,47,-2.7,-4.5,8340,117,2.4,1.6
2013,4,7,22:00,UTC,7,1006.6,-1,88,0,47,-3,-4.7,8120,78,3.3,2.2
2013,4,7,23:00,UTC,7,1006.1,-1,85,0,47,-2.9,-5.1,16510,52,3,2.3
2013,4,8,00:00,UTC,7,1005.9,-1,86,0,47,-3.1,-5.1,3880,55,3.9,2.4
2013,4,8,01:00,UTC,7,1005.6,0.3,91,0,47,-3.5,-4.7,6160,42,3.1,2.2
2013,4,8,02:00,UTC,7,1005.5,0.1,91,0,48,-3.5,-4.7,3500,28,2.4,1.6
2013,4,8,03:00,UTC,7,1005.5,0.2,93,0,48,-3.9,-4.9,3540,360,2.6,1.9
2013,4,8,04:00,UTC,7,1005.4,0.2,92,0,48,-3.9,-5,3140,31,2.8,1.9
2013,4,8,05:00,UTC,7,1005.5,0.2,91,0.3,48,-4.2,-5.6,2400,356,3,2.3
2013,4,8,06:00,UTC,7,1005.4,-1,88,0,50,-3.4,-5.1,3220,17,3.1,2
2013,4,8,07:00,UTC,7,1005.8,0.1,85,0,50,-2.8,-5,5750,11,2.8,2
2013,4,8,08:00,UTC,7,1006.2,-1,84,0,48,-2,-4.3,4670,23,3.3,2
2013,4,8,09:00,UTC,7,1006.3,-1,67,0,49,-0.6,-6,37970,26,3.7,2
2013,4,8,10:00,UTC,7,1006.4,-1,68,0,48,-0.2,-5.5,46980,348,4.3,3.1
2013,4,8,11:00,UTC,7,1006.5,-1,49,0,48,1.4,-8.1,40940,32,3.1,1.5
2013,4,8,12:00,UTC,7,1006.7,-1,45,0,48,1.4,-9.2,41780,333,4.4,2.6
2013,4,8,13:00,UTC,7,1007.1,-1,53,0,48,1.2,-7.5,36020,16,5.6,3.3
2013,4,8,14:00,UTC,7,1007.5,-1,51,0,48,1,-8.2,46860,349,3.8,3
2013,4,8,15:00,UTC,7,1007.7,-1,49,0,48,1.1,-8.4,45570,354,4.3,2.3
2013,4,8,16:00,UTC,7,1008,-1,46,0,48,0.9,-9.5,49330,259,1.1,0.6
2013,4,8,17:00,UTC,1,1008.5,-1,56,0,48,-1.5,-9.2,50000,245,2,1
2013,4,8,18:00,UTC,7,1009.3,-1,69,0,48,-3,-7.8,50000,304,1.3,0.9
2013,4,8,19:00,UTC,7,1009.9,-1,74,0,48,-4.2,-8.1,50000,307,3,2
2013,4,8,20:00,UTC,0,1010.7,-1,73,0,48,-6.4,-10.4,50000,309,2.6,2.4
2013,4,8,21:00,UTC,0,1011.3,-1,78,0,48,-6.6,-9.9,50000,315,2.7,2.4
2013,4,8,22:00,UTC,0,1011.8,-1,69,0,48,-6,-10.8,50000,291,2.5,1.9
2013,4,8,23:00,UTC,7,1012,-1,65,0,48,-5.4,-11,50000,299,2.7,2.4
2013,4,9,00:00,UTC,1,1012.5,-1,77,0,48,-8.8,-12.2,50000,296,2.5,2.2
2013,4,9,01:00,UTC,1,1013,-1,85,0,48,-10.6,-12.6,50000,304,2.5,2.4
2013,4,9,02:00,UTC,1,1013.5,-1,81,0,48,-9.8,-12.5,50000,316,2.1,1.8
2013,4,9,03:00,UTC,0,1014.2,-1,85,0,48,-12,-14,45010,0,0.9,0
2013,4,9,04:00,UTC,0,1014.7,-1,88,0,48,-12.4,-14,23540,296,1.6,1.1
2013,4,9,05:00,UTC,0,1014.9,-1,74,0,48,-9.8,-13.5,41010,305,1.3,0.9
2013,4,9,06:00,UTC,0,1015.2,-1,53,0,48,-5.5,-13.6,37750,329,1.6,1.3
2013,4,9,07:00,UTC,0,1015.4,-1,41,0,48,-3.2,-14.7,34380,341,1,0.7
2013,4,9,08:00,UTC,0,1015.6,-1,35,0,48,-0.7,-14.1,39760,0,1,0
2013,4,9,09:00,UTC,0,1015.7,-1,23,0,48,1.9,-17.3,32660,0,0.6,0
2013,4,9,10:00,UTC,0,1015.6,-1,28,0,48,1.2,-15.2,34750,95,4.2,2.5
2013,4,9,11:00,UTC,5,1015.8,-1,28,0,48,2.1,-14.5,42820,100,4.6,2.4
2013,4,9,12:00,UTC,7,1015.8,-1,30,0,48,2.2,-13.8,41620,109,3.3,1.8
2013,4,9,13:00,UTC,5,1015.9,-1,31,0,48,2.4,-13,44420,211,5.9,2.7
2013,4,9,14:00,UTC,3,1015.7,-1,31,0,47,3.6,-11.9,34610,179,3.3,1.2
2013,4,9,15:00,UTC,7,1015.8,-1,35,0,48,2.7,-11.4,49970,211,6.3,3
2013,4,9,16:00,UTC,0,1015.9,-1,36,0,48,1.9,-11.8,50000,225,2.5,1.3
2013,4,9,17:00,UTC,1,1016.2,-1,41,0,48,-0.1,-11.9,50000,173,2.8,1.6
2013,4,9,18:00,UTC,3,1016.8,-1,51,0,48,-2.7,-11.4,50000,187,1.9,1
2013,4,9,19:00,UTC,0,1017.4,-1,69,0,47,-4.9,-9.7,50000,141,1.4,0.9
2013,4,9,20:00,UTC,0,1017.7,-1,65,0,48,-4.8,-10.4,48530,164,1.9,1.4
2013,4,9,21:00,UTC,0,1018,-1,78,0,47,-6.9,-10.1,42960,0,0.6,0
2013,4,9,22:00,UTC,0,1018.6,-1,84,0,47,-9,-11.2,37700,153,1.4,1
2013,4,9,23:00,UTC,0,1018.7,-1,88,0,48,-9.2,-10.7,41330,137,0.9,0.7
2013,4,10,00:00,UTC,0,1019.1,-1,87,0,47,-11,-12.8,43540,0,0.9,0
2013,4,10,01:00,UTC,0,1019.6,-1,90,0,47,-11.3,-12.6,43670,0,0.8,0
2013,4,10,02:00,UTC,0,1020,-1,92,0,47,-11.8,-12.8,28670,0,0.4,0
2013,4,10,03:00,UTC,0,1020.4,-1,93,0,48,-12.3,-13.3,28590,150,0.7,0.6
2013,4,10,04:00,UTC,0,1020.7,-1,89,0,47,-12.5,-14,37830,154,1,0.7
2013,4,10,05:00,UTC,0,1020.9,-1,80,0,47,-10.1,-12.8,37760,145,1.4,1.1
2013,4,10,06:00,UTC,0,1021,-1,66,0,47,-5.9,-11.3,37340,130,2.4,1.7
2013,4,10,07:00,UTC,0,1020.9,-1,49,0,48,-2.1,-11.3,27320,126,3.2,2
2013,4,10,08:00,UTC,0,1020.7,-1,35,0,48,1.4,-12.4,38310,175,4,2.3
2013,4,10,09:00,UTC,0,1020.7,-1,28,0,48,2.7,-13.9,42260,194,4.3,2.4
2013,4,10,10:00,UTC,0,1020.6,-1,27,0,48,2.8,-14.3,34570,142,4.6,2.5
2013,4,10,11:00,UTC,0,1020.3,-1,26,0,48,3.7,-13.9,40750,154,5,2.5
2013,4,10,12:00,UTC,0,1020.1,-1,27,0,48,3.7,-13.8,40480,128,5.8,3.4
2013,4,10,13:00,UTC,0,1019.9,-1,30,0,48,3,-13.1,38440,113,5.4,3.4
2013,4,10,14:00,UTC,0,1019.7,-1,27,0,48,4,-13.4,34100,126,5.1,2.9
2013,4,10,15:00,UTC,0,1019.6,-1,28,0,47,3.5,-13.3,44990,133,4.1,2.4
2013,4,10,16:00,UTC,0,1019.6,-1,31,0,48,2.9,-12.5,50000,137,3.2,2
2013,4,10,17:00,UTC,0,1019.9,-1,37,0,47,0.5,-12.4,50000,154,1.9,1.1
2013,4,10,18:00,UTC,0,1020.5,-1,57,0,47,-2.8,-10,50000,166,0.7,0.6
2013,4,10,19:00,UTC,0,1020.9,-1,63,0,47,-4,-10.1,50000,0,0.8,0
2013,4,10,20:00,UTC,0,1021.3,-1,77,0,47,-6.1,-9.5,45450,304,1,0.9
2013,4,10,21:00,UTC,0,1021.5,-1,82,0,47,-7.2,-9.8,42380,0,0.4,0
2013,4,10,22:00,UTC,0,1021.5,-1,82,0,47,-8.3,-10.9,41310,310,1.1,0.9
2013,4,10,23:00,UTC,0,1021.6,-1,87,0,47,-9.6,-11.4,48720,299,1.4,1.3
2013,4,11,00:00,UTC,0,1021.4,-1,84,0,47,-10.5,-12.8,50000,298,1.7,1.5
2013,4,11,01:00,UTC,0,1021.4,-1,90,0,47,-10.9,-12.3,45750,0,0.8,0
2013,4,11,02:00,UTC,1,1021.2,-1,88,0,47,-10.9,-12.5,49600,305,1.6,1.3
2013,4,11,03:00,UTC,3,1021.2,-1,86,0,47,-11.7,-13.6,46460,296,1.8,1.5
2013,4,11,04:00,UTC,7,1021,-1,84,0,48,-9.8,-11.9,28370,274,1.2,0.7
2013,4,11,05:00,UTC,7,1020.6,-1,79,0,47,-8,-11.1,16770,235,1.1,0.6
2013,4,11,06:00,UTC,5,1020.3,-1,68,0,47,-5,-10.1,13290,0,0.7,0
2013,4,11,07:00,UTC,7,1020,-1,53,0,47,-1.3,-9.7,26970,0,1,0
2013,4,11,08:00,UTC,1,1019.3,-1,38,0,47,2.5,-10.3,38850,114,5.4,3.9
2013,4,11,09:00,UTC,0,1018.9,-1,40,0,47,3.1,-9.2,42890,101,7.9,5.7
2013,4,11,10:00,UTC,7,1018.4,-1,34,0,47,4.6,-9.8,31430,116,7.2,4.5
2013,4,11,11:00,UTC,7,1018,-1,37,0,47,4.1,-9.4,37330,106,7.7,4.4
2013,4,11,12:00,UTC,7,1017.6,-1,44,0,47,3.6,-7.6,40550,83,7.6,5.3
2013,4,11,13:00,UTC,7,1017,-1,41,0,47,4.3,-7.8,45020,85,7.1,4.9
2013,4,11,14:00,UTC,7,1016.6,-1,36,0,47,5.3,-8.6,41100,120,6.1,4.1
2013,4,11,15:00,UTC,7,1016.3,-1,40,0,47,4.7,-7.7,50000,112,5.3,3.2
2013,4,11,16:00,UTC,7,1016,-1,50,0,47,3.9,-5.5,45310,92,5,3.9
2013,4,11,17:00,UTC,7,1016,-1,55,0,47,3.7,-4.5,50000,118,5.2,2.8
2013,4,11,18:00,UTC,8,1016.1,-1,65,0,47,3.2,-2.8,50000,128,4.3,2.3
2013,4,11,19:00,UTC,8,1016.1,-1,77,0,47,2.3,-1.2,37720,120,4.7,2.3
2013,4,11,20:00,UTC,8,1015.8,-1,88,0,47,1.4,-0.4,29670,74,2.3,1.8
2013,4,11,21:00,UTC,8,1015.2,-1,92,0,47,0.7,-0.4,24040,0,0.7,0
2013,4,11,22:00,UTC,7,1014.8,-1,88,0,47,0.9,-0.8,30050,98,1.9,0.8
2013,4,11,23:00,UTC,7,1014.6,-1,87,0,47,0.9,-1,33100,62,1.6,0.9
2013,4,12,00:00,UTC,8,1014,-1,83,0,47,1.3,-1.3,45590,61,1.9,1.1
2013,4,12,01:00,UTC,8,1013.6,-1,81,0,47,1.1,-1.8,35340,75,2.9,2.2
2013,4,12,02:00,UTC,8,1013.3,-1,88,0,47,0.6,-1.1,12440,87,3.2,2.5
2013,4,12,03:00,UTC,8,1013.1,0.2,95,0.4,47,0.2,-0.5,4550,69,2.6,1.7
2013,4,12,04:00,UTC,8,1012.6,0.3,97,0.2,46,0.3,-0.2,7830,79,3.1,2
2013,4,12,05:00,UTC,8,1012.5,-1,97,0,47,0.4,0,5340,127,2.7,1.5
2013,4,12,06:00,UTC,7,1012.4,-1,97,0,47,0.6,0.2,7300,117,3,1.8
2013,4,12,07:00,UTC,8,1012.2,-1,97,0,47,1.1,0.7,8970,122,3.4,2.2
2013,4,12,08:00,UTC,7,1012.4,-1,98,0,47,1.3,1,3060,123,2.9,1.8
2013,4,12,09:00,UTC,7,1012.6,-1,97,0,47,1.6,1.1,9840,140,4.2,2.4
2013,4,12,10:00,UTC,8,1012.7,-1,96,0,47,1.8,1.3,8510,128,3.1,1.6
2013,4,12,11:00,UTC,8,1012.8,-1,94,0,47,2.4,1.5,12200,137,3.4,2
2013,4,12,12:00,UTC,7,1012.6,-1,91,0,47,3.2,1.8,13150,137,3.1,1.8
2013,4,12,13:00,UTC,8,1012.3,-1,91,0,46,3.2,1.8,15530,116,4.3,2.6
2013,4,12,14:00,UTC,8,1012.2,-1,92,0,46,3.3,2.1,10710,125,3.8,2
2013,4,12,15:00,UTC,7,1012.2,-1,89,0,46,3.7,2,15880,117,3.6,2.3
2013,4,12,16:00,UTC,7,1012.3,-1,92,0,46,3.2,2,9420,115,4.6,3.4
2013,4,12,17:00,UTC,7,1012.5,-1,95,0,46,2.8,2.1,6040,123,4.4,2.6
2013,4,12,18:00,UTC,7,1012.4,-1,96,0,46,2.4,1.8,5020,114,1.9,1.4
2013,4,12,19:00,UTC,7,1012.2,-1,96,0,46,2.2,1.7,6450,101,3.2,2.5
2013,4,12,20:00,UTC,7,1011.9,-1,95,0,46,2.4,1.7,9080,107,2.9,2.2
2013,4,12,21:00,UTC,7,1011.3,-1,94,0,45,2.5,1.6,10640,112,2.3,1.7
2013,4,12,22:00,UTC,7,1010.7,-1,92,0,45,2.6,1.4,13510,73,3.6,2
2013,4,12,23:00,UTC,1,1010.8,-1,95,0,45,1.7,1,8810,83,2.4,1.6
2013,4,13,00:00,UTC,7,1010.3,-1,93,0,45,2,1.1,11820,106,4.3,2.9
2013,4,13,01:00,UTC,7,1009.7,-1,92,0,45,2,0.9,13480,77,3.4,2.2
2013,4,13,02:00,UTC,7,1009.5,-1,95,0,45,1.8,1.1,2420,106,4.2,2.9
2013,4,13,03:00,UTC,7,1008.8,-1,98,0,45,1.7,1.4,2730,99,5.1,3.3
2013,4,13,04:00,UTC,7,1008.2,-1,99,0,45,1.5,1.3,1470,79,6.3,4.3
2013,4,13,05:00,UTC,7,1007.8,-1,99,0,45,1.6,1.4,1680,97,5.8,4.5
2013,4,13,06:00,UTC,7,1007.2,0.3,99,1.8,45,1.7,1.6,2800,87,5.7,4.4
2013,4,13,07:00,UTC,7,1006.7,1.4,98,0,44,1.9,1.7,4750,83,6.1,4.5
2013,4,13,08:00,UTC,7,1006.4,-1,98,0,44,1.9,1.6,4830,95,6.4,4.5
2013,4,13,09:00,UTC,7,1005.9,0.4,96,0.5,44,1.8,1.3,10000,89,6.7,4.7
2013,4,13,10:00,UTC,7,1005.5,0.8,96,0.9,44,1.4,0.9,16180,85,5.8,4.5
2013,4,13,11:00,UTC,7,1005.3,0.5,96,0.3,43,1.2,0.7,11270,88,7.2,4.3
2013,4,13,12:00,UTC,7,1004.9,0.4,97,0.5,43,1.2,0.8,15570,98,5,3.4
2013,4,13,13:00,UTC,7,1004.6,0.4,98,0.5,43,1.3,1,2560,102,3.8,2.5
2013,4,13,14:00,UTC,7,1004.4,0.2,98,0,42,2.1,1.9,4230,113,3.1,2.3
2013,4,13,15:00,UTC,7,1004.5,0.2,99,0,42,2.8,2.6,1730,146,4.9,2.1
2013,4,13,16:00,UTC,7,1004.8,-1,99,0,41,2.8,2.7,2270,143,5.6,2.4
2013,4,13,17:00,UTC,7,1005.3,0.2,99,1.1,41,2.8,2.6,6640,164,6.6,3.1
2013,4,13,18:00,UTC,7,1005.8,-1,98,0,40,2.6,2.4,8870,171,5.7,2.9
2013,4,13,19:00,UTC,7,1006.5,-1,97,0,40,2.2,1.8,9000,168,7.2,3.2
2013,4,13,20:00,UTC,7,1007,-1,98,0,39,1.8,1.6,3400,167,6,2.7
2013,4,13,21:00,UTC,7,1007.7,0.2,98,1.3,39,1.6,1.4,3910,164,3.3,1.7
2013,4,13,22:00,UTC,7,1008.3,0.2,99,0,39,1.5,1.3,5770,160,3.4,1.7
2013,4,13,23:00,UTC,7,1009,-1,99,0,38,1.4,1.2,6890,162,2.6,1.4
2013,4,14,00:00,UTC,7,1009.5,-1,99,0,38,1.3,1.1,4940,155,2.7,1.7
2013,4,14,01:00,UTC,7,1010.2,-1,99,0,38,1.2,1.1,7620,162,2.1,1
2013,4,14,02:00,UTC,7,1011,-1,99,0,37,1.2,1,5730,180,3,1.6
2013,4,14,03:00,UTC,7,1011.9,0.2,99,1.1,37,1.1,0.9,7090,181,1.9,1.1
2013,4,14,04:00,UTC,7,1012.8,-1,99,0,37,1.2,1.1,17180,199,2.2,1.2
2013,4,14,05:00,UTC,7,1013.8,-1,99,0,37,1.4,1.1,23730,247,3,1.3
2013,4,14,06:00,UTC,7,1014.7,-1,97,0,36,1.7,1.3,46250,260,4.4,2.3
2013,4,14,07:00,UTC,8,1015.8,-1,95,0,36,1.9,1.2,42710,287,4.3,3
2013,4,14,08:00,UTC,8,1016.9,-1,91,0,36,2.3,1.1,41110,294,5,3.4
2013,4,14,09:00,UTC,7,1017.9,-1,89,0,35,2.5,0.8,48800,300,4.5,3.2
2013,4,14,10:00,UTC,8,1019.2,-1,88,0,35,2.2,0.4,50000,315,4,3.3
2013,4,14,11:00,UTC,8,1019.7,-1,85,0,35,3.4,1.2,43450,297,3.9,2.9
2013,4,14,12:00,UTC,8,1020.6,-1,86,0,35,3.4,1.3,39630,307,3.4,2.5
2013,4,14,13:00,UTC,8,1021.4,-1,81,0,34,4.2,1.2,45140,309,2.9,1.8
2013,4,14,14:00,UTC,8,1021.9,-1,74,0,33,5.8,1.5,47310,259,2.4,1.4
2013,4,14,15:00,UTC,1,1022.3,-1,76,0,33,6.2,2.2,38330,213,3.3,1.4
2013,4,14,16:00,UTC,0,1022.3,-1,75,0,33,5.6,1.5,42090,203,3.4,1.9
2013,4,14,17:00,UTC,0,1022.5,-1,82,0,33,4,1.2,30870,179,2.7,1.5
2013,4,14,18:00,UTC,0,1023.1,-1,87,0,33,2.8,0.9,27420,174,4.2,1.9
2013,4,14,19:00,UTC,7,1023.4,-1,91,0,33,2.1,0.8,27400,164,4.1,2.2
2013,4,14,20:00,UTC,0,1023.4,-1,95,0,33,1.3,0.5,18650,155,4.3,2.2
2013,4,14,21:00,UTC,0,1023.1,-1,96,0,33,1.2,0.7,18160,162,4.3,2.3
2013,4,14,22:00,UTC,3,1022.9,-1,97,0,33,1,0.5,16200,159,4.8,2.5
2013,4,14,23:00,UTC,7,1022.8,-1,97,0,33,1.1,0.6,16480,163,4.1,2.1
2013,4,15,00:00,UTC,8,1022.1,-1,91,0,33,1.7,0.4,23700,165,6.4,2.5
2013,4,15,01:00,UTC,5,1021.3,-1,89,0,33,1.3,-0.3,29680,160,5,2.5
2013,4,15,02:00,UTC,7,1021.1,-1,86,0,33,1.6,-0.6,34690,167,5.4,2.1
2013,4,15,03:00,UTC,7,1020,-1,84,0,32,1.9,-0.5,38830,165,5.4,2.7
2013,4,15,04:00,UTC,8,1019.9,-1,80,0,32,2.8,-0.2,37090,165,6.1,3
2013,4,15,05:00,UTC,7,1019.1,-1,78,0,32,3.5,0.1,42390,175,7.8,3.8
2013,4,15,06:00,UTC,7,1018.5,-1,78,0,32,4,0.5,31920,180,10.2,4.6
2013,4,15,07:00,UTC,7,1019,-1,82,0,32,3.7,0.9,8420,187,8.5,3.7
2013,4,15,08:00,UTC,7,1019,0.3,92,0.3,32,3.3,2.1,6940,182,6.5,3
2013,4,15,09:00,UTC,8,1018.8,-1,81,0,31,5.1,2.1,21980,188,9.9,4.5
2013,4,15,10:00,UTC,8,1018.8,-1,76,0,31,6.1,2.2,26390,185,8.8,4.3
2013,4,15,11:00,UTC,7,1018.9,-1,72,0,31,7,2.2,22350,188,9.9,5.2
2013,4,15,12:00,UTC,7,1018.1,-1,68,0,30,7.8,2.4,23180,189,10.9,5.6
2013,4,15,13:00,UTC,7,1018.1,-1,73,0,29,7.9,3.3,15190,191,9.8,4.3
2013,4,15,14:00,UTC,8,1018.2,-1,91,0,28,5.8,4.5,7040,183,8.4,4.2
2013,4,15,15:00,UTC,8,1017.7,1,95,0.5,28,5.4,4.8,7340,180,9.8,4.3
2013,4,15,16:00,UTC,8,1017.3,0.2,96,0,27,5.3,4.6,7150,183,9.1,4.5
2013,4,15,17:00,UTC,8,1017.2,-1,97,0,27,4.8,4.3,3040,181,9,3.9
2013,4,15,18:00,UTC,7,1017.5,0.2,96,0,27,4.7,4.2,5680,194,8.5,4.5
2013,4,15,19:00,UTC,7,1017.4,0.2,96,0.5,26,4.5,4,7310,184,8.1,3.7
2013,4,15,20:00,UTC,8,1017.1,0.2,96,0,26,4.6,4,10340,190,9.8,4
2013,4,15,21:00,UTC,8,1017.1,-1,96,0,25,4.3,3.8,7800,195,8.3,3.2
2013,4,15,22:00,UTC,8,1017.1,-1,96,0,25,4.1,3.4,6630,182,8.6,3.3
2013,4,15,23:00,UTC,8,1017.2,-1,94,0,24,3.9,3,8060,185,6.4,3
2013,4,16,00:00,UTC,8,1017.3,-1,93,0,24,3.8,2.8,9420,190,6.5,3.2
2013,4,16,01:00,UTC,8,1017.4,-1,92,0,24,3.7,2.5,9720,188,5.7,3.1
2013,4,16,02:00,UTC,8,1017,-1,93,0,24,3.5,2.6,8520,187,7,2.4
2013,4,16,03:00,UTC,8,1017.2,-1,94,0,23,3.6,2.7,7670,189,4.6,2
2013,4,16,04:00,UTC,8,1017.7,-1,95,0,24,3.8,3.1,5490,197,7.5,2.4
2013,4,16,05:00,UTC,8,1017.5,-1,96,0,23,3.9,3.3,3990,179,4.8,2
2013,4,16,06:00,UTC,7,1018.4,-1,94,0,23,4.6,3.8,5920,211,4.6,1.8
2013,4,16,07:00,UTC,8,1018.2,-1,93,0,23,4.5,3.4,8730,192,5.4,2.5
2013,4,16,08:00,UTC,8,1018.5,-1,91,0,23,4.9,3.5,9290,190,5.2,2.3
2013,4,16,09:00,UTC,8,1018.5,-1,87,0,23,5.6,3.7,12050,190,5.6,2.6
2013,4,16,10:00,UTC,5,1018.7,-1,80,0,22,7.6,4.3,17080,236,5.3,3.4
2013,4,16,11:00,UTC,0,1018.2,-1,65,0,22,11.1,4.7,20710,204,6.7,2.7
2013,4,16,12:00,UTC,0,1018.2,-1,63,0,20,11.7,5,21070,219,7,3.3
2013,4,16,13:00,UTC,0,1017.9,-1,60,0,19,12.5,5,21130,208,7.9,3.7
2013,4,16,14:00,UTC,3,1017.4,-1,64,0,18,11.6,5.1,25350,178,6.7,3.3
2013,4,16,15:00,UTC,3,1017.4,-1,65,0,18,10.8,4.4,24740,155,6.7,2.7
2013,4,16,16:00,UTC,3,1017.2,-1,66,0,17,9.1,3.1,26190,165,6.9,2.9
2013,4,16,17:00,UTC,8,1017.3,-1,73,0,17,7.1,2.6,20170,161,5.9,2.5
2013,4,16,18:00,UTC,7,1017.5,-1,87,0,17,5.1,3.1,11810,168,5.9,2.7
2013,4,16,19:00,UTC,7,1017.1,-1,85,0,16,4.5,2.2,12170,163,5.5,2.3
2013,4,16,20:00,UTC,7,1016.9,-1,86,0,16,4.3,2.2,12230,165,7.3,2.9
2013,4,16,21:00,UTC,8,1016.3,-1,89,0,16,3.7,2.1,10660,167,7.8,3.3
2013,4,16,22:00,UTC,8,1015.7,-1,88,0,15,3.9,2.1,12760,167,6.8,3.3
2013,4,16,23:00,UTC,8,1015,-1,89,0,16,3.8,2.1,10930,176,6.1,3.3
2013,4,17,00:00,UTC,8,1013.9,0.5,95,1,15,3.4,2.7,5560,160,5.6,2.8
2013,4,17,01:00,UTC,7,1013,0.9,97,0.7,14,3.5,3,4120,159,6.8,3.1
2013,4,17,02:00,UTC,7,1011.9,0.4,96,0.5,15,3.5,3,5030,160,8,3.9
2013,4,17,03:00,UTC,8,1010.8,0.2,97,0,15,3.4,3,3770,155,4.9,2.8
2013,4,17,04:00,UTC,7,1010.1,-1,98,0,14,3.7,3.4,3840,156,5.3,2.5
2013,4,17,05:00,UTC,8,1009.6,-1,96,0,14,4,3.4,6580,164,7.1,3.1
2013,4,17,06:00,UTC,7,1009,-1,97,0,14,4,3.5,5030,167,6.5,2.8
2013,4,17,07:00,UTC,8,1008.4,-1,97,0,14,4.2,3.8,3770,168,7.2,3
2013,4,17,08:00,UTC,8,1007.9,-1,97,0,13,4.2,3.8,2580,171,5.6,2.8
2013,4,17,09:00,UTC,8,1006.8,-1,97,0,13,4.8,4.4,4000,164,7.3,3.9
2013,4,17,10:00,UTC,8,1006.8,-1,96,0,13,4.6,4.1,5610,158,5.7,2.8
2013,4,17,11:00,UTC,8,1006.4,-1,94,0,12,5.2,4.3,8200,160,6.6,3.1
2013,4,17,12:00,UTC,7,1006.1,-1,95,0,12,5.3,4.5,6690,167,5.3,2.8
2013,4,17,13:00,UTC,7,1005.1,-1,91,0,12,6.1,4.7,8950,149,5.6,2.9
2013,4,17,14:00,UTC,5,1004.9,-1,86,0,11,7,4.7,12190,156,6.2,2.9
2013,4,17,15:00,UTC,7,1004.5,-1,87,0,11,6.3,4.3,10870,157,5.4,2.8
2013,4,17,16:00,UTC,7,1004.7,-1,92,0,11,4.9,3.7,5660,170,4,2
2013,4,17,17:00,UTC,7,1004.7,0.3,96,0,10,4.7,4,7730,161,3,1.4
2013,4,17,18:00,UTC,5,1005,-1,96,0,10,3.9,3.3,16460,173,2.9,1.3
2013,4,17,19:00,UTC,7,1005.1,-1,96,0,10,3.8,3.2,17360,170,3.6,1.8
2013,4,17,20:00,UTC,8,1005.1,-1,93,0,10,4.3,3.3,18570,198,4.7,2.1
2013,4,17,21:00,UTC,7,1005.2,-1,92,0,10,4.4,3.1,18410,194,6.2,2.6
2013,4,17,22:00,UTC,7,1005.5,-1,92,0,10,4,2.8,18920,199,3.9,2
2013,4,17,23:00,UTC,7,1005.8,-1,90,0,10,4,2.4,20700,225,3.6,1.6
2013,4,18,00:00,UTC,0,1006.4,-1,90,0,10,3.6,2.1,23860,201,3.8,1.9
2013,4,18,01:00,UTC,0,1007.3,-1,93,0,10,1.9,0.9,16050,147,2.5,1.2
2013,4,18,02:00,UTC,0,1007.5,-1,95,0,10,1.7,1,16380,178,3.9,1.4
2013,4,18,03:00,UTC,0,1007.6,-1,96,0,10,0.7,0.1,12030,146,1.9,1.4
2013,4,18,04:00,UTC,0,1007.6,-1,86,0,10,3.1,1,32400,213,3.9,2
2013,4,18,05:00,UTC,0,1007.8,-1,79,0,10,4.2,0.9,39350,225,3,1.4
2013,4,18,06:00,UTC,7,1007.9,-1,78,0,10,4.4,0.9,33830,199,5.3,2.2
2013,4,18,07:00,UTC,7,1007.8,-1,74,0,10,5.4,1.1,29920,193,5.6,2.8
2013,4,18,08:00,UTC,7,1007.9,-1,68,0,9,6.3,0.8,27210,205,7.4,3.9
2013,4,18,09:00,UTC,7,1007.4,-1,64,0,9,7.3,0.9,34780,187,7.6,4
2013,4,18,10:00,UTC,7,1007.1,-1,65,0,8,6.9,0.9,33890,168,6.1,2.7
2013,4,18,11:00,UTC,7,1006.5,-1,64,0,7,7.5,1.2,32330,165,6.7,2.9
2013,4,18,12:00,UTC,7,1005.9,-1,80,0,7,5.8,2.5,12500,165,6.6,3
2013,4,18,13:00,UTC,7,1004.6,0.5,91,0.7,7,5,3.6,10330,158,7.5,3.4
2013,4,18,14:00,UTC,7,1002.6,0.3,95,0.7,6,4.7,3.9,8160,158,7.4,3.8
2013,4,18,15:00,UTC,7,1000.5,1.9,98,3.2,6,4.3,4,5570,153,7.3,4.1
2013,4,18,16:00,UTC,7,998.6,2.2,97,1,5,4.8,4.4,6720,165,10.8,5
2013,4,18,17:00,UTC,7,996.7,1.5,97,1,4,5.2,4.8,6340,168,8.9,5.1
2013,4,18,18:00,UTC,7,995.4,1.2,97,2,4,5.4,5,4770,164,10.4,5.2
2013,4,18,19:00,UTC,7,994.7,1,98,0,4,5.8,5.5,7370,176,9.4,4.2
2013,4,18,20:00,UTC,7,994.7,0.2,95,0.2,3,7,6.3,12570,200,8.9,4.4
2013,4,18,21:00,UTC,7,994.1,-1,94,0,3,6.2,5.4,10870,192,8.6,4
2013,4,18,22:00,UTC,7,993.7,-1,94,0,3,5.5,4.6,8910,189,7.5,3.2
2013,4,18,23:00,UTC,7,993.5,-1,94,0,2,5.3,4.4,8400,184,6.9,3.2
2013,4,19,00:00,UTC,7,993.5,-1,92,0,2,5.1,3.9,9440,188,7.9,3.5
2013,4,19,01:00,UTC,7,993.2,-1,92,0,2,5,3.7,8470,188,8.8,3.2
2013,4,19,02:00,UTC,7,992.7,-1,89,0,2,5,3.4,9730,192,5.9,3
2013,4,19,03:00,UTC,7,992.5,-1,90,0,-1,4.8,3.3,12400,193,6.9,2.7
2013,4,19,04:00,UTC,7,992.4,-1,90,0,-1,4.7,3.2,14760,193,8.3,3.6
2013,4,19,05:00,UTC,7,992.6,-1,93,0,-1,4.4,3.4,11950,194,8.2,3.4
2013,4,19,06:00,UTC,7,993,0.2,95,0.3,-1,4.4,3.7,9470,195,7.5,3.2
2013,4,19,07:00,UTC,7,993.1,0.2,95,0,-1,4.5,3.9,5110,203,7.8,3.4
2013,4,19,08:00,UTC,8,993.8,-1,93,0,-1,5.1,4,10850,205,7.1,3.1
2013,4,19,09:00,UTC,8,994.6,0.3,93,0,-1,5,3.9,47030,206,7.2,3.9
2013,4,19,10:00,UTC,8,995.1,-1,88,0,-1,5.6,3.7,46210,208,10.4,4.7
2013,4,19,11:00,UTC,8,996.2,-1,87,0,-1,5.3,3.4,33960,224,9.6,4.2
2013,4,19,12:00,UTC,7,997.3,-1,77,0,-1,6.5,2.8,36720,236,9.3,4.8
2013,4,19,13:00,UTC,5,998.4,-1,65,0,-1,8.4,2.1,38340,240,8.6,4.6
2013,4,19,14:00,UTC,7,999.4,-1,64,0,-1,8.4,1.9,49270,237,7.1,3.5
2013,4,19,15:00,UTC,1,1000.3,-1,48,0,-1,9.1,-1.2,50000,247,8.2,4.3
2013,4,19,16:00,UTC,1,1001.1,-1,51,0,-1,8.8,-0.7,50000,248,7,2.7
2013,4,19,17:00,UTC,1,1002.1,-1,52,0,-1,8,-1.2,50000,238,6.3,2.9
2013,4,19,18:00,UTC,3,1003.1,-1,61,0,-1,6.3,-0.8,50000,212,2.5,1.3
2013,4,19,19:00,UTC,1,1004.2,-1,67,0,-1,4.8,-0.7,50000,201,4.4,1.8
2013,4,19,20:00,UTC,0,1004.9,-1,68,0,-1,4.4,-1,50000,233,4.3,2
2013,4,19,21:00,UTC,5,1005.5,-1,69,0,-1,3.7,-1.5,50000,262,3.7,2
2013,4,19,22:00,UTC,7,1006.1,-1,68,0,-1,3.2,-2.1,50000,259,4.9,2.3
2013,4,19,23:00,UTC,3,1006.8,-1,70,0,-1,2.7,-2.3,50000,254,5.2,2.5
2013,4,20,00:00,UTC,7,1007.3,-1,74,0,-1,1.9,-2.3,50000,269,4.7,2.4
2013,4,20,01:00,UTC,7,1007.8,-1,73,0,-1,1.9,-2.4,50000,267,4.7,2.7
2013,4,20,02:00,UTC,8,1008.7,-1,75,0,-1,1.6,-2.4,50000,259,3.5,1.6
2013,4,20,03:00,UTC,7,1009.5,-1,75,0,-1,1.7,-2.2,50000,280,5.5,3.2
2013,4,20,04:00,UTC,7,1010.3,-1,72,0,-1,1.6,-2.9,47540,294,6.5,4.1
2013,4,20,05:00,UTC,0,1011.1,-1,64,0,-1,2.3,-3.9,50000,298,9.2,6.2
2013,4,20,06:00,UTC,0,1011.7,-1,58,0,-1,3,-4.4,46290,301,9.3,6.7
2013,4,20,07:00,UTC,0,1012.6,-1,52,0,-1,3.5,-5.4,36490,287,11.5,6.8
2013,4,20,08:00,UTC,1,1013.7,-1,49,0,-1,3.7,-6,39000,302,11.8,8.9
2013,4,20,09:00,UTC,7,1014.5,-1,48,0,-1,4.3,-5.6,42560,302,14.3,9.1
2013,4,20,10:00,UTC,1,1015.3,-1,44,0,-1,5,-6.1,36690,289,13.5,8.4
2013,4,20,11:00,UTC,5,1016.3,-1,49,0,-1,5.1,-4.8,39240,297,12.9,8.1
2013,4,20,12:00,UTC,3,1017.1,-1,40,0,-1,5.5,-6.9,43570,295,12.6,7.5
2013,4,20,13:00,UTC,5,1018.1,-1,41,0,-1,5.4,-6.9,50000,290,14.7,7.2
2013,4,20,14:00,UTC,3,1018.7,-1,40,0,-1,6.1,-6.5,45320,309,13.8,9.7
2013,4,20,15:00,UTC,3,1019.3,-1,38,0,-1,6.5,-7,46620,296,10.6,7.1
2013,4,20,16:00,UTC,1,1020.1,-1,40,0,-1,5,-7.5,50000,312,10.7,7.1
2013,4,20,17:00,UTC,0,1020.7,-1,42,0,-1,4.5,-7.4,50000,303,8.6,5.5
2013,4,20,18:00,UTC,0,1021.5,-1,43,0,-1,3.7,-7.8,50000,294,6.1,4.3
2013,4,20,19:00,UTC,0,1022.6,-1,50,0,-1,2.2,-7.2,47540,288,4.4,3.2
2013,4,20,20:00,UTC,0,1023.2,-1,56,0,-1,1.1,-6.6,50000,282,5.1,2.8
2013,4,20,21:00,UTC,0,1023.6,-1,55,0,-1,1.1,-7,50000,282,5.5,3.4
2013,4,20,22:00,UTC,0,1024.1,-1,56,0,-1,0.7,-7.1,50000,287,6.2,4.2
2013,4,20,23:00,UTC,0,1024.7,-1,59,0,-1,0.2,-6.9,50000,285,6.1,3.6
2013,4,21,00:00,UTC,0,1025.1,-1,62,0,-1,-0.4,-6.8,50000,282,4.7,2.8
2013,4,21,01:00,UTC,0,1025.4,-1,64,0,-1,-0.9,-6.8,50000,285,4.4,2.6
2013,4,21,02:00,UTC,0,1025.7,-1,65,0,-1,-1,-6.8,50000,288,4.8,2.6
2013,4,21,03:00,UTC,0,1026.1,-1,79,0,-1,-3.1,-6.3,43990,0,0.7,0
2013,4,21,04:00,UTC,0,1026.1,-1,77,0,-1,-1.9,-5.4,49560,156,1.1,0.6
2013,4,21,05:00,UTC,0,1026,-1,61,0,-1,1,-5.6,46230,286,2.2,1.3
2013,4,21,06:00,UTC,0,1026.1,-1,50,0,-1,3.6,-5.8,34460,271,3.5,1.6
2013,4,21,07:00,UTC,0,1026,-1,40,0,-1,5.6,-6.8,40710,263,3.8,2.2
2013,4,21,08:00,UTC,0,1026,-1,39,0,-1,6.6,-6.3,36880,275,5.4,2.7
2013,4,21,09:00,UTC,0,1025.7,-1,37,0,-1,8.2,-5.8,37040,284,5.2,3.4
2013,4,21,10:00,UTC,0,1025.1,-1,38,0,-1,9.3,-4.4,43090,284,5.6,2.9
2013,4,21,11:00,UTC,0,1024.7,-1,36,0,-1,10.2,-4.3,36790,249,5.6,2.7
2013,4,21,12:00,UTC,1,1024.5,-1,34,0,-1,10.9,-4.2,36510,266,6.1,3.5
2013,4,21,13:00,UTC,3,1024,-1,33,0,-1,11.5,-4.4,34760,232,4.7,2.3
2013,4,21,14:00,UTC,5,1023.5,-1,34,0,-1,11.4,-3.9,47680,299,6.5,3
2013,4,21,15:00,UTC,3,1023.2,-1,33,0,-1,11.7,-4.1,45270,272,4.3,2
2013,4,21,16:00,UTC,1,1022.9,-1,34,0,-1,11.3,-4.1,50000,255,3.2,1.6
2013,4,21,17:00,UTC,0,1023,-1,41,0,-1,8.7,-4,50000,197,1.8,1.1
2013,4,21,18:00,UTC,1,1023,-1,48,0,-1,6.5,-3.8,50000,213,2.3,1.3
2013,4,21,19:00,UTC,0,1023.3,-1,66,0,-1,3.1,-2.7,50000,145,2,1.6
2013,4,21,20:00,UTC,0,1023.5,-1,78,0,-1,0.9,-2.5,50000,119,1.5,0.8
2013,4,21,21:00,UTC,3,1023.4,-1,86,0,-1,-0.8,-2.8,50000,0,0.6,0
2013,4,21,22:00,UTC,0,1023.4,-1,84,0,-1,-0.8,-3.1,43840,158,1.8,1.2
2013,4,21,23:00,UTC,0,1023.3,-1,90,0,-1,-1.7,-3.2,50000,132,1.3,0.8
2013,4,22,00:00,UTC,0,1023.1,-1,90,0,-1,-1.6,-3,44170,149,2,1.8
2013,4,22,01:00,UTC,1,1023,-1,93,0,-1,-2.1,-3,48350,126,2,1.5
2013,4,22,02:00,UTC,1,1022.9,-1,93,0,-1,-3,-4,50000,156,1.4,1
2013,4,22,03:00,UTC,0,1022.8,-1,95,0,-1,-3.2,-3.9,36770,153,1.7,1.1
2013,4,22,04:00,UTC,0,1022.3,-1,89,0,-1,-0.6,-2.2,42630,150,1.4,1
2013,4,22,05:00,UTC,0,1021.8,-1,68,0,-1,2.9,-2.3,41070,138,3,1.4
2013,4,22,06:00,UTC,0,1021.5,-1,47,0,-1,5.7,-4.7,47990,181,5.1,2.9
2013,4,22,07:00,UTC,0,1020.9,-1,40,0,-1,7.9,-4.9,41340,191,7.2,3.3
2013,4,22,08:00,UTC,0,1020.5,-1,36,0,-1,9.6,-4.9,48390,194,7.3,2.8
2013,4,22,09:00,UTC,0,1020.1,-1,33,0,-1,9,-6.5,38040,187,10.3,5.3
2013,4,22,10:00,UTC,1,1019.1,-1,33,0,-1,9.8,-5.8,35760,161,10.7,4.6
2013,4,22,11:00,UTC,0,1018.7,-1,32,0,-1,10.2,-5.6,39440,166,8.7,4.2
2013,4,22,12:00,UTC,1,1018,-1,33,0,-1,10.3,-5.3,41140,180,8,4.6
2013,4,22,13:00,UTC,1,1017.3,-1,32,0,-1,9.9,-6.1,40200,173,8.8,4.8
2013,4,22,14:00,UTC,5,1016.6,-1,33,0,-1,9.8,-5.9,43080,177,10.7,4.8
2013,4,22,15:00,UTC,7,1015.7,-1,34,0,-1,9.5,-5.7,50000,171,9.8,4.3
2013,4,22,16:00,UTC,7,1014.9,-1,36,0,-1,9.1,-5.3,50000,171,5.8,2.8
2013,4,22,17:00,UTC,7,1014.3,-1,37,0,-1,8.5,-5.5,50000,164,8.2,3.9
2013,4,22,18:00,UTC,7,1013.7,-1,38,0,-1,7.7,-5.7,50000,166,7,3.4
2013,4,22,19:00,UTC,7,1013.5,-1,42,0,-1,6.8,-5.2,50000,165,5,2.3
2013,4,22,20:00,UTC,7,1013,-1,49,0,-1,5.5,-4.3,50000,156,5.5,2.8
2013,4,22,21:00,UTC,8,1012.3,-1,50,0,-1,5,-4.6,50000,160,5.2,2.5
2013,4,22,22:00,UTC,5,1011.7,-1,51,0,-1,4.1,-5.2,50000,152,4.9,2.6
2013,4,22,23:00,UTC,7,1010.9,-1,55,0,-1,3.7,-4.6,50000,153,4.7,2.5
2013,4,23,00:00,UTC,7,1009.9,-1,58,0,-1,3.2,-4.2,50000,149,5.2,2.8
2013,4,23,01:00,UTC,8,1008.6,-1,58,0,-1,3.6,-4,50000,147,4.6,2.6
2013,4,23,02:00,UTC,7,1007.8,-1,61,0,-1,3.4,-3.4,50000,151,4.1,2.1
2013,4,23,03:00,UTC,7,1007,-1,63,0,-1,3.5,-2.9,50000,151,4.9,2.1
2013,4,23,04:00,UTC,8,1006.4,-1,73,0,-1,3.3,-1,37940,157,5,2.4
2013,4,23,05:00,UTC,7,1005.2,0.2,85,0,-1,3.1,0.7,23270,146,5.5,2.7
2013,4,23,06:00,UTC,7,1004.2,0.2,91,0.3,-1,3.2,1.9,16920,137,4.6,2.5
2013,4,23,07:00,UTC,7,1003.3,0.2,93,0,-1,3,1.9,18500,139,5.2,2.3
2013,4,23,08:00,UTC,7,1002,0.4,96,0,-1,3.5,2.8,14070,129,5.2,2.8
2013,4,23,09:00,UTC,7,1000.9,-1,78,0,-1,5.8,2.3,31550,148,8,3.8
2013,4,23,10:00,UTC,7,999.8,-1,63,0,-1,8,1.4,33360,174,9.7,4.6
2013,4,23,11:00,UTC,7,998.9,-1,59,0,-1,9.3,1.6,33010,175,10.5,4.9
2013,4,23,12:00,UTC,7,998.3,-1,60,0,-1,9.3,1.9,19360,178,8.9,4.2
2013,4,23,13:00,UTC,7,997.9,-1,58,0,-1,8.8,1,15020,172,15,6.2
2013,4,23,14:00,UTC,7,997.4,-1,77,0,-1,7.1,3.4,14630,163,10.5,5.1
2013,4,23,15:00,UTC,7,997.3,0.5,89,0,-1,5.7,4.1,9580,165,9,4.6
2013,4,23,16:00,UTC,7,997.3,1,94,3.1,-1,4.7,3.8,7060,173,8.7,3.9
2013,4,23,17:00,UTC,7,997.1,0.8,96,0.6,-1,4.2,3.6,10580,173,4.6,2
2013,4,23,18:00,UTC,7,997.1,0.1,96,0,-1,4.2,3.6,14960,180,4.4,2
2013,4,23,19:00,UTC,7,997.1,-1,96,0,-1,4,3.4,12480,178,5,1.8
2013,4,23,20:00,UTC,7,996.9,-1,97,0,-1,3.9,3.4,8660,166,3,1.7
2013,4,23,21:00,UTC,7,996.6,-1,97,0,-1,3.5,3.1,6810,168,4.5,1.8
2013,4,23,22:00,UTC,7,996.3,-1,97,0,-1,3.1,2.7,5030,152,2.9,1.6
2013,4,23,23:00,UTC,7,995.9,0.4,98,0,-1,3.1,2.7,5600,163,3.1,1.6
2013,4,24,00:00,UTC,7,995.7,-1,97,0,-1,3.1,2.7,5360,154,3.1,1.7
2013,4,24,01:00,UTC,7,995.7,-1,98,0,-1,2.9,2.6,5160,171,2.3,1
2013,4,24,02:00,UTC,7,995.5,-1,98,0,-1,2.8,2.5,6380,169,3.1,1.4
2013,4,24,03:00,UTC,7,995.7,-1,97,0,-1,2.9,2.5,5760,204,4.6,2
2013,4,24,04:00,UTC,7,995.9,-1,97,0,-1,3,2.6,8080,177,2,1
2013,4,24,05:00,UTC,7,996.2,-1,95,0,-1,3.3,2.5,12640,231,4.1,1.8
2013,4,24,06:00,UTC,7,996.9,-1,94,0,-1,3.4,2.5,18640,258,5.1,2.2
2013,4,24,07:00,UTC,7,997.6,-1,92,0,-1,3.7,2.5,29050,262,4.3,2.5
2013,4,24,08:00,UTC,7,998.3,-1,88,0,-1,4.7,2.9,42950,268,4.9,2.4
2013,4,24,09:00,UTC,7,999.4,-1,87,0,-1,4.7,2.8,43040,266,5.3,2.4
2013,4,24,10:00,UTC,5,1000,-1,79,0,-1,6.3,2.9,42540,284,5.4,3.3
2013,4,24,11:00,UTC,7,1000.6,-1,61,0,-1,8.7,1.5,41890,281,10.7,4.8
2013,4,24,12:00,UTC,7,1001.1,-1,48,0,-1,10.6,-0.1,35910,254,8.1,4.4
2013,4,24,13:00,UTC,7,1001.5,-1,43,0,-1,9.9,-2,43050,261,7.4,3.6
2013,4,24,14:00,UTC,7,1001.7,-1,37,0,-1,10.1,-4,50000,258,7.4,4.1
2013,4,24,15:00,UTC,5,1001.8,-1,36,0,-1,10.1,-4.3,48030,253,8.2,3.8
2013,4,24,16:00,UTC,7,1002.6,-1,48,0,-1,8.4,-2,50000,264,8.8,3.3
2013,4,24,17:00,UTC,7,1003,-1,54,0,-1,7.4,-1.2,50000,254,4.5,2.4
2013,4,24,18:00,UTC,7,1002.9,-1,58,0,-1,6.5,-1.2,50000,211,3.2,1.6
2013,4,24,19:00,UTC,7,1002.7,-1,58,0,-1,6,-1.7,50000,204,3.6,1.8
2013,4,24,20:00,UTC,5,1002.6,-1,59,0,-1,5,-2.3,50000,206,3,1.5
2013,4,24,21:00,UTC,5,1002.4,-1,68,0,-1,2.8,-2.6,50000,174,2.7,1.2
2013,4,24,22:00,UTC,1,1002.2,-1,68,0,-1,2.3,-3,50000,188,2.6,1.1
2013,4,24,23:00,UTC,1,1001.9,-1,70,0,-1,2.2,-2.8,50000,226,3.4,1.8
2013,4,25,00:00,UTC,1,1001.9,-1,75,0,-1,0.4,-3.5,50000,219,3.1,1.4
2013,4,25,01:00,UTC,0,1002.1,-1,81,0,-1,-0.5,-3.3,50000,228,3.5,1.5
2013,4,25,02:00,UTC,1,1002.2,-1,91,0,-1,-2.4,-3.7,50000,0,0.7,0
2013,4,25,03:00,UTC,1,1002.5,-1,92,0,-1,-2.3,-3.4,50000,263,1.2,0.7
2013,4,25,04:00,UTC,7,1002.7,-1,82,0,-1,0.6,-2.1,50000,247,3.9,1.7
2013,4,25,05:00,UTC,1,1003.2,-1,79,0,-1,1.4,-1.8,50000,269,5.3,2.6
2013,4,25,06:00,UTC,0,1003.5,-1,64,0,-1,5.1,-1.2,43570,290,6.7,4.2
2013,4,25,07:00,UTC,0,1003.8,-1,54,0,-1,7.2,-1.4,44200,294,8,5.1
2013,4,25,08:00,UTC,3,1004.5,-1,47,0,-1,8,-2.7,39790,278,9.1,5.5
2013,4,25,09:00,UTC,5,1005.1,-1,44,0,-1,9,-2.6,42010,289,9.7,6.1
2013,4,25,10:00,UTC,1,1005.5,-1,39,0,-1,10.1,-3.2,37250,271,8.2,4.7
2013,4,25,11:00,UTC,3,1006,-1,37,0,-1,10.3,-3.6,48600,279,7.6,4.5
2013,4,25,12:00,UTC,5,1006.5,-1,37,0,-1,10,-4.1,47580,295,9.6,5.9
2013,4,25,13:00,UTC,7,1007.2,-1,43,0,-1,8.7,-3.3,50000,292,10.6,6.9
2013,4,25,14:00,UTC,7,1008,-1,47,0,-1,8.5,-2.2,47520,289,10.3,6
2013,4,25,15:00,UTC,7,1008.8,-1,50,0,-1,8.3,-1.5,50000,291,10.4,6.3
2013,4,25,16:00,UTC,7,1009.1,-1,44,0,-1,8.2,-3.3,50000,285,8.5,4.8
2013,4,25,17:00,UTC,3,1009.4,-1,45,0,-1,7.4,-3.7,50000,286,5.6,3.8
2013,4,25,18:00,UTC,5,1010.2,-1,60,0,-1,5.4,-1.7,50000,285,9.5,5.6
2013,4,25,19:00,UTC,1,1010.4,-1,74,0,-1,3.1,-1.1,50000,265,2.8,1.8
2013,4,25,20:00,UTC,0,1010.7,-1,81,0,-1,1.6,-1.3,50000,247,2.8,1.7
2013,4,25,21:00,UTC,0,1010.6,-1,81,0,-1,1.7,-1.2,50000,257,4,2.1
2013,4,25,22:00,UTC,0,1010.5,-1,76,0,-1,2.1,-1.8,50000,250,4.6,2.5
2013,4,25,23:00,UTC,3,1010.6,-1,72,0,-1,1.6,-2.9,50000,247,5,2.3
2013,4,26,00:00,UTC,1,1010.4,-1,69,0,-1,1.3,-3.7,50000,248,4.8,2.7
2013,4,26,01:00,UTC,1,1010.2,-1,76,0,-1,-0.5,-4.2,50000,235,2.7,1.4
2013,4,26,02:00,UTC,1,1009.8,-1,88,0,-1,-2.5,-4.3,50000,211,2.3,1
2013,4,26,03:00,UTC,1,1009.4,-1,88,0,-1,-2.5,-4.2,50000,159,1.8,1.1
2013,4,26,04:00,UTC,1,1008.8,-1,80,0,-1,0.1,-2.9,47510,131,2.1,1.2
2013,4,26,05:00,UTC,5,1008.2,-1,68,0,-1,3.1,-2.3,46190,150,2,1.2
2013,4,26,06:00,UTC,3,1007.7,-1,54,0,-1,5.1,-3.3,42740,160,2.6,1.5
2013,4,26,07:00,UTC,7,1007,-1,52,0,-1,5.6,-3.5,47960,186,4.2,2.5
2013,4,26,08:00,UTC,7,1006.3,-1,54,0,-1,5.8,-2.9,47260,187,4.5,2.5
2013,4,26,09:00,UTC,7,1005.7,-1,60,0,-1,6.3,-0.9,46040,178,7,3.5
2013,4,26,10:00,UTC,8,1005.4,-1,81,0,-1,4.5,1.5,17760,166,5.4,3.1
2013,4,26,11:00,UTC,7,1004.7,0.3,86,0.7,-1,4.2,2,12050,153,5.9,3
2013,4,26,12:00,UTC,7,1003.6,0.3,84,0,-1,5.3,2.9,26220,114,4.9,2.8
2013,4,26,13:00,UTC,3,1002.7,-1,72,0,-1,6.2,1.5,45870,95,6,3.5
2013,4,26,14:00,UTC,7,1002.3,-1,70,0,-1,6.2,1.1,29120,158,4.8,2.4
2013,4,26,15:00,UTC,7,1001.9,-1,65,0,-1,5.7,-0.4,25620,160,7.8,3
2013,4,26,16:00,UTC,8,1002,-1,86,0,-1,3.8,1.7,21830,145,4.8,2.5
2013,4,26,17:00,UTC,8,1001.7,-1,91,0,-1,3.2,1.9,23580,127,2.6,1.5
2013,4,26,18:00,UTC,7,1001.6,0.3,94,0,-1,2.6,1.7,21610,132,3.5,1.9
2013,4,26,19:00,UTC,7,1001.5,0.2,96,0,-1,1.9,1.2,29700,105,2.5,1.8
2013,4,26,20:00,UTC,7,1001.6,0.2,97,1,-1,1.8,1.4,20000,54,2.7,1.4
2013,4,26,21:00,UTC,8,1001.6,0.1,97,0,-1,1.3,0.9,22450,12,1.9,1.4
2013,4,26,22:00,UTC,8,1001.7,-1,98,0,-1,1.5,1.2,10200,350,2.1,1.5
2013,4,26,23:00,UTC,8,1001.7,-1,98,0,-1,1.3,1.1,20900,346,3.3,2.4
2013,4,27,00:00,UTC,8,1001.7,-1,98,0,-1,1.2,0.9,19710,303,2.4,1.7
2013,4,27,01:00,UTC,8,1002.3,-1,98,0,-1,0.7,0.5,16040,315,2.3,2
2013,4,27,02:00,UTC,7,1002.5,-1,98,0,-1,1,0.8,22250,306,2.1,1.8
2013,4,27,03:00,UTC,7,1002.8,-1,98,0,-1,1.1,0.8,27360,346,1.1,0.8
2013,4,27,04:00,UTC,8,1003.1,-1,98,0,-1,0.9,0.7,1120,340,3,2.3
2013,4,27,05:00,UTC,8,1003.4,-1,99,0,-1,1.4,1.2,4840,310,2.5,1.8
2013,4,27,06:00,UTC,7,1003.4,-1,99,0,-1,2.5,2.3,15400,314,2,1.3
2013,4,27,07:00,UTC,7,1003.3,-1,79,0,-1,5.1,1.8,41830,318,2.7,1.4
2013,4,27,08:00,UTC,7,1003.5,-1,75,0,-1,5.1,1,49580,314,2.8,1.3
2013,4,27,09:00,UTC,7,1003.7,-1,69,0,-1,5.6,0.3,50000,0,1.1,0
2013,4,27,10:00,UTC,8,1004.1,-1,73,0,-1,4.6,0.3,28740,172,3.1,1.9
2013,4,27,11:00,UTC,7,1004.2,-1,68,0,-1,5.9,0.4,48270,329,4.5,1.5
2013,4,27,12:00,UTC,7,1004.6,0.7,92,0,-1,4.2,3,41170,256,2.4,1.1
2013,4,27,13:00,UTC,7,1004.6,-1,87,0,-1,4.6,2.6,28660,276,2.8,1.3
2013,4,27,14:00,UTC,7,1004.8,0.6,94,0.2,-1,3.9,3.1,50000,181,3.1,1.8
2013,4,27,15:00,UTC,7,1005,0.2,93,1.1,-1,3.7,2.7,45750,195,3.3,1.7
2013,4,27,16:00,UTC,5,1004.9,0.6,91,0,-1,4,2.7,12070,281,3.7,1.9
2013,4,27,17:00,UTC,7,1005.1,-1,91,0,-1,3.6,2.3,28860,287,5.4,2.9
2013,4,27,18:00,UTC,7,1005.6,0.1,94,0,-1,2.1,1.3,29420,326,3.6,2.6
2013,4,27,19:00,UTC,0,1006,-1,97,0,-1,0.6,0.2,24860,286,3.1,2.3
2013,4,27,20:00,UTC,0,1006.2,-1,98,0,-1,-0.8,-1.1,35840,330,2.5,2
2013,4,27,21:00,UTC,0,1006.4,-1,98,0,-1,-1.2,-1.5,13510,289,2.4,1.7
2013,4,27,22:00,UTC,0,1006.6,-1,99,0,-1,-0.7,-0.9,15470,287,3.2,2.4
2013,4,27,23:00,UTC,0,1007.2,-1,98,0,-1,-2.6,-2.8,11980,301,2.1,1.5
2013,4,28,00:00,UTC,0,1007.1,-1,98,0,-1,-1,-1.3,35810,298,5,3.2
2013,4,28,01:00,UTC,7,1007.4,-1,97,0,-1,-0.8,-1.2,31530,303,7.7,5.3
2013,4,28,02:00,UTC,0,1007.6,-1,97,0,-1,-2.1,-2.5,21210,307,2.6,2
2013,4,28,03:00,UTC,0,1007.9,-1,98,0,-1,-2.2,-2.5,19190,289,2.9,2
2013,4,28,04:00,UTC,0,1007.7,-1,96,0,-1,-0.4,-1,31990,266,2.2,1.1
2013,4,28,05:00,UTC,1,1007.7,-1,87,0,-1,1.3,-0.7,41120,263,2.2,1.2
2013,4,28,06:00,UTC,5,1008.2,-1,87,0,-1,2.3,0.3,50000,288,4,2.3
2013,4,28,07:00,UTC,7,1008.5,-1,84,0,-1,3,0.6,41110,270,6.6,3.3
2013,4,28,08:00,UTC,7,1009,-1,81,0,-1,2.9,0.1,44030,245,4.4,2.2
2013,4,28,09:00,UTC,8,1009.2,-1,75,0,-1,4.4,0.5,50000,273,4.7,2.7
2013,4,28,10:00,UTC,7,1009.3,-1,56,0,-1,5.5,-2.5,40250,278,7.7,3.9
2013,4,28,11:00,UTC,3,1009.4,-1,46,0,-1,6.9,-4,43280,302,4.7,2.9
2013,4,28,12:00,UTC,7,1009.8,-1,42,0,-1,7.3,-4.7,39230,303,5.5,3.5
2013,4,28,13:00,UTC,3,1010,-1,43,0,-1,7.1,-4.7,47520,327,4.5,1.6
2013,4,28,14:00,UTC,5,1010,-1,37,0,-1,8.6,-5.2,45730,321,5.8,3.8
2013,4,28,15:00,UTC,3,1010.5,-1,38,0,-1,7.4,-5.9,50000,290,3.5,1.6
2013,4,28,16:00,UTC,5,1010.8,-1,40,0,-1,8.1,-4.6,50000,256,4.6,2.4
2013,4,28,17:00,UTC,5,1011,-1,41,0,-1,7,-5.4,50000,220,2.9,1.5
2013,4,28,18:00,UTC,1,1011.4,-1,55,0,-1,4.3,-3.9,50000,173,2,1.3
2013,4,28,19:00,UTC,1,1012.1,-1,66,0,-1,2.1,-3.5,50000,184,2.4,1.6
2013,4,28,20:00,UTC,0,1012.7,-1,79,0,-1,-0.4,-3.6,50000,143,1.9,1.6
2013,4,28,21:00,UTC,0,1013.1,-1,88,0,-1,-2.2,-3.9,50000,148,1.8,1.3
2013,4,28,22:00,UTC,5,1013.5,-1,90,0,-1,-2.1,-3.6,50000,144,1.4,1.1
2013,4,28,23:00,UTC,7,1013.8,-1,91,0,-1,-2.1,-3.3,50000,163,1.8,0.9
2013,4,29,00:00,UTC,7,1014.2,-1,90,0,-1,-1.9,-3.4,50000,122,1.5,1.3
2013,4,29,01:00,UTC,7,1014.3,-1,90,0,-1,-1.4,-2.8,50000,151,2.9,1.7
2013,4,29,02:00,UTC,7,1014.1,-1,88,0,-1,-0.5,-2.3,50000,141,3,2
2013,4,29,03:00,UTC,5,1013.6,-1,85,0,-1,0.6,-1.6,50000,151,3.6,1.9
2013,4,29,04:00,UTC,7,1013.1,-1,78,0,-1,1.8,-1.7,50000,151,3.5,1.6
2013,4,29,05:00,UTC,7,1012.4,-1,60,0,-1,4.1,-3,50000,168,7.5,3.6
2013,4,29,06:00,UTC,7,1012.1,-1,49,0,-1,5.2,-4.5,50000,169,10.4,4.3
2013,4,29,07:00,UTC,7,1011.7,-1,38,0,-1,7.9,-5.4,44390,176,10.5,4.6
2013,4,29,08:00,UTC,7,1011.4,-1,40,0,-1,8.4,-4.6,38790,170,9.9,4.6
2013,4,29,09:00,UTC,7,1011.2,-1,45,0,-1,8.3,-2.9,42960,165,9.3,4.7
2013,4,29,10:00,UTC,7,1011,-1,43,0,-1,9.1,-3,45870,170,10.1,5.3
2013,4,29,11:00,UTC,7,1010.7,-1,41,0,-1,9.7,-2.8,43730,169,9.7,5
2013,4,29,12:00,UTC,7,1010.6,-1,55,0,-1,8.5,0.1,41970,165,10.6,4.7
2013,4,29,13:00,UTC,5,1009.9,-1,51,0,-1,10.4,0.7,44410,162,8.8,3.9
2013,4,29,14:00,UTC,1,1009.6,-1,26,0,-1,12,-6.8,36080,215,8.9,4
2013,4,29,15:00,UTC,1,1009.3,-1,24,0,-1,11.7,-8.2,48040,203,7.9,3.8
2013,4,29,16:00,UTC,0,1008.9,-1,27,0,-1,10.7,-7.5,50000,194,8.8,4
2013,4,29,17:00,UTC,1,1008.8,-1,29,0,-1,9.1,-8.2,50000,192,5.5,3.2
2013,4,29,18:00,UTC,7,1008.8,-1,40,0,-1,7.5,-5.1,50000,168,4.7,2.3
2013,4,29,19:00,UTC,7,1008.5,,51,0,-1,6.4,-3,50000,166,5.5,2.8
2013,4,29,20:00,UTC,7,1007.8,,51,0,-1,6.3,-3.1,50000,162,6.8,3
2013,4,29,21:00,UTC,7,1006.9,,62,0,-1,5.8,-0.9,46680,162,7,3.7
2013,4,29,22:00,UTC,8,1005.8,,71,0,-1,5,0.1,35910,155,8.9,3.5
2013,4,29,23:00,UTC,8,1004.8,,92,0.7,-1,3.3,2.2,15280,148,4.8,2.4
2013,4,30,00:00,UTC,8,1003.5,,96,0,-1,3.3,2.7,13480,153,4.8,2.5
2013,4,30,01:00,UTC,7,1002.3,,98,1,-1,3.5,3.1,5730,152,4.6,2.7
2013,4,30,02:00,UTC,7,1001.4,,98,1,-1,3.7,3.4,7180,158,4.4,2.1
2013,4,30,03:00,UTC,7,1000.9,,97,0.7,-1,3.7,3.4,9200,181,3.8,1.8
2013,4,30,04:00,UTC,8,1000.8,,97,0,-1,4,3.5,19170,209,6.4,2.6
2013,4,30,05:00,UTC,7,1000.6,,95,,-1,4.3,3.5,14340,,,
2013,4,30,06:00,UTC,5,1000.7,,87,0,-1,4.9,3,26510,217,6.3,2.8
2013,4,30,07:00,UTC,7,1001.1,-1,79,0,-1,4.8,1.5,36300,225,7.7,3.4
2013,4,30,08:00,UTC,8,1001.2,-1,76,0,-1,5.5,1.6,16670,226,6.6,2.8
2013,4,30,09:00,UTC,5,1001.3,-1,69,0,-1,6.3,1,40680,223,7.2,3.8
2013,4,30,10:00,UTC,7,1001.7,-1,89,0,-1,5.1,3.4,6130,224,6.9,3.6
2013,4,30,11:00,UTC,7,1001.7,0.3,85,0,-1,5.1,2.7,17570,201,7.5,3.9
2013,4,30,12:00,UTC,7,1001.5,-1,78,0,-1,6.6,3.1,50000,176,7.5,3.2
2013,4,30,13:00,UTC,5,1001.7,1.6,87,0,-1,6.8,4.7,41270,214,6,2.7
2013,4,30,14:00,UTC,7,1001.9,-1,92,0,-1,6.3,5,16490,261,3.3,0.9
2013,4,30,15:00,UTC,5,1001.9,-1,68,0,-1,7.3,1.9,46900,223,6.8,2.8
2013,4,30,16:00,UTC,3,1002.3,0.4,82,0,-1,5.8,2.9,50000,209,5.2,2.6
2013,4,30,17:00,UTC,3,1002.9,0.5,83,0,-1,5,2.4,50000,252,6.2,2.3
2013,4,30,18:00,UTC,7,1003.5,-1,82,0,-1,4.9,2,50000,219,3.8,1.8
2013,4,30,19:00,UTC,7,1004.2,-1,85,0,-1,4.3,2,50000,195,2.7,1.3
2013,4,30,20:00,UTC,7,1004.8,0.2,88,0,-1,4.2,2.4,50000,212,3.9,1.3
2013,4,30,21:00,UTC,7,1005.3,-1,87,0,-1,4.1,2.1,48130,220,2.4,1
2013,4,30,22:00,UTC,5,1005.9,-1,82,0,-1,4.2,1.4,50000,259,4.9,2
2013,4,30,23:00,UTC,5,1006.5,-1,80,0,-1,4.1,1,50000,259,6.5,3.3
2013,5,1,00:00,UTC,3,1007.4,-1,83,0,-1,3.5,0.8,50000,251,5.4,2.8
2013,5,1,01:00,UTC,0,1008.2,-1,87,0,-1,2.4,0.4,50000,267,3.5,1.6
2013,5,1,02:00,UTC,0,1009,-1,87,0,-1,2.1,0.2,50000,262,3.7,1.8
2013,5,1,03:00,UTC,0,1009.9,-1,85,0,-1,2.4,0.2,50000,263,4.2,2.1
2013,5,1,04:00,UTC,0,1010.8,-1,80,0,-1,3.5,0.4,48660,275,5.6,3.3
2013,5,1,05:00,UTC,0,1011.3,-1,75,0,-1,4.7,0.6,50000,278,6.5,3.5
2013,5,1,06:00,UTC,0,1012.2,-1,68,0,-1,6,0.6,50000,298,10.4,6.7
2013,5,1,07:00,UTC,1,1012.9,-1,61,0,-1,7.5,0.4,46940,285,9.5,5.5
2013,5,1,08:00,UTC,5,1013.7,-1,51,0,-1,8.6,-0.9,38610,260,9.3,4.5
2013,5,1,09:00,UTC,3,1015,-1,55,0,-1,7,-1.5,50000,276,12.6,4.8
2013,5,1,10:00,UTC,5,1015.5,-1,38,0,-1,8.7,-4.7,42390,282,12.8,6.8
2013,5,1,11:00,UTC,1,1016.3,-1,32,0,-1,7.8,-8.1,44970,284,10.3,6.3
2013,5,1,12:00,UTC,1,1016.7,-1,23,0,-1,8.7,-11.6,46240,295,13.6,9
2013,5,1,13:00,UTC,1,1017,-1,25,0,-1,9.1,-10.1,46060,290,9.8,5.7
2013,5,1,14:00,UTC,1,1017.6,-1,26,0,-1,9.1,-9.4,45040,283,11.7,6.4
2013,5,1,15:00,UTC,1,1018,-1,26,0,-1,8.3,-10.2,44630,288,11.5,6.3
2013,5,1,16:00,UTC,0,1018.2,-1,28,0,-1,7.7,-9.6,50000,290,9.8,5.7
2013,5,1,17:00,UTC,0,1018.5,-1,30,0,-1,6.7,-9.5,50000,286,6.1,3.3
2013,5,1,18:00,UTC,5,1018.9,-1,34,0,-1,6,-8.9,50000,273,4.6,1.6
2013,5,1,19:00,UTC,0,1019.7,-1,40,0,-1,3.7,-8.7,50000,277,3.6,1.9
2013,5,1,20:00,UTC,0,1020.1,-1,45,0,-1,2.1,-8.6,50000,278,3,1.8
2013,5,1,21:00,UTC,0,1020.1,-1,51,0,-1,1.1,-7.9,50000,247,4.3,2
2013,5,1,22:00,UTC,5,1020.3,-1,60,0,-1,-0.3,-7.1,50000,234,3,1.5
2013,5,1,23:00,UTC,1,1020.3,-1,69,0,-1,-1.8,-6.7,50000,242,2.1,1
2013,5,2,00:00,UTC,8,1020.4,-1,80,0,-1,-2.4,-5.4,50000,155,2,1.6
2013,5,2,01:00,UTC,8,1019.9,-1,81,0,-1,-2.2,-5,50000,144,1.8,1.5
2013,5,2,02:00,UTC,7,1019.3,-1,77,0,-1,-1.6,-5,50000,159,2.4,1.5
2013,5,2,03:00,UTC,7,1018.2,-1,75,0,-1,-0.7,-4.6,50000,145,2.5,1.6
2013,5,2,04:00,UTC,7,1017,-1,69,0,-1,0.9,-4.3,44020,147,4.3,2.1
2013,5,2,05:00,UTC,5,1015.9,-1,55,0,-1,2.7,-5.6,47170,148,5.8,3
2013,5,2,06:00,UTC,5,1014.7,-1,52,0,-1,4.8,-4.2,43760,141,6,3
2013,5,2,07:00,UTC,7,1013.6,-1,51,0,-1,6.1,-3.4,50000,143,7.4,3.2
2013,5,2,08:00,UTC,7,1012.4,-1,48,0,-1,7.4,-3,38750,148,7.8,3.9
2013,5,2,09:00,UTC,3,1011.3,-1,43,0,-1,9.7,-2.4,40870,174,13,5.8
2013,5,2,10:00,UTC,7,1011.5,-1,40,0,-1,9.9,-3.1,33070,218,10.6,4.6
2013,5,2,11:00,UTC,7,1011.4,-1,36,0,-1,10,-4.5,40260,210,9.8,5
2013,5,2,12:00,UTC,7,1011.4,-1,36,0,-1,9.9,-4.4,23930,230,13.1,5.6
2013,5,2,13:00,UTC,5,1011.4,-1,40,0,-1,9.1,-3.8,42310,235,11.2,5.1
2013,5,2,14:00,UTC,3,1011.6,-1,41,0,-1,8.5,-4,49340,231,9.1,3.3
2013,5,2,15:00,UTC,3,1011.6,-1,36,0,-1,9.1,-5.2,47050,234,11.2,4.2
2013,5,2,16:00,UTC,1,1011.7,-1,38,0,-1,7.5,-6,50000,240,10.4,4.1
2013,5,2,17:00,UTC,0,1011.6,-1,38,0,-1,6.7,-6.6,50000,245,6.7,2.8
2013,5,2,18:00,UTC,1,1011.9,-1,52,0,-1,5.5,-3.6,50000,244,8.2,3.2
2013,5,2,19:00,UTC,5,1013.2,-1,85,0,-1,2.6,0.4,7860,288,14.2,7.6
2013,5,2,20:00,UTC,1,1013,-1,91,0,-1,1.6,0.3,50000,274,3.5,1.9
2013,5,2,21:00,UTC,0,1013.3,-1,84,0,-1,1.5,-1,50000,254,3.7,1.6
2013,5,2,22:00,UTC,0,1013.4,-1,80,0,-1,1.9,-1.2,50000,253,5.5,2.8
2013,5,2,23:00,UTC,0,1014.1,-1,78,0,-1,1.5,-1.9,50000,264,5.9,3
2013,5,3,00:00,UTC,0,1014.4,-1,73,0,-1,1.4,-2.8,50000,275,6.3,2.9
2013,5,3,01:00,UTC,0,1014.8,-1,70,0,-1,1.4,-3.4,50000,277,5.6,2.9
2013,5,3,02:00,UTC,0,1015.1,-1,72,0,-1,0.6,-3.9,50000,247,3.8,1.8
2013,5,3,03:00,UTC,0,1015.6,-1,72,0,-1,0.6,-3.8,50000,255,4.9,1.9
2013,5,3,04:00,UTC,0,1016,-1,67,0,-1,1.7,-3.9,48400,257,5.6,3
2013,5,3,05:00,UTC,0,1016.2,-1,56,0,-1,2.9,-5.1,42660,273,7.7,4.2
2013,5,3,06:00,UTC,0,1016.5,-1,43,0,-1,4.3,-7.2,42690,266,9.6,4.6
2013,5,3,07:00,UTC,0,1016.9,-1,35,0,-1,5.5,-8.8,36440,259,11.2,5
2013,5,3,08:00,UTC,0,1017,-1,32,0,-1,6.5,-9.2,39080,281,10,5.7
2013,5,3,09:00,UTC,0,1017,-1,24,0,-1,7.9,-11.2,35700,267,10.3,4.7
2013,5,3,10:00,UTC,1,1016.9,-1,23,0,-1,8.8,-11.5,42900,244,12.4,4.4
2013,5,3,11:00,UTC,1,1016.9,-1,21,0,-1,9.5,-11.7,33470,255,13.3,5.9
2013,5,3,12:00,UTC,1,1016.6,-1,19,0,-1,9.9,-12.9,46790,264,10,4.7
2013,5,3,13:00,UTC,0,1016.2,-1,18,0,-1,10.2,-12.9,39330,259,8.8,4.2
2013,5,3,14:00,UTC,1,1015.9,-1,19,0,-1,10.8,-11.8,42990,218,9.9,4.6
2013,5,3,15:00,UTC,0,1015.5,-1,19,0,-1,11,-11.8,43500,242,6.3,2.9
2013,5,3,16:00,UTC,0,1015,-1,22,0,-1,10.1,-10.6,50000,210,6.8,3.5
2013,5,3,17:00,UTC,1,1014.7,-1,25,0,-1,9.6,-9.5,50000,208,3.4,1.8
2013,5,3,18:00,UTC,7,1014.6,-1,32,0,-1,8,-7.9,50000,185,2.5,1.4
2013,5,3,19:00,UTC,8,1014.5,-1,37,0,-1,6.4,-7.2,50000,188,2.1,1.3
2013,5,3,20:00,UTC,7,1014.7,-1,39,0,-1,6.2,-6.8,50000,195,1.4,0.8
2013,5,3,21:00,UTC,7,1014.2,-1,45,0,-1,4.8,-6.1,50000,160,1.7,0.9
2013,5,3,22:00,UTC,7,1014,-1,38,0,-1,6.7,-6.5,50000,206,3.6,1.6
2013,5,3,23:00,UTC,8,1013.7,-1,38,0,-1,7,-6.4,50000,209,5.8,2.3
2013,5,4,00:00,UTC,8,1013.4,-1,43,0,-1,6.1,-5.4,50000,168,3.1,1.4
2013,5,4,01:00,UTC,7,1012.8,-1,49,0,-1,5.5,-4.3,50000,155,3.8,2.2
2013,5,4,02:00,UTC,7,1012.5,-1,59,0,-1,5.6,-1.7,42070,184,4.8,2.2
2013,5,4,03:00,UTC,7,1012.3,-1,53,0,-1,5.4,-3.5,50000,170,2.9,1.3
2013,5,4,04:00,UTC,7,1012.4,-1,80,0,-1,3.5,0.3,29210,196,4.8,2.2
2013,5,4,05:00,UTC,7,1011.9,0.2,85,0,-1,3.2,1,30600,158,4.6,2.3
2013,5,4,06:00,UTC,7,1011.4,-1,81,0,-1,4.6,1.6,45240,167,5.4,2.8
2013,5,4,07:00,UTC,7,1011.3,-1,72,0,-1,6.2,1.6,41420,187,5.7,2.5
2013,5,4,08:00,UTC,7,1011.2,-1,74,0,-1,6.2,1.9,32770,163,6.4,2.9
2013,5,4,09:00,UTC,7,1010.9,-1,60,0,-1,7.6,0.3,49990,191,6,3.1
2013,5,4,10:00,UTC,7,1011,-1,55,0,-1,8,-0.6,37230,208,9.2,4.1
2013,5,4,11:00,UTC,7,1010.8,-1,55,0,-1,9,0.3,35400,247,8,3.6
2013,5,4,12:00,UTC,7,1010.8,-1,49,0,-1,9.6,-0.6,36690,209,8.4,4.3
2013,5,4,13:00,UTC,5,1010.4,-1,45,0,-1,10.3,-1.1,39280,189,6.5,2.8
2013,5,4,14:00,UTC,1,1009.8,-1,42,0,-1,11.6,-1,35040,191,5.6,3.1
2013,5,4,15:00,UTC,7,1009.7,-1,43,0,-1,10.8,-1.2,45630,242,7,3.3
2013,5,4,16:00,UTC,7,1009.6,-1,42,0,-1,10.6,-1.8,50000,223,3.7,1.9
2013,5,4,17:00,UTC,7,1009.6,-1,48,0,-1,9.6,-1,41880,259,6.4,2.6
2013,5,4,18:00,UTC,7,1010,-1,81,0,-1,7.3,4.2,13360,206,3.1,1.5
2013,5,4,19:00,UTC,7,1009.7,0.4,94,0,-1,6.1,5.2,17030,124,1,0.7
2013,5,4,20:00,UTC,7,1009.6,-1,97,0,-1,5.3,4.8,10180,161,1.9,1.3
2013,5,4,21:00,UTC,7,1009.3,-1,98,0,-1,5.1,4.7,9730,163,1.4,0.9
2013,5,4,22:00,UTC,7,1008.9,-1,98,0,-1,4.7,4.5,7590,139,1.7,1.2
2013,5,4,23:00,UTC,7,1008.3,-1,99,0,-1,4.8,4.6,10090,140,2,1.5
2013,5,5,00:00,UTC,7,1007.7,-1,97,0,-1,4.4,4,17640,162,2.5,1.1
2013,5,5,01:00,UTC,7,1007,-1,92,0,-1,4.6,3.3,19790,149,3.1,1.4
2013,5,5,02:00,UTC,7,1006.1,0.4,93,0.5,-1,4.3,3.2,9200,154,3.4,1.5
2013,5,5,03:00,UTC,7,1005.3,1,95,0.7,-1,3.9,3.2,8910,147,3.3,1.6
2013,5,5,04:00,UTC,7,1004.8,1.2,97,1.3,-1,3.9,3.5,5020,151,3.7,1.7
2013,5,5,05:00,UTC,7,1004.2,0.5,98,0.5,-1,4,3.7,7210,171,2.9,1.3
2013,5,5,06:00,UTC,7,1003.6,1,97,1.6,-1,4,3.5,5190,158,3.5,1.7
2013,5,5,07:00,UTC,7,1003.3,1.5,97,0.9,-1,4,3.5,9930,181,4,1.7
2013,5,5,08:00,UTC,7,1002.9,0.7,96,0.5,-1,5.1,4.5,9930,185,3.5,1.8
2013,5,5,09:00,UTC,7,1003,0.1,96,0,-1,5.4,4.8,6780,203,3.5,1.5
2013,5,5,10:00,UTC,7,1003.3,0.3,96,0.4,-1,5.9,5.3,14230,202,2.7,1.4
2013,5,5,11:00,UTC,7,1003.7,0.5,94,0.7,-1,6.3,5.4,13800,257,5.7,2.5
2013,5,5,12:00,UTC,7,1004.3,0.8,95,0.4,-1,6.6,5.8,9610,279,4.8,2.7
2013,5,5,13:00,UTC,7,1005.3,0.2,95,0,-1,6.6,5.8,20220,282,6,3
2013,5,5,14:00,UTC,7,1006.4,0.4,94,1.1,-1,6.7,5.8,9830,299,9,4.6
2013,5,5,15:00,UTC,7,1008,0.4,93,0.4,-1,5.8,4.7,33210,313,11,8
2013,5,5,16:00,UTC,7,1010,-1,91,0,-1,4.6,3.2,50000,313,10.2,7.8
2013,5,5,17:00,UTC,8,1011.8,-1,91,0,-1,4.1,2.8,50000,314,7.8,5.6
2013,5,5,18:00,UTC,7,1013.5,-1,89,0,-1,4.2,2.5,50000,321,10.2,6.5
2013,5,5,19:00,UTC,0,1015.3,-1,94,0,-1,2.5,1.6,50000,305,4.3,3.1
2013,5,5,20:00,UTC,5,1016.4,-1,93,0,-1,2.6,1.6,50000,305,4.7,3.7
2013,5,5,21:00,UTC,3,1017.3,-1,95,0,-1,2,1.3,46570,296,4.5,3.1
2013,5,5,22:00,UTC,0,1018,-1,97,0,-1,1.6,1.2,50000,306,3.8,3
2013,5,5,23:00,UTC,0,1019.2,-1,94,0,-1,-0.3,-1.1,50000,314,4,3.1
2013,5,6,00:00,UTC,0,1020.2,-1,93,0,-1,-0.1,-1.1,50000,302,2.9,2.1
2013,5,6,01:00,UTC,0,1021,-1,93,0,-1,-0.5,-1.4,50000,301,3.1,2.4
2013,5,6,02:00,UTC,0,1021.4,-1,93,0,-1,-0.1,-1.2,49610,294,3.2,2.5
2013,5,6,03:00,UTC,0,1022.1,-1,97,0,-1,0,-0.4,36100,290,2.4,1.6
2013,5,6,04:00,UTC,0,1022.5,-1,84,0,-1,2.2,-0.2,33570,296,2.8,1.8
2013,5,6,05:00,UTC,0,1022.9,-1,75,0,-1,4.7,0.6,46240,311,1.7,1.1
2013,5,6,06:00,UTC,1,1023.1,-1,66,0,-1,7,1.1,48060,83,1.9,0.9
2013,5,6,07:00,UTC,5,1023.4,-1,59,0,-1,8.3,0.6,47410,188,2.7,1.4
2013,5,6,08:00,UTC,7,1023.7,-1,45,0,-1,9.3,-2,50000,190,4.3,2
2013,5,6,09:00,UTC,7,1023.6,-1,37,0,-1,10.9,-3.2,43460,217,4.9,2.7
2013,5,6,10:00,UTC,7,1023.4,-1,39,0,-1,11.1,-2.5,49290,188,6.7,2.8
2013,5,6,11:00,UTC,0,1023,-1,36,0,-1,13,-1.9,35070,195,5.5,2.7
2013,5,6,12:00,UTC,0,1022.4,-1,36,0,-1,13.2,-1.6,41760,140,7.8,3.9
2013,5,6,13:00,UTC,0,1022,-1,36,0,-1,14.3,-0.7,47330,166,6.8,3.1
2013,5,6,14:00,UTC,0,1021.4,-1,34,0,-1,14.6,-1.1,49890,158,7.8,3.2
2013,5,6,15:00,UTC,0,1021,-1,36,0,-1,14.5,-0.6,39450,152,7,3.4
2013,5,6,16:00,UTC,1,1020.4,-1,36,0,-1,14.5,-0.4,50000,165,6.7,3.4
2013,5,6,17:00,UTC,1,1020.2,-1,40,0,-1,13.2,-0.2,50000,171,4.8,2.7
2013,5,6,18:00,UTC,1,1020,-1,47,0,-1,11.8,0.8,50000,149,3.1,1.5
2013,5,6,19:00,UTC,1,1020.2,-1,55,0,-1,10.2,1.6,50000,163,3.6,1.7
2013,5,6,20:00,UTC,0,1020.4,-1,68,0,-1,7.5,1.9,50000,153,1.9,1.1
2013,5,6,21:00,UTC,0,1020.4,-1,79,0,-1,5.5,2.2,50000,165,2.3,1.2
2013,5,6,22:00,UTC,0,1020.3,-1,80,0,-1,5.5,2.2,50000,167,2,1.2
2013,5,6,23:00,UTC,3,1020.4,-1,84,0,-1,5.3,2.8,47180,174,3.5,1.9
2013,5,7,00:00,UTC,1,1020.2,-1,88,0,-1,3.5,1.7,50000,152,2.3,1.1
2013,5,7,01:00,UTC,1,1019.5,-1,84,0,-1,4.6,2.1,50000,152,3.7,1.9
2013,5,7,02:00,UTC,5,1019.2,-1,85,0,-1,4.7,2.3,50000,150,4.9,2
2013,5,7,03:00,UTC,5,1018.7,-1,80,0,-1,5.9,2.7,45030,152,3.6,1.5
2013,5,7,04:00,UTC,5,1018.3,-1,78,0,-1,6.8,3.3,45640,140,3.1,1.8
2013,5,7,05:00,UTC,7,1017.8,-1,75,0,-1,7.5,3.3,46100,173,4.1,2.2
2013,5,7,06:00,UTC,0,1017.2,-1,66,0,-1,10.1,4,38450,180,5.6,3
2013,5,7,07:00,UTC,5,1016.6,-1,62,0,-1,12.1,5,37200,192,8.2,4.5
2013,5,7,08:00,UTC,5,1016.1,-1,53,0,-1,15.1,5.5,37480,205,7.9,4.3
2013,5,7,09:00,UTC,1,1015.6,-1,48,0,-1,16.5,5.4,40990,223,8.1,3.9
2013,5,7,10:00,UTC,1,1015.3,-1,50,0,-1,16.4,5.8,39540,225,8.7,3.5
2013,5,7,11:00,UTC,7,1015.1,-1,46,0,-1,16.5,4.8,40980,221,8.4,3.9
2013,5,7,12:00,UTC,5,1015.3,-1,47,0,-1,17.1,5.5,37420,223,7.9,4.1
2013,5,7,13:00,UTC,3,1014.9,-1,41,0,-1,17.9,4.5,32370,215,8.9,4.2
2013,5,7,14:00,UTC,5,1015.1,-1,43,0,-1,17.8,5.1,46810,230,6.9,3.8
2013,5,7,15:00,UTC,7,1015.2,-1,48,0,-1,16.8,5.6,44570,224,7.7,3.8
2013,5,7,16:00,UTC,1,1015.4,-1,52,0,-1,16.1,6.3,49700,242,7.7,3.5
2013,5,7,17:00,UTC,3,1015.8,-1,58,0,-1,15.4,7.1,50000,269,6.7,3.3
2013,5,7,18:00,UTC,7,1016.8,-1,71,0,-1,14.1,8.9,13010,273,6.8,3.4
2013,5,7,19:00,UTC,1,1017.5,0.3,83,0,-1,11.4,8.7,47650,279,4.7,2.2
2013,5,7,20:00,UTC,0,1018.7,-1,87,0,-1,8.6,6.5,47690,292,4.1,3.1
2013,5,7,21:00,UTC,0,1019.5,-1,70,0,-1,10,4.7,50000,292,5.2,3.8
2013,5,7,22:00,UTC,0,1020.3,-1,70,0,-1,8.6,3.3,50000,289,4.4,3.2
2013,5,7,23:00,UTC,0,1021.2,-1,67,0,-1,7.1,1.4,50000,280,4.1,2.6
2013,5,8,00:00,UTC,0,1021.9,-1,68,0,-1,6.2,0.7,50000,279,4.8,2.5
2013,5,8,01:00,UTC,0,1022.5,-1,66,0,-1,5.9,0.1,50000,281,6.8,3.5
2013,5,8,02:00,UTC,0,1023.3,-1,75,0,-1,3.8,-0.2,50000,360,3.9,1.9
2013,5,8,03:00,UTC,0,1023.7,-1,68,0,-1,5.2,-0.3,50000,304,4.4,3.7
2013,5,8,04:00,UTC,0,1024.1,-1,59,0,-1,7,-0.5,50000,295,3.6,2.8
2013,5,8,05:00,UTC,0,1024.5,-1,51,0,-1,8.6,-0.9,43910,313,4.6,3.5
2013,5,8,06:00,UTC,0,1025,-1,44,0,-1,9.8,-2,37990,328,3.5,1.7
2013,5,8,07:00,UTC,0,1025,-1,40,0,-1,10.7,-2.3,36080,319,5.3,3.2
2013,5,8,08:00,UTC,0,1025.1,-1,34,0,-1,12.6,-3,36530,303,6.6,3.3
2013,5,8,09:00,UTC,0,1025.2,-1,31,0,-1,13,-3.7,41250,300,6.7,4.1
2013,5,8,10:00,UTC,0,1025,-1,27,0,-1,14.8,-4,42550,302,5.9,3.7
2013,5,8,11:00,UTC,0,1024.7,-1,23,0,-1,15.5,-5.8,34290,312,7.9,4.3
2013,5,8,12:00,UTC,3,1024.5,-1,21,0,-1,16,-6.6,42930,300,7.6,4.3
2013,5,8,13:00,UTC,5,1024,-1,18,0,-1,16.6,-8,41490,287,6.2,3.2
2013,5,8,14:00,UTC,5,1023.7,-1,21,0,-1,16.8,-5.9,37960,329,5.3,3.1
2013,5,8,15:00,UTC,0,1023.3,-1,19,0,-1,16.5,-7.3,48460,314,4.8,2.6
2013,5,8,16:00,UTC,0,1022.8,-1,18,0,-1,16.7,-7.6,50000,293,5.2,2
2013,5,8,17:00,UTC,0,1022.6,-1,20,0,-1,15.7,-7,50000,66,3.1,0.9
2013,5,8,18:00,UTC,0,1022.5,-1,31,0,-1,13,-3.9,50000,59,1.9,1.4
2013,5,8,19:00,UTC,0,1022.8,-1,51,0,-1,8.3,-1.3,50000,13,1.2,0.7
2013,5,8,20:00,UTC,0,1022.8,-1,50,0,-1,7.3,-2.4,50000,0,0.9,0
2013,5,8,21:00,UTC,0,1023,-1,71,0,-1,4,-0.8,50000,0,0.6,0
2013,5,8,22:00,UTC,3,1022.8,-1,70,0,-1,4.2,-0.8,50000,0,0.9,0
2013,5,8,23:00,UTC,0,1022.6,-1,83,0,-1,2.2,-0.4,50000,0,0.8,0
2013,5,9,00:00,UTC,0,1022.3,-1,87,0,-1,1.3,-0.6,50000,311,1.1,0.8
2013,5,9,01:00,UTC,1,1021.8,-1,89,0,-1,0.3,-1.4,50000,0,0.7,0
2013,5,9,02:00,UTC,5,1020.9,-1,88,0,-1,1.4,-0.4,50000,0,0.3,0
2013,5,9,03:00,UTC,7,1020.2,-1,88,0,-1,3.4,1.6,50000,0,0.5,0
2013,5,9,04:00,UTC,7,1019.7,-1,79,0,-1,5.3,2,50000,144,1.6,0.8
2013,5,9,05:00,UTC,7,1018.6,-1,68,0,-1,7.4,1.8,47880,134,2.7,1.7
2013,5,9,06:00,UTC,7,1018,-1,84,0,-1,7.1,4.7,22610,144,2.5,1.4
2013,5,9,07:00,UTC,7,1017.1,0.3,81,0,-1,8.6,5.6,35040,120,2.2,1.6
2013,5,9,08:00,UTC,7,1016,-1,76,0,-1,9.2,5.2,45170,126,3.7,2.5
2013,5,9,09:00,UTC,7,1014.9,0.2,84,1.1,-1,8.9,6.3,42510,118,5.2,3.5
2013,5,9,10:00,UTC,7,1014.2,0.5,90,1.6,-1,8.4,6.8,9940,127,5.5,3.1
2013,5,9,11:00,UTC,7,1013.7,1.4,96,1.3,-1,8.3,7.7,10860,103,4.2,3
2013,5,9,12:00,UTC,7,1012.9,0.5,95,0,-1,9.1,8.3,25620,104,6,4.2
2013,5,9,13:00,UTC,7,1011.8,-1,94,0,-1,10.2,9.3,26170,115,5.2,3.4
2013,5,9,14:00,UTC,7,1011.3,-1,90,0,-1,10.5,9,22440,119,4.8,2.9
2013,5,9,15:00,UTC,7,1010.8,-1,89,0,-1,10.9,9.2,25830,122,4.4,2.6
2013,5,9,16:00,UTC,7,1010.1,-1,90,0,-1,10.6,9,22970,119,4.5,3.1
2013,5,9,17:00,UTC,7,1009.1,0.2,93,0,-1,10,8.9,22710,113,5.6,3.7
2013,5,9,18:00,UTC,7,1009,-1,95,0,-1,9.6,8.8,12870,118,4.9,3.3
2013,5,9,19:00,UTC,7,1009.1,0.1,98,0,-1,8.9,8.6,10840,118,4.4,2.9
2013,5,9,20:00,UTC,7,1008.9,-1,98,0,-1,8.8,8.5,7290,116,3.2,2
2013,5,9,21:00,UTC,7,1008.4,-1,99,0,-1,8.5,8.3,3570,115,3.2,2.2
2013,5,9,22:00,UTC,7,1007.9,-1,99,0,-1,8.5,8.3,4300,117,2.2,1.4
2013,5,9,23:00,UTC,7,1007.6,-1,99,0,-1,8.3,8.1,2910,122,2.4,1.7
2013,5,10,00:00,UTC,9,1007.1,-1,99,0,-1,8,7.9,560,114,2.6,1.6
2013,5,10,01:00,UTC,9,1006.9,-1,99,0,-1,7.9,7.8,360,106,2.5,1.9
2013,5,10,02:00,UTC,9,1006.6,-1,99,0,-1,7.8,7.6,470,113,2.2,1.4
2013,5,10,03:00,UTC,9,1006.5,0.3,99,0.3,-1,7.7,7.6,600,107,2.5,2
2013,5,10,04:00,UTC,9,1006.4,-1,99,0,-1,8,7.9,1100,142,1.9,1.1
2013,5,10,05:00,UTC,7,1006.4,-1,99,0,-1,8.5,8.4,1110,127,2,1.1
2013,5,10,06:00,UTC,9,1006.4,-1,99,0,-1,9.1,9,890,152,2.1,1.2
2013,5,10,07:00,UTC,7,1006.5,-1,99,0,-1,10,9.9,2180,216,1.9,0.8
2013,5,10,08:00,UTC,7,1006.8,-1,99,0,-1,10.5,10.4,19820,261,4.3,1.7
2013,5,10,09:00,UTC,7,1007,-1,98,0,-1,10.6,10.4,41140,283,1.6,0.9
2013,5,10,10:00,UTC,7,1007.4,-1,94,0,-1,11.8,10.9,31860,268,3,1.7
2013,5,10,11:00,UTC,7,1007.7,-1,83,0,-1,12.7,9.9,46930,235,4.3,1.7
2013,5,10,12:00,UTC,7,1007.6,-1,74,0,-1,14.4,10,36020,230,3,1.7
2013,5,10,13:00,UTC,5,1007.4,-1,68,0,-1,15.9,10,39190,270,3.5,1.8
2013,5,10,14:00,UTC,7,1007.3,-1,68,0,-1,15.4,9.6,45530,292,4.4,2.5
2013,5,10,15:00,UTC,7,1007.4,-1,67,0,-1,15.3,9.3,50000,312,4.4,3.2
2013,5,10,16:00,UTC,7,1007.4,-1,73,0,-1,14.6,9.9,50000,274,1.9,1
2013,5,10,17:00,UTC,7,1007.6,-1,78,0,-1,13.8,10.1,50000,322,1.9,1.4
2013,5,10,18:00,UTC,8,1007.9,-1,85,0,-1,12.8,10.3,50000,317,2.3,1.6
2013,5,10,19:00,UTC,8,1008.4,-1,87,0,-1,11.8,9.7,50000,285,1.5,1
2013,5,10,20:00,UTC,8,1008.5,-1,89,0,-1,11.3,9.7,50000,326,0.9,0.7
2013,5,10,21:00,UTC,3,1008.5,-1,94,0,-1,9.7,8.8,32100,322,0.9,0.7
2013,5,10,22:00,UTC,5,1008.9,-1,97,0,-1,7.7,7.3,5030,0,0.6,0
2013,5,10,23:00,UTC,0,1008.8,-1,99,0,-1,7.3,7.1,650,215,1,0.7
2013,5,11,00:00,UTC,5,1008.7,-1,99,0,-1,5.5,5.3,260,313,0.8,0.6
2013,5,11,01:00,UTC,7,1008.6,-1,99,0,-1,6.6,6.4,430,306,1.5,1.1
2013,5,11,02:00,UTC,9,1008.1,-1,99,0,-1,5.4,5.3,180,105,1,0.7
2013,5,11,03:00,UTC,9,1007.9,-1,99,0,-1,6.5,6.4,330,139,1.5,0.9
2013,5,11,04:00,UTC,8,1007.8,-1,99,0,-1,7.5,7.4,1210,0,1.1,0
2013,5,11,05:00,UTC,8,1007.9,-1,99,0,-1,8.2,8.1,7720,0,0.8,0
2013,5,11,06:00,UTC,5,1007.9,2.1,99,0,-1,9.2,9.1,9210,122,1.9,1.4
2013,5,11,07:00,UTC,1,1007.5,-1,88,0,-1,13.3,11.4,23660,130,3.5,1.7
2013,5,11,08:00,UTC,1,1007.2,-1,78,0,-1,15.8,12,23630,108,4.5,2.7
2013,5,11,09:00,UTC,1,1006.9,-1,63,0,-1,16.6,9.6,36940,61,2.3,0.9
2013,5,11,10:00,UTC,3,1006.7,-1,52,0,-1,17.3,7.5,39700,94,4.1,2.3
2013,5,11,11:00,UTC,7,1006.7,-1,67,0,-1,17.2,10.9,34510,108,6.4,4.6
2013,5,11,12:00,UTC,5,1006.5,-1,55,0,-1,17.6,8.6,39880,181,7.2,3
2013,5,11,13:00,UTC,7,1006.3,-1,49,0,-1,18.5,7.6,46650,154,5,2.4
2013,5,11,14:00,UTC,5,1006.2,-1,46,0,-1,18.2,6.3,36910,146,5,2.7
2013,5,11,15:00,UTC,3,1006.1,-1,36,0,-1,18.4,2.9,50000,245,6.5,3
2013,5,11,16:00,UTC,7,1006.1,-1,36,0,-1,18.9,3.4,45630,248,9.1,3.6
2013,5,11,17:00,UTC,1,1006.9,-1,43,0,-1,16.7,4.2,50000,274,7.1,3.6
2013,5,11,18:00,UTC,0,1007.5,-1,45,0,-1,15.7,3.7,49340,284,5.8,3.3
2013,5,11,19:00,UTC,0,1008.5,-1,53,0,-1,13.4,3.9,50000,281,5.2,2.5
2013,5,11,20:00,UTC,0,1009.3,-1,60,0,-1,11.6,4.1,50000,281,5.3,3.1
2013,5,11,21:00,UTC,0,1010,-1,68,0,-1,9.6,3.8,50000,282,4.1,2.4
2013,5,11,22:00,UTC,0,1010.5,-1,71,0,-1,8.5,3.5,50000,288,4.3,3
2013,5,11,23:00,UTC,0,1011,-1,83,0,-1,5.2,2.6,50000,22,1.5,0.9
2013,5,12,00:00,UTC,0,1011.1,-1,90,0,-1,4.7,3.2,50000,323,1.4,1.1
2013,5,12,01:00,UTC,0,1011.5,-1,95,0,-1,2,1.3,28280,131,0.9,0.7
2013,5,12,02:00,UTC,0,1011.4,-1,97,0,-1,1.5,1.1,20890,0,0.7,0
2013,5,12,03:00,UTC,0,1011.3,-1,91,0,-1,3.4,2.1,26590,0,0.6,0
2013,5,12,04:00,UTC,0,1011.2,-1,82,0,-1,6.6,3.7,41290,114,1.1,0.8
2013,5,12,05:00,UTC,1,1011.2,-1,72,0,-1,9.5,4.6,48070,125,1.9,1.3
2013,5,12,06:00,UTC,1,1011.2,-1,65,0,-1,11.8,5.5,42720,136,2.9,1.7
2013,5,12,07:00,UTC,1,1011.2,-1,59,0,-1,11.9,4.1,41270,208,4,1.8
2013,5,12,08:00,UTC,1,1011.1,-1,52,0,-1,13.2,3.7,49810,169,4.2,1.4
2013,5,12,09:00,UTC,3,1010.9,-1,47,0,-1,14.2,2.9,36800,258,4,1.8
2013,5,12,10:00,UTC,3,1010.9,-1,43,0,-1,14.4,2.2,48410,126,2.7,1.4
2013,5,12,11:00,UTC,5,1010.5,-1,41,0,-1,15.4,2.1,40670,206,4.3,1.9
2013,5,12,12:00,UTC,7,1010.4,-1,37,0,-1,16.4,1.6,37170,139,5.4,2.4
2013,5,12,13:00,UTC,7,1010.4,-1,38,0,-1,16.4,2.2,46820,185,3.4,1.6
2013,5,12,14:00,UTC,7,1010.2,-1,37,0,-1,16.2,1.4,50000,188,2,1
2013,5,12,15:00,UTC,7,1010,-1,36,0,-1,16.3,1.1,50000,249,4.1,2
2013,5,12,16:00,UTC,7,1010,-1,40,0,-1,15.5,1.9,50000,245,2.7,1.7
2013,5,12,17:00,UTC,7,1010.2,-1,44,0,-1,15.1,2.8,50000,222,2.5,1.3
2013,5,12,18:00,UTC,5,1010.5,-1,47,0,-1,14.4,3.3,50000,187,2.7,1.4
2013,5,12,19:00,UTC,0,1011,-1,66,0,-1,11,4.8,50000,186,2.2,1.5
2013,5,12,20:00,UTC,0,1011.4,-1,80,0,-1,8,4.8,50000,0,0.5,0
2013,5,12,21:00,UTC,0,1011.6,-1,86,0,-1,6.7,4.5,50000,142,0.8,0.6
2013,5,12,22:00,UTC,0,1012,-1,95,0,-1,4.3,3.5,23970,0,0.6,0
2013,5,12,23:00,UTC,1,1012.1,-1,95,0,-1,3.5,2.8,26590,0,0.4,0
2013,5,13,00:00,UTC,7,1012.1,-1,98,0,-1,3.9,3.5,30700,0,0.6,0
2013,5,13,01:00,UTC,7,1012,-1,98,0,-1,3.7,3.3,17570,313,1,0.8
2013,5,13,02:00,UTC,5,1012,-1,98,0,-1,3,2.7,14620,0,0.8,0
2013,5,13,03:00,UTC,7,1011.7,-1,96,0,-1,4.9,4.3,43740,0,0.5,0
2013,5,13,04:00,UTC,5,1011.2,-1,89,0,-1,6.8,5.2,36130,0,0.6,0
2013,5,13,05:00,UTC,7,1011.1,-1,79,0,-1,10.3,6.8,37580,99,2.2,1.3
2013,5,13,06:00,UTC,7,1010.9,-1,64,0,-1,13.4,6.8,46420,114,3,1.6
2013,5,13,07:00,UTC,0,1010.4,-1,52,0,-1,15.7,5.9,33980,120,4.1,2.1
2013,5,13,08:00,UTC,1,1010.1,-1,46,0,-1,16.8,4.9,36140,151,6.2,3
2013,5,13,09:00,UTC,3,1009.7,-1,41,0,-1,17,3.5,45030,192,6.6,2.9
2013,5,13,10:00,UTC,1,1009.2,-1,39,0,-1,17,2.8,42470,167,4.7,2.2
2013,5,13,11:00,UTC,3,1009.1,-1,39,0,-1,17.6,3.4,42540,160,5.3,2.5
2013,5,13,12:00,UTC,7,1008.7,-1,39,0,-1,17.3,3.1,36950,127,5,3.2
2013,5,13,13:00,UTC,7,1008.1,-1,35,0,-1,18.2,2.3,39970,128,7.6,3.4
2013,5,13,14:00,UTC,7,1007.8,-1,38,0,-1,17.4,2.8,44610,154,4.7,2.5
2013,5,13,15:00,UTC,5,1007.5,-1,41,0,-1,17.1,3.7,48310,136,4.5,2.5
2013,5,13,16:00,UTC,7,1007.1,-1,39,0,-1,16.9,3,47910,145,4.6,2.2
2013,5,13,17:00,UTC,7,1006.9,-1,44,0,-1,16.2,3.8,50000,157,1.9,1
2013,5,13,18:00,UTC,7,1006.8,-1,51,0,-1,14.8,4.9,50000,0,0.5,0
2013,5,13,19:00,UTC,7,1006.9,-1,58,0,-1,13.6,5.5,44930,0,0.6,0
2013,5,13,20:00,UTC,7,1007,-1,70,0,-1,11.6,6.3,50000,100,1,0.6
2013,5,13,21:00,UTC,7,1006.9,-1,76,0,-1,10.7,6.7,46130,174,1.7,1
2013,5,13,22:00,UTC,8,1006.7,-1,75,0,-1,11.7,7.4,50000,0,1.4,0
2013,5,13,23:00,UTC,8,1006.7,-1,83,0,-1,10.4,7.7,46070,129,2.2,1.3
2013,5,14,00:00,UTC,8,1006.5,-1,85,0,-1,10.4,8.1,43340,149,2.1,1.1
2013,5,14,01:00,UTC,8,1006.7,-1,89,0,-1,10,8.2,37550,130,2.2,1.6
2013,5,14,02:00,UTC,8,1006.7,-1,90,0,-1,10.1,8.6,32140,144,1.3,0.9
2013,5,14,03:00,UTC,7,1006.6,-1,92,0,-1,10.2,8.9,31170,120,1.6,1.1
2013,5,14,04:00,UTC,5,1006.6,-1,94,0,-1,10.6,9.6,23110,133,2.1,1.2
2013,5,14,05:00,UTC,7,1006.8,-1,86,0,-1,12,9.7,36430,142,2.5,1.6
2013,5,14,06:00,UTC,7,1006.6,-1,77,0,-1,13.1,9.2,37000,143,4.4,2.2
2013,5,14,07:00,UTC,1,1006.7,-1,65,0,-1,15,8.5,35010,172,4.2,2
2013,5,14,08:00,UTC,3,1006.6,-1,58,0,-1,16.9,8.5,30280,126,6.2,3.8
2013,5,14,09:00,UTC,5,1006.6,-1,53,0,-1,17.8,8,39920,128,5.6,3
2013,5,14,10:00,UTC,3,1006.6,-1,55,0,-1,16.7,7.5,35240,155,4.1,1.7
2013,5,14,11:00,UTC,5,1006.5,-1,37,0,-1,17.8,3,29700,183,6.1,3.1
2013,5,14,12:00,UTC,3,1006.4,-1,38,0,-1,17.9,3.4,48570,156,6.7,3.8
2013,5,14,13:00,UTC,1,1006.4,-1,30,0,-1,18.6,0.6,50000,165,7,3.8
2013,5,14,14:00,UTC,0,1006.2,-1,33,0,-1,18.4,1.7,39740,181,8.6,3.3
2013,5,14,15:00,UTC,0,1006.3,-1,32,0,-1,18.6,1.5,43450,174,8.7,4
2013,5,14,16:00,UTC,1,1006.4,-1,28,0,-1,18.3,-0.4,42580,173,7,3
2013,5,14,17:00,UTC,1,1006.9,-1,32,0,-1,16.7,0,48770,215,4.7,2.6
2013,5,14,18:00,UTC,0,1007.4,-1,47,0,-1,14.4,3.3,49170,254,5.3,2.4
2013,5,14,19:00,UTC,0,1007.9,-1,62,0,-1,11.2,4.2,50000,166,1.4,0.8
2013,5,14,20:00,UTC,1,1008.4,-1,72,0,-1,9.2,4.5,45230,160,2.5,1.5
2013,5,14,21:00,UTC,7,1008.6,-1,60,0,-1,11.1,3.7,50000,181,2.8,1.4
2013,5,14,22:00,UTC,7,1009.2,-1,64,0,-1,11.6,5.1,50000,208,8.2,2.5
2013,5,14,23:00,UTC,1,1009.9,-1,71,0,-1,10.3,5.3,50000,218,4.8,2.5
2013,5,15,00:00,UTC,0,1010.5,-1,79,0,-1,9,5.6,50000,220,4,1.3
2013,5,15,01:00,UTC,7,1011.3,-1,79,0,-1,8.8,5.4,50000,265,5.1,2.4
2013,5,15,02:00,UTC,0,1012,-1,79,0,-1,7.1,3.7,50000,257,5,2.8
2013,5,15,03:00,UTC,0,1013.1,-1,82,0,-1,6.4,3.4,50000,277,3.6,1.9
2013,5,15,04:00,UTC,0,1014,-1,75,0,-1,7.5,3.4,49060,251,3.1,1.5
2013,5,15,05:00,UTC,0,1014.3,-1,68,0,-1,8.7,3.1,37410,239,3.4,1.6
2013,5,15,06:00,UTC,3,1014.5,-1,61,0,-1,10.6,3.4,36230,266,3.9,1.9
2013,5,15,07:00,UTC,0,1015.1,,51,0,-1,12,2.2,35700,217,3.5,1.6
2013,5,15,08:00,UTC,0,1015.2,,35,0,-1,13.5,-1.5,38040,251,5,2.4
2013,5,15,09:00,UTC,1,1015.5,,37,0,-1,14.1,-0.3,39080,264,7.3,3.4
2013,5,15,10:00,UTC,5,1015.7,,38,0,-1,13.1,-0.8,48480,300,4.9,2.7
2013,5,15,11:00,UTC,1,1015.4,,27,0,-1,16.3,-2.6,28500,211,4.8,2.1
2013,5,15,12:00,UTC,5,1015.5,,30,0,-1,15.8,-1.8,31040,297,4.6,2.7
2013,5,15,13:00,UTC,1,1015.7,,32,0,-1,15.1,-1.4,48880,274,4.5,2.4
2013,5,15,14:00,UTC,1,1015.3,,31,0,-1,16.3,-1.1,43860,267,5.7,2.7
2013,5,15,15:00,UTC,0,1015.4,,29,0,-1,16.3,-1.8,37050,188,5,2
2013,5,15,16:00,UTC,0,1015.4,,30,0,-1,16.3,-1.3,41590,216,3.7,2.2
2013,5,15,17:00,UTC,0,1015.5,,31,0,-1,15.6,-1.5,45800,194,3.2,1.2
2013,5,15,18:00,UTC,0,1015.9,,35,0,-1,14.4,-0.7,50000,275,2.2,1.2
2013,5,15,19:00,UTC,0,1016.4,-1,48,0,-1,10.2,-0.4,50000,270,1.9,1
2013,5,15,20:00,UTC,0,1017.2,-1,66,0,-1,7.1,1.3,50000,0,1,0
2013,5,15,21:00,UTC,0,1017.4,-1,80,0,-1,5.3,2.1,50000,329,1.1,0.8
2013,5,15,22:00,UTC,0,1017.7,-1,88,0,-1,3.4,1.6,40910,307,1.5,1
2013,5,15,23:00,UTC,0,1018.1,-1,90,0,-1,2.7,1.3,50000,332,1.4,1.2
2013,5,16,00:00,UTC,0,1018.4,-1,90,0,-1,1.5,0.2,50000,300,1.2,0.9
2013,5,16,01:00,UTC,0,1018.8,-1,91,0,-1,1.5,0.1,49220,311,2.3,2
2013,5,16,02:00,UTC,0,1019.2,-1,92,0,-1,0.8,-0.3,41780,307,1.1,0.7
2013,5,16,03:00,UTC,0,1019.4,-1,91,0,-1,3.5,2.1,44410,319,1.6,1.2
2013,5,16,04:00,UTC,0,1019.6,-1,73,0,-1,8.4,3.8,35620,319,1.3,0.8
2013,5,16,05:00,UTC,0,1019.8,-1,54,0,-1,11.7,2.6,35330,316,2,1.2
2013,5,16,06:00,UTC,0,1019.4,-1,42,0,-1,14.9,2,39160,20,3.6,2.1
2013,5,16,07:00,UTC,0,1019.5,-1,36,0,-1,16.4,1.3,37230,44,3.8,1.9
2013,5,16,08:00,UTC,0,1019.6,-1,31,0,-1,17.4,0.1,37150,80,5,2.9
2013,5,16,09:00,UTC,0,1019.7,-1,24,0,-1,18.1,-2.7,43010,55,5.6,2.8
2013,5,16,10:00,UTC,0,1019.8,-1,27,0,-1,19,-0.7,28730,114,4.9,2.9
2013,5,16,11:00,UTC,0,1019.9,-1,22,0,-1,19.4,-2.8,29150,134,6.9,3.3
2013,5,16,12:00,UTC,0,1019.6,-1,26,0,-1,19.9,-0.3,31540,110,6.1,3.8
2013,5,16,13:00,UTC,0,1019.5,-1,24,0,-1,20.1,-1.2,43270,92,7.6,3.7
2013,5,16,14:00,UTC,0,1019.4,-1,24,0,-1,20.4,-1.1,39360,103,7.9,4
2013,5,16,15:00,UTC,0,1019.2,-1,25,0,-1,20.5,-0.2,39540,75,7.6,4.4
2013,5,16,16:00,UTC,0,1019.3,-1,24,0,-1,20.1,-1.3,45360,92,6.1,4.1
2013,5,16,17:00,UTC,0,1019.5,-1,25,0,-1,19.2,-1.2,42290,87,5.7,4.2
2013,5,16,18:00,UTC,0,1020,-1,28,0,-1,17.5,-1.3,50000,74,4.4,2.8
2013,5,16,19:00,UTC,0,1020.4,-1,32,0,-1,15.6,-0.9,50000,69,4.5,2.9
2013,5,16,20:00,UTC,0,1021,-1,38,0,-1,14,-0.2,50000,53,3.6,2.6
2013,5,16,21:00,UTC,0,1021.7,-1,63,0,-1,8.4,1.7,50000,321,1.4,0.8
2013,5,16,22:00,UTC,0,1021.9,-1,72,0,-1,7.7,2.9,50000,299,2.1,1.6
2013,5,16,23:00,UTC,0,1021.9,-1,62,0,-1,9.3,2.2,50000,294,2.3,1.9
2013,5,17,00:00,UTC,0,1021.8,-1,70,0,-1,8.3,3,50000,320,2.7,2.1
2013,5,17,01:00,UTC,0,1021.8,-1,64,0,-1,9,2.6,50000,307,1.8,1.2
2013,5,17,02:00,UTC,0,1022,-1,78,0,-1,6.4,2.8,50000,335,2,1.6
2013,5,17,03:00,UTC,0,1022,-1,61,0,-1,10.9,3.7,50000,321,1.8,1.1
2013,5,17,04:00,UTC,0,1021.7,-1,62,0,-1,12.9,5.7,42620,40,3.5,2.5
2013,5,17,05:00,UTC,0,1021.5,-1,58,0,-1,15.3,7,35270,77,3.6,2.2
2013,5,17,06:00,UTC,0,1021.1,-1,56,0,-1,17.2,8.3,34110,90,5.8,4.2
2013,5,17,07:00,UTC,0,1021.2,-1,54,0,-1,18.6,9,23500,104,7.6,4.6
2013,5,17,08:00,UTC,0,1021.1,-1,52,0,-1,20.6,10.4,33150,90,8.1,5.2
2013,5,17,09:00,UTC,1,1021,-1,54,0,-1,21.8,12,36220,117,9.5,5.4
2013,5,17,10:00,UTC,3,1020.8,-1,45,0,-1,23.2,10.6,31350,115,9.6,4.8
2013,5,17,11:00,UTC,5,1020.6,-1,40,0,-1,24.3,9.7,33770,121,10.9,4.9
2013,5,17,12:00,UTC,7,1020.8,-1,40,0,-1,23.6,9.3,35330,120,8.1,5
2013,5,17,13:00,UTC,7,1020.8,-1,37,0,-1,22.9,7.6,48310,124,10.1,5.6
2013,5,17,14:00,UTC,1,1020.8,-1,36,0,-1,23.6,7.9,39330,119,8.1,5.5
2013,5,17,15:00,UTC,1,1021,-1,36,0,-1,22.6,6.8,38680,125,7.7,4.3
2013,5,17,16:00,UTC,1,1020.9,-1,39,0,-1,21.9,7.2,36040,115,7.4,4.8
2013,5,17,17:00,UTC,1,1021.1,-1,40,0,-1,20.7,6.5,47350,112,7.1,4.5
2013,5,17,18:00,UTC,1,1021.2,-1,41,0,-1,19.7,6.3,47350,115,5.4,3.4
2013,5,17,19:00,UTC,7,1021.1,-1,44,0,-1,18.3,5.9,50000,119,4.3,2.5
2013,5,17,20:00,UTC,7,1021.4,-1,54,0,-1,16,6.8,50000,75,2.3,1.8
2013,5,17,21:00,UTC,7,1021.4,-1,58,0,-1,14.8,6.5,50000,85,2.2,1.1
2013,5,17,22:00,UTC,7,1021.5,-1,61,0,-1,13.8,6.5,50000,79,1.4,0.7
2013,5,17,23:00,UTC,7,1021.3,-1,62,0,-1,14.3,7,50000,114,2.8,1.7
2013,5,18,00:00,UTC,7,1021.2,-1,69,0,-1,12.6,7,49180,9,1.6,0.8
2013,5,18,01:00,UTC,7,1021.1,-1,71,0,-1,12.2,7,50000,356,1.6,1
2013,5,18,02:00,UTC,7,1021,-1,73,0,-1,12.1,7.3,49760,322,2.8,2.3
2013,5,18,03:00,UTC,7,1020.8,-1,72,0,-1,12.2,7.3,48020,326,2.4,1.9
2013,5,18,04:00,UTC,7,1021,-1,59,0,-1,13.2,5.3,49660,36,3.4,2
2013,5,18,05:00,UTC,5,1020.6,-1,50,0,-1,15.3,5,31740,55,3.8,2.4
2013,5,18,06:00,UTC,5,1020.5,-1,45,0,-1,16.4,4.4,38920,82,4.7,2.9
2013,5,18,07:00,UTC,5,1020.3,-1,49,0,-1,17,6.2,49950,49,4.8,3.2
2013,5,18,08:00,UTC,7,1020.5,-1,51,0,-1,16.2,6.1,50000,58,5,3
2013,5,18,09:00,UTC,8,1020.7,-1,61,0,-1,15.6,8.2,50000,76,4.9,2.8
2013,5,18,10:00,UTC,7,1020.6,-1,60,0,-1,16.1,8.4,43080,76,4.4,2.7
2013,5,18,11:00,UTC,7,1020.4,-1,59,0,-1,16.8,8.9,44390,85,6.8,4.3
2013,5,18,12:00,UTC,7,1019.9,-1,58,0,-1,18.6,10.1,37470,62,6.3,4.6
2013,5,18,13:00,UTC,7,1019.4,-1,56,0,-1,19.9,10.8,35590,64,7.1,3.9
2013,5,18,14:00,UTC,7,1019,-1,59,0,-1,19.3,11,42820,77,7.2,4
2013,5,18,15:00,UTC,7,1018.5,-1,62,0,-1,19.1,11.7,40860,69,6.3,4.2
2013,5,18,16:00,UTC,8,1018.4,-1,63,0,-1,19.1,12,40030,71,6.2,4.2
2013,5,18,17:00,UTC,7,1018.9,-1,72,0,-1,17.1,12,41320,103,6.6,4.6
2013,5,18,18:00,UTC,8,1018.8,-1,75,0,-1,16.6,12.1,41140,96,4.9,3.4
2013,5,18,19:00,UTC,7,1018.6,-1,78,0,-1,16.1,12.2,43260,32,3.1,2.1
2013,5,18,20:00,UTC,8,1018.4,-1,81,0,-1,15.7,12.4,40560,349,2.6,1.9
2013,5,18,21:00,UTC,7,1018.5,-1,82,0,-1,14.9,11.9,40650,59,2.8,2.2
2013,5,18,22:00,UTC,3,1018.1,-1,82,0,-1,14,11,44670,57,3.6,2.5
2013,5,18,23:00,UTC,8,1017.8,-1,80,0,-1,14.3,11,48020,28,3.2,2.2
2013,5,19,00:00,UTC,8,1017.8,-1,82,0,-1,13.9,10.8,44150,25,2.4,1.6
2013,5,19,01:00,UTC,1,1017.4,-1,86,0,-1,12.7,10.3,44600,19,1.7,1.5
2013,5,19,02:00,UTC,7,1017.3,-1,86,0,-1,12.7,10.3,46060,64,1.8,0.7
2013,5,19,03:00,UTC,5,1016.8,-1,84,0,-1,12.9,10.3,46750,34,3.3,2.1
2013,5,19,04:00,UTC,5,1016.6,-1,77,0,-1,13.9,9.9,48640,72,2.2,1.2
2013,5,19,05:00,UTC,5,1017,-1,76,0,-1,14.6,10.3,44900,152,3.2,1.6
2013,5,19,06:00,UTC,7,1017.2,-1,73,0,-1,16.9,12,40420,69,2.5,1.4
2013,5,19,07:00,UTC,0,1016.7,-1,68,0,-1,18.6,12.6,33390,148,2.9,1.1
2013,5,19,08:00,UTC,0,1016.6,-1,70,0,-1,18.2,12.7,45050,125,4.3,2.8
2013,5,19,09:00,UTC,7,1016.5,-1,66,0,-1,20.2,13.5,37730,101,5.8,3.2
2013,5,19,10:00,UTC,7,1016.5,-1,64,0,-1,20.6,13.6,31380,99,4.8,2.9
2013,5,19,11:00,UTC,5,1016.1,-1,53,0,-1,23.2,13.1,28200,125,6.4,4.2
2013,5,19,12:00,UTC,7,1016,-1,60,0,-1,21.8,13.6,39140,106,6.5,4.2
2013,5,19,13:00,UTC,7,1015.8,-1,60,0,-1,21.6,13.4,4680,110,4.9,3.3
2013,5,19,14:00,UTC,7,1015.7,-1,59,0,-1,21.5,13.1,2830,115,4.8,3.3
2013,5,19,15:00,UTC,3,1015.5,-1,59,0,-1,21.8,13.4,37760,82,5,3
2013,5,19,16:00,UTC,1,1015.4,-1,61,0,-1,21.8,14.1,36180,91,5,3.6
2013,5,19,17:00,UTC,0,1015.2,-1,64,0,-1,21.1,14.1,44250,98,4.2,2.6
2013,5,19,18:00,UTC,0,1015.6,-1,71,0,-1,19.8,14.4,42280,97,2.2,1.6
2013,5,19,19:00,UTC,5,1016,-1,81,0,-1,17.9,14.6,42730,46,1.5,1.1
2013,5,19,20:00,UTC,1,1016.3,-1,85,0,-1,17,14.5,36390,96,1.7,1.5
2013,5,19,21:00,UTC,0,1016.8,-1,93,0,-1,14.6,13.5,22810,93,1.5,1
2013,5,19,22:00,UTC,0,1016.9,-1,98,0,-1,12.8,12.4,1290,9,0.9,0.6
2013,5,19,23:00,UTC,0,1017.2,-1,99,0,-1,12,11.8,4700,354,0.9,0.6
2013,5,20,00:00,UTC,0,1017.3,-1,99,0,-1,11.4,11.3,670,99,1.5,0.9
2013,5,20,01:00,UTC,0,1017.5,-1,99,0,-1,11.6,11.5,550,32,1.9,0.9
2013,5,20,02:00,UTC,0,1017.4,-1,99,0,-1,11.5,11.4,1460,13,2.2,1.9
2013,5,20,03:00,UTC,1,1017.6,-1,98,0,-1,13.4,13.2,12650,61,5.3,2.2
2013,5,20,04:00,UTC,7,1018,-1,91,0,-1,13.5,12.2,28160,80,6.3,3.8
2013,5,20,05:00,UTC,7,1018.2,-1,88,0,-1,13.1,11.2,38900,75,5.8,3.7
2013,5,20,06:00,UTC,7,1018.5,-1,89,0,-1,13,11.3,31280,90,7.7,5.3
2013,5,20,07:00,UTC,7,1018.8,-1,89,0,-1,13.1,11.4,21510,80,7.8,5.1
2013,5,20,08:00,UTC,7,1019.1,-1,83,0,-1,13.8,10.9,45390,86,7,4.9
2013,5,20,09:00,UTC,7,1019,-1,77,0,-1,15.2,11.3,37950,99,6.4,4.3
2013,5,20,10:00,UTC,5,1018.4,-1,69,0,-1,16.8,11.1,27300,103,6.4,4.3
2013,5,20,11:00,UTC,1,1017.9,-1,67,0,-1,18,11.7,36320,62,6.1,3.4
2013,5,20,12:00,UTC,1,1017.2,-1,55,0,-1,20.4,10.9,33730,105,6.7,4.7
2013,5,20,13:00,UTC,1,1016.8,-1,46,0,-1,20.9,8.7,33580,99,8.6,6
2013,5,20,14:00,UTC,0,1016.4,-1,37,0,-1,21.5,6.3,35330,95,10.3,7.3
2013,5,20,15:00,UTC,0,1016.3,-1,40,0,-1,21.2,7,38610,110,8.4,5.2
2013,5,20,16:00,UTC,0,1016.1,-1,38,0,-1,20.6,5.9,43540,92,8.3,5.6
2013,5,20,17:00,UTC,0,1015.9,-1,42,0,-1,19.5,6.4,48570,99,7.7,5.4
2013,5,20,18:00,UTC,0,1016,-1,51,0,-1,18.3,8,43960,100,4.9,3
2013,5,20,19:00,UTC,7,1016.3,-1,54,0,-1,16.6,7.3,50000,71,4.5,3
2013,5,20,20:00,UTC,1,1016.8,-1,62,0,-1,15.4,8.1,50000,83,5.9,4.2
2013,5,20,21:00,UTC,7,1017.1,-1,62,0,-1,14.8,7.6,50000,110,4.2,2.7
2013,5,20,22:00,UTC,7,1017.2,-1,66,0,-1,14,7.7,50000,120,3.8,2.3
2013,5,20,23:00,UTC,7,1017.2,-1,71,0,-1,13,7.8,50000,120,4.1,2.5
2013,5,21,00:00,UTC,3,1017.3,-1,77,0,-1,11.3,7.4,50000,111,2.6,1.1
2013,5,21,01:00,UTC,1,1017.5,-1,81,0,-1,10.2,7.2,47470,72,4.4,2.9
2013,5,21,02:00,UTC,0,1017.3,-1,82,0,-1,10,7,42290,100,5.1,3.7
2013,5,21,03:00,UTC,0,1017.2,-1,75,0,-1,10.7,6.5,50000,92,6,4.3
2013,5,21,04:00,UTC,0,1016.7,-1,67,0,-1,11.7,5.8,45660,103,6.4,4.8
2013,5,21,05:00,UTC,0,1016.4,-1,59,0,-1,12.7,4.9,37030,108,6.7,4
2013,5,21,06:00,UTC,0,1016.3,-1,56,0,-1,13.8,5.1,40710,103,5.2,3.4
2013,5,21,07:00,UTC,0,1015.9,-1,53,0,-1,14.8,5.3,36820,83,5.9,3.9
2013,5,21,08:00,UTC,0,1015.6,-1,48,0,-1,16,5.2,37510,82,6.6,4.6
2013,5,21,09:00,UTC,0,1015.2,-1,41,0,-1,17.1,3.7,35550,85,7.7,5
2013,5,21,10:00,UTC,0,1014.7,-1,36,0,-1,18.2,3,43830,114,8.2,5.2
2013,5,21,11:00,UTC,0,1014.2,-1,34,0,-1,19.4,3,30190,89,8.6,5.9
2013,5,21,12:00,UTC,1,1013.7,-1,35,0,-1,19.3,3.4,44130,101,8.6,5.7
2013,5,21,13:00,UTC,0,1013,-1,36,0,-1,19.4,3.8,46510,103,8.3,5.2
2013,5,21,14:00,UTC,0,1012.6,-1,37,0,-1,20.1,4.9,35240,98,7.9,4.8
2013,5,21,15:00,UTC,0,1012,-1,38,0,-1,19.7,4.9,42330,87,7.7,5
2013,5,21,16:00,UTC,0,1011.8,-1,36,0,-1,18.8,3.2,46840,105,7.8,5.2
2013,5,21,17:00,UTC,0,1011.6,-1,38,0,-1,17.7,3.3,49180,110,6.8,4.6
2013,5,21,18:00,UTC,0,1011.7,-1,45,0,-1,15.7,3.9,50000,78,4.9,3.4
2013,5,21,19:00,UTC,0,1011.9,-1,48,0,-1,14.4,3.6,50000,107,4.7,3
2013,5,21,20:00,UTC,1,1012.4,-1,56,0,-1,11.9,3.4,50000,103,2.4,1.8
2013,5,21,21:00,UTC,0,1012.5,-1,67,0,-1,9,3.2,50000,127,2.7,1.4
2013,5,21,22:00,UTC,0,1012.3,-1,72,0,-1,7.3,2.6,50000,102,2.4,1.4
2013,5,21,23:00,UTC,1,1012,-1,66,0,-1,8.1,2.1,50000,112,2,1.2
2013,5,22,00:00,UTC,0,1011.9,-1,72,0,-1,6.8,2.1,50000,0,1.1,0
2013,5,22,01:00,UTC,0,1011.1,-1,60,0,-1,9,1.7,50000,104,4.4,2.8
2013,5,22,02:00,UTC,0,1011.1,-1,61,0,-1,8.5,1.5,48420,90,2.5,1.5
2013,5,22,03:00,UTC,0,1010.7,-1,58,0,-1,9.8,1.9,50000,81,5.1,2.9
2013,5,22,04:00,UTC,0,1010.3,-1,52,0,-1,10.9,1.5,43300,90,7.3,4.4
2013,5,22,05:00,UTC,0,1009.9,-1,50,0,-1,12.5,2.3,34250,93,8.4,5.2
2013,5,22,06:00,UTC,0,1009.8,-1,46,0,-1,12.8,1.6,50000,79,7.4,4.8
2013,5,22,07:00,UTC,0,1009.6,-1,44,0,-1,14.6,2.3,36510,78,6.2,3.9
2013,5,22,08:00,UTC,1,1009.2,-1,40,0,-1,16.8,3.1,39510,102,10,6.2
2013,5,22,09:00,UTC,0,1009.1,-1,32,0,-1,18,1.2,26620,97,12.6,8.8
2013,5,22,10:00,UTC,0,1008.7,-1,32,0,-1,18.5,1.4,32560,114,9.1,5.7
2013,5,22,11:00,UTC,0,1008.5,-1,33,0,-1,18.7,1.9,36510,84,10.7,8
2013,5,22,12:00,UTC,0,1008.2,-1,32,0,-1,19.4,2.2,36040,89,9.3,6.3
2013,5,22,13:00,UTC,1,1008,-1,30,0,-1,19.1,1,36560,85,13.1,8.5
2013,5,22,14:00,UTC,0,1008,-1,30,0,-1,18.9,0.7,48270,84,10.5,7.4
2013,5,22,15:00,UTC,1,1007.9,-1,29,0,-1,18.6,0.4,40600,87,12,6.9
2013,5,22,16:00,UTC,0,1007.8,-1,29,0,-1,18.4,0.1,39690,85,11.3,7.5
2013,5,22,17:00,UTC,1,1008.1,-1,32,0,-1,17.1,0.2,50000,84,8.2,5.8
2013,5,22,18:00,UTC,1,1008.3,-1,33,0,-1,16,-0.3,50000,92,9.4,6.1
2013,5,22,19:00,UTC,7,1008.7,-1,36,0,-1,15,0,50000,96,8,4.8
2013,5,22,20:00,UTC,7,1009,-1,41,0,-1,13.9,0.8,50000,95,7.2,4.8
2013,5,22,21:00,UTC,7,1009.2,-1,44,0,-1,13.1,1,36270,95,6.5,4.3
2013,5,22,22:00,UTC,7,1009.4,-1,47,0,-1,12.1,1,50000,98,5.9,4
2013,5,22,23:00,UTC,3,1009.3,-1,50,0,-1,11,0.9,50000,93,7,4.8
2013,5,23,00:00,UTC,5,1009.4,-1,53,0,-1,9.8,0.7,49170,99,5.5,3.3
2013,5,23,01:00,UTC,5,1009.5,-1,56,0,-1,8.8,0.3,50000,94,5.3,3.2
2013,5,23,02:00,UTC,1,1009.5,-1,57,0,-1,8.4,0.5,50000,90,4.8,3.4
2013,5,23,03:00,UTC,1,1009.6,-1,55,0,-1,9.7,1,50000,89,4.5,2.9
2013,5,23,04:00,UTC,1,1009.5,-1,51,0,-1,10.4,0.6,45340,83,5.7,3.8
2013,5,23,05:00,UTC,1,1009.2,-1,48,0,-1,11.7,1,40020,69,6.4,4.4
2013,5,23,06:00,UTC,0,1009.1,-1,44,0,-1,13.1,1.1,38820,70,8,5.1
2013,5,23,07:00,UTC,0,1009.1,-1,42,0,-1,14.6,1.8,44010,57,8.4,6.1
2013,5,23,08:00,UTC,1,1008.7,-1,39,0,-1,16.1,2.1,30450,69,9.3,5.3
2013,5,23,09:00,UTC,0,1008.7,-1,36,0,-1,16.4,1.2,34610,106,10,6.3
2013,5,23,10:00,UTC,1,1008.8,-1,36,0,-1,17.1,2,40360,83,10,5.8
2013,5,23,11:00,UTC,1,1008.5,-1,38,0,-1,18.1,3.4,34360,89,10.7,7.3
2013,5,23,12:00,UTC,1,1008.5,-1,39,0,-1,17.4,3.2,41400,102,9.4,6.3
2013,5,23,13:00,UTC,5,1008.5,-1,42,0,-1,17.3,4.4,46350,89,8.7,6
2013,5,23,14:00,UTC,1,1008.6,-1,43,0,-1,17.7,5.1,40190,94,8.4,4.9
2013,5,23,15:00,UTC,1,1008.6,-1,42,0,-1,17.1,4.2,48540,85,7.9,5.1
2013,5,23,16:00,UTC,7,1008.9,-1,46,0,-1,16.3,4.7,46430,126,7.7,4
2013,5,23,17:00,UTC,7,1009.7,-1,60,0,-1,14.3,6.6,42700,132,7.4,4
2013,5,23,18:00,UTC,8,1010.2,-1,68,0,-1,13,7.2,50000,136,5.5,3
2013,5,23,19:00,UTC,8,1010.3,-1,74,0,-1,12.1,7.6,50000,118,3.7,2.2
2013,5,23,20:00,UTC,7,1010.5,-1,78,0,-1,11.6,7.9,48300,83,4.5,3.2
2013,5,23,21:00,UTC,7,1010.8,-1,82,0,-1,11.1,8.1,50000,81,5.2,3.1
2013,5,23,22:00,UTC,8,1010.9,-1,84,0,-1,10.8,8.1,49160,108,2.3,1.7
2013,5,23,23:00,UTC,8,1010.7,-1,84,0,-1,10.6,8,50000,80,3.4,2.3
2013,5,24,00:00,UTC,8,1010.8,-1,82,0,-1,10.6,7.8,50000,92,5.1,2.8
2013,5,24,01:00,UTC,7,1010.8,-1,87,0,-1,10.4,8.4,49700,57,2.7,2.2
2013,5,24,02:00,UTC,8,1010.9,-1,92,0,-1,10.1,8.8,36910,100,3,2.1
2013,5,24,03:00,UTC,8,1011,-1,91,0,-1,10.4,9,43240,102,3.1,1.9
2013,5,24,04:00,UTC,8,1010.7,-1,89,0,-1,10.7,9,47150,67,4.2,2.8
2013,5,24,05:00,UTC,7,1011.1,-1,84,0,-1,11.1,8.5,50000,77,4.6,2.7
2013,5,24,06:00,UTC,7,1011.2,-1,83,0,-1,11.3,8.4,47440,68,5.2,3.7
2013,5,24,07:00,UTC,8,1011.5,-1,81,0,-1,11.6,8.5,43260,52,4.1,3
2013,5,24,08:00,UTC,8,1011.8,-1,81,0,-1,12,8.7,44500,71,5,3
2013,5,24,09:00,UTC,8,1012.4,-1,82,0,-1,11.6,8.7,47890,88,3.7,2.7
2013,5,24,10:00,UTC,8,1012.5,-1,81,0,-1,12.1,8.9,47600,75,4,2.4
2013,5,24,11:00,UTC,8,1012.6,-1,82,0,-1,12.5,9.6,38680,79,3.4,2.3
2013,5,24,12:00,UTC,8,1012.6,-1,75,0,-1,13.4,9.2,39450,76,4.3,2.8
2013,5,24,13:00,UTC,7,1012.5,-1,75,0,-1,13.6,9.2,40900,110,3.5,2.1
2013,5,24,14:00,UTC,7,1012.4,-1,75,0,-1,13.9,9.6,50000,119,3.6,2
2013,5,24,15:00,UTC,8,1012.3,-1,74,0,-1,14.1,9.5,41070,104,4.3,2.8
2013,5,24,16:00,UTC,7,1012.2,-1,74,0,-1,14.1,9.6,50000,110,3.5,2
2013,5,24,17:00,UTC,7,1012.2,-1,75,0,-1,13.9,9.6,50000,110,2.8,1.8
2013,5,24,18:00,UTC,0,1012.2,-1,84,0,-1,12.4,9.9,45360,156,1,0.6
2013,5,24,19:00,UTC,0,1012.6,-1,92,0,-1,10.8,9.6,39720,149,1,0.8
2013,5,24,20:00,UTC,0,1013,-1,96,0,-1,8.5,7.8,24550,0,0.6,0
2013,5,24,21:00,UTC,0,1013.1,-1,97,0,-1,6.8,6.4,12230,307,1.1,0.9
2013,5,24,22:00,UTC,0,1013.4,-1,98,0,-1,5.5,5.2,800,277,1,0.7
2013,5,24,23:00,UTC,1,1013.5,-1,98,0,-1,4.6,4.3,760,314,1.5,1.2
2013,5,25,00:00,UTC,0,1013.5,-1,99,0,-1,4.3,4.1,7110,318,1.7,1.3
2013,5,25,01:00,UTC,7,1013.2,-1,99,0,-1,3.4,3.2,4910,311,1.3,1.1
2013,5,25,02:00,UTC,1,1012.9,-1,99,0,-1,3.8,3.7,4830,326,1.8,1.6
2013,5,25,03:00,UTC,7,1012.8,-1,99,0,-1,5.8,5.6,610,278,1.3,0.8
2013,5,25,04:00,UTC,0,1012.2,-1,99,0,-1,9.8,9.6,34440,330,1.4,0.9
2013,5,25,05:00,UTC,0,1011.9,-1,83,0,-1,13.1,10.2,33480,353,1.8,0.9
2013,5,25,06:00,UTC,0,1011.8,-1,68,0,-1,14.8,9,43310,43,4,2.5
2013,5,25,07:00,UTC,0,1011.9,-1,60,0,-1,16,8.2,39530,30,5.1,3.6
2013,5,25,08:00,UTC,1,1012,-1,50,0,-1,17.6,7.1,42810,51,9.7,3.5
2013,5,25,09:00,UTC,0,1011.8,-1,47,0,-1,18,6.4,40230,66,7.5,4
2013,5,25,10:00,UTC,1,1011.7,-1,44,0,-1,17.7,5.3,39860,38,5.9,3.8
2013,5,25,11:00,UTC,1,1011.2,-1,42,0,-1,19.6,6.3,42010,49,7.2,4.8
2013,5,25,12:00,UTC,0,1011.1,-1,34,0,-1,19.7,3.6,36480,78,7.3,3.9
2013,5,25,13:00,UTC,0,1010.8,-1,33,0,-1,20.6,3.9,32670,60,8.3,4.6
2013,5,25,14:00,UTC,0,1010.8,-1,32,0,-1,20.4,3.2,42000,57,7.5,4.3
2013,5,25,15:00,UTC,0,1010.7,-1,34,0,-1,20.5,4.3,44790,78,7.5,4.5
2013,5,25,16:00,UTC,0,1010.6,-1,34,0,-1,20.2,3.9,38580,82,7.2,4.7
2013,5,25,17:00,UTC,0,1010.9,-1,35,0,-1,19.6,3.7,42750,72,6.3,4
2013,5,25,18:00,UTC,0,1011,-1,39,0,-1,18.7,4.3,45420,66,3.2,2.4
2013,5,25,19:00,UTC,0,1011.3,-1,47,0,-1,16.4,5,50000,28,2.2,1.6
2013,5,25,20:00,UTC,0,1011.9,-1,74,0,-1,11.3,6.8,50000,323,1.9,1.7
2013,5,25,21:00,UTC,0,1012.1,-1,74,0,-1,11.5,7,50000,316,2.4,1.9
2013,5,25,22:00,UTC,0,1012.4,-1,78,0,-1,9.9,6.4,50000,315,2.4,1.9
2013,5,25,23:00,UTC,0,1012.6,-1,84,0,-1,8.9,6.2,50000,317,2.4,1.9
2013,5,26,00:00,UTC,0,1012.7,-1,85,0,-1,8.3,5.9,50000,316,2.7,2.1
2013,5,26,01:00,UTC,0,1012.9,-1,86,0,-1,7.7,5.5,50000,327,3.4,2.8
2013,5,26,02:00,UTC,0,1012.8,-1,85,0,-1,8.4,6.1,42260,324,3.2,2.6
2013,5,26,03:00,UTC,0,1013,-1,83,0,-1,10.3,7.5,34260,326,2.5,1.9
2013,5,26,04:00,UTC,0,1013,-1,68,0,-1,13.5,7.8,41120,337,2.4,2
2013,5,26,05:00,UTC,0,1013,-1,47,0,-1,16.9,5.6,45130,55,4.1,2.5
2013,5,26,06:00,UTC,0,1013.1,-1,41,0,-1,18.7,5.2,39700,79,4.5,3.1
2013,5,26,07:00,UTC,0,1013.1,-1,35,0,-1,20.2,4.1,35480,95,6.3,4
2013,5,26,08:00,UTC,0,1013.4,-1,32,0,-1,20.8,3.3,32840,86,8.1,4.6
2013,5,26,09:00,UTC,0,1013.4,-1,31,0,-1,21.2,3.1,34290,72,8.6,5.7
2013,5,26,10:00,UTC,0,1013.2,-1,28,0,-1,22,2.4,34210,86,11.3,5.9
2013,5,26,11:00,UTC,0,1013.2,-1,25,0,-1,22.6,1.6,42460,97,9.9,5.6
2013,5,26,12:00,UTC,0,1013.3,-1,24,0,-1,22.6,1.1,42260,114,9.6,6.5
2013,5,26,13:00,UTC,0,1013.2,-1,24,0,-1,22.7,0.8,36000,106,9.4,6
2013,5,26,14:00,UTC,0,1013.3,-1,27,0,-1,22,2,36930,105,7,4.7
2013,5,26,15:00,UTC,0,1013.3,-1,25,0,-1,22.4,1.6,38850,98,9.8,6.3
2013,5,26,16:00,UTC,3,1013.4,-1,27,0,-1,21.6,2,47700,98,7.4,5.5
2013,5,26,17:00,UTC,1,1013.6,-1,31,0,-1,21.1,3.2,22270,121,6.6,3.7
2013,5,26,18:00,UTC,0,1014.2,-1,37,0,-1,18.8,3.8,47670,125,2.5,1.6
2013,5,26,19:00,UTC,0,1014.8,-1,41,0,-1,16.6,3.4,50000,113,1.7,1.1
2013,5,26,20:00,UTC,3,1015.5,-1,69,0,-1,12,6.4,50000,0,0.7,0
2013,5,26,21:00,UTC,5,1016.2,-1,73,0,-1,10.9,6.3,50000,84,0.9,0.7
2013,5,26,22:00,UTC,5,1016.7,-1,76,0,-1,9.6,5.6,50000,317,1.2,0.9
2013,5,26,23:00,UTC,0,1017.1,-1,84,0,-1,8.1,5.6,50000,303,1.8,1.5
2013,5,27,00:00,UTC,0,1017.6,-1,90,0,-1,5.8,4.3,50000,334,1.8,1.1
2013,5,27,01:00,UTC,1,1017.6,-1,84,0,-1,8.4,5.8,50000,85,2.3,0.9
2013,5,27,02:00,UTC,0,1017.6,-1,68,0,-1,11.8,6.1,47680,142,3.7,1.8
2013,5,27,03:00,UTC,0,1017.8,-1,63,0,-1,13.4,6.6,43660,122,5.8,3.2
2013,5,27,04:00,UTC,5,1017.8,-1,59,0,-1,15.4,7.4,34270,125,5,3
2013,5,27,05:00,UTC,3,1018.1,-1,62,0,-1,15.3,8,25840,111,6.1,3.7
2013,5,27,06:00,UTC,8,1018.4,-1,64,0,-1,14.9,8.2,36450,118,4.7,2.9
2013,5,27,07:00,UTC,8,1018.8,-1,65,0,-1,15.5,9,25750,129,4.1,2.1
2013,5,27,08:00,UTC,7,1018.7,-1,55,0,-1,18,9,34800,107,8,5.5
2013,5,27,09:00,UTC,7,1018.7,-1,56,0,-1,18.2,9.4,36890,103,8.5,5.2
2013,5,27,10:00,UTC,7,1018.8,-1,53,0,-1,19.6,9.8,31480,104,8.1,5.3
2013,5,27,11:00,UTC,7,1019.1,-1,55,0,-1,18.5,9.2,33540,164,8.1,3.8
2013,5,27,12:00,UTC,7,1019.4,-1,55,0,-1,18.6,9.3,34540,127,10.3,5.1
2013,5,27,13:00,UTC,7,1019.3,-1,50,0,-1,18.5,7.8,40990,126,8.8,4.6
2013,5,27,14:00,UTC,7,1018.9,-1,43,0,-1,20.2,7.2,39420,157,5.1,2.3
2013,5,27,15:00,UTC,5,1018.6,-1,44,0,-1,20.3,7.5,42020,191,3.4,1.6
2013,5,27,16:00,UTC,1,1018.5,-1,42,0,-1,20.8,7.4,37760,215,1.8,0.9
2013,5,27,17:00,UTC,1,1018.3,-1,42,0,-1,20.7,7.3,39950,75,4.4,2.2
2013,5,27,18:00,UTC,0,1018.4,-1,43,0,-1,19.9,6.9,44570,76,3.7,2.1
2013,5,27,19:00,UTC,0,1018.9,-1,53,0,-1,17.1,7.5,37670,110,3.3,2.4
2013,5,27,20:00,UTC,0,1019.4,-1,69,0,-1,13.7,8,42460,113,1.6,1.1
2013,5,27,21:00,UTC,0,1020,-1,82,0,-1,10,7.1,50000,324,0.9,0.8
2013,5,27,22:00,UTC,0,1020.6,-1,86,0,-1,8.8,6.5,42430,306,1.1,0.9
2013,5,27,23:00,UTC,1,1021,-1,92,0,-1,7.4,6.3,40270,314,1.4,1.1
2013,5,28,00:00,UTC,1,1021.2,-1,93,0,-1,7.1,6.1,43150,311,1.2,0.8
2013,5,28,01:00,UTC,7,1021,-1,93,0,-1,7.3,6.2,33590,302,2.2,1.9
2013,5,28,02:00,UTC,8,1021,-1,90,0,-1,9.4,7.9,32760,301,1.5,1.3
2013,5,28,03:00,UTC,7,1020.7,-1,75,0,-1,12.1,7.9,43230,305,1.9,1.6
2013,5,28,04:00,UTC,7,1020.6,-1,70,0,-1,14.2,8.9,46960,307,1.4,1
2013,5,28,05:00,UTC,7,1020.5,-1,57,0,-1,16.2,7.8,40190,83,3.6,2.5
2013,5,28,06:00,UTC,3,1020.3,-1,43,0,-1,19.3,6.4,33030,87,4.9,3.3
2013,5,28,07:00,UTC,0,1020.2,-1,35,0,-1,20.4,4.2,34930,85,5.8,3.9
2013,5,28,08:00,UTC,0,1020.2,-1,34,0,-1,20.7,4.4,28140,89,8.4,5.8
2013,5,28,09:00,UTC,0,1020.1,-1,29,0,-1,20.2,1.5,29680,104,8,4.6
2013,5,28,10:00,UTC,0,1019.8,-1,29,0,-1,21.5,2.5,33860,94,8.3,4.3
2013,5,28,11:00,UTC,0,1019.4,-1,30,0,-1,22.2,3.8,27760,110,8.7,4.7
2013,5,28,12:00,UTC,1,1018.7,-1,31,0,-1,22.6,4.7,40770,103,6.8,4.3
2013,5,28,13:00,UTC,0,1018.6,-1,29,0,-1,22.8,3.7,41290,78,8.5,5.6
2013,5,28,14:00,UTC,0,1018.5,-1,28,0,-1,22.4,2.9,32950,105,8.6,6.5
2013,5,28,15:00,UTC,0,1018.2,-1,26,0,-1,22.1,1.5,39930,109,7.8,5
2013,5,28,16:00,UTC,0,1018,-1,26,0,-1,21.9,1.4,40550,118,7.4,4.6
2013,5,28,17:00,UTC,0,1017.9,-1,26,0,-1,21.6,1,40740,117,5.9,3.4
2013,5,28,18:00,UTC,1,1017.9,-1,29,0,-1,20.4,1.5,44460,131,4.1,2.5
2013,5,28,19:00,UTC,0,1018.1,-1,36,0,-1,17.4,2.4,46520,83,1.9,1.4
2013,5,28,20:00,UTC,0,1018.6,-1,63,0,-1,12.5,5.7,48140,306,1.5,1.1
2013,5,28,21:00,UTC,0,1018.8,-1,62,0,-1,12,5,50000,0,1.7,0
2013,5,28,22:00,UTC,0,1019.2,-1,81,0,-1,8,4.9,47440,308,1.8,1.3
2013,5,28,23:00,UTC,0,1019.1,-1,84,0,-1,7.3,4.8,48860,302,1.8,1.5
2013,5,29,00:00,UTC,0,1019,-1,88,0,-1,6.3,4.4,50000,301,1.8,1.5
2013,5,29,01:00,UTC,0,1019,-1,89,0,-1,6.4,4.7,44620,305,2.3,1.7
2013,5,29,02:00,UTC,0,1018.8,-1,74,0,-1,10,5.6,31220,315,2.2,1.9
2013,5,29,03:00,UTC,0,1018.5,-1,68,0,-1,11.6,6,34190,307,1.9,1.3
2013,5,29,04:00,UTC,1,1018.2,-1,58,0,-1,13.7,5.5,34680,27,2.5,1.4
2013,5,29,05:00,UTC,7,1018,-1,55,0,-1,15.5,6.4,36630,59,3.4,2.2
2013,5,29,06:00,UTC,7,1017.7,-1,50,0,-1,17.4,6.8,30470,64,4.3,2.9
2013,5,29,07:00,UTC,3,1017.6,-1,41,0,-1,18.9,5.5,31990,72,6.5,4.5
2013,5,29,08:00,UTC,1,1017.2,-1,35,0,-1,20.6,4.5,35020,75,8.9,5.9
2013,5,29,09:00,UTC,1,1017,-1,34,0,-1,21.5,4.8,25260,98,8.5,5.1
2013,5,29,10:00,UTC,3,1016.3,-1,33,0,-1,22.4,5.2,25630,84,7.7,4.8
2013,5,29,11:00,UTC,0,1016.1,-1,33,0,-1,22.6,5.4,29900,82,8.2,5
2013,5,29,12:00,UTC,0,1015.6,-1,32,0,-1,23.8,6.1,24990,86,7.9,4.2
2013,5,29,13:00,UTC,0,1015.2,-1,31,0,-1,23.9,5.7,34650,65,8.4,5.7
2013,5,29,14:00,UTC,0,1014.8,-1,30,0,-1,24.2,5.3,33410,92,6,3.8
2013,5,29,15:00,UTC,1,1014.4,-1,30,0,-1,24.3,5.4,41540,77,8.1,5.3
2013,5,29,16:00,UTC,0,1014.1,-1,29,0,-1,23.9,4.9,34350,66,8.4,5.2
2013,5,29,17:00,UTC,0,1013.9,-1,29,0,-1,23.4,4.3,41080,92,6.3,4.4
2013,5,29,18:00,UTC,0,1013.9,-1,31,0,-1,22.4,4.5,39330,71,4.6,2.7
2013,5,29,19:00,UTC,0,1014.3,-1,34,0,-1,20.5,4.3,34130,76,4,2.5
2013,5,29,20:00,UTC,0,1014.5,-1,39,0,-1,18.2,3.9,50000,54,3.3,2.2
2013,5,29,21:00,UTC,0,1014.7,-1,58,0,-1,14.5,6.2,47830,322,2,1.6
2013,5,29,22:00,UTC,1,1015.1,-1,69,0,-1,11.6,6,47490,306,2,1.5
2013,5,29,23:00,UTC,3,1015,-1,67,0,-1,11.8,5.9,21990,313,2.3,2
2013,5,30,00:00,UTC,1,1014.7,-1,67,0,-1,11.4,5.5,17420,309,2.8,2
2013,5,30,01:00,UTC,0,1014.5,-1,63,0,-1,12.3,5.4,22530,322,3.1,2.2
2013,5,30,02:00,UTC,0,1014.5,-1,59,0,-1,13.3,5.5,42010,313,2.7,2
2013,5,30,03:00,UTC,0,1014.3,-1,56,0,-1,14.6,6,43190,307,2.5,2
2013,5,30,04:00,UTC,0,1014.2,-1,47,0,-1,17.3,5.8,27370,41,3.5,2.4
2013,5,30,05:00,UTC,0,1014.2,-1,44,0,-1,18.7,6.4,33090,51,3.5,2.5
2013,5,30,06:00,UTC,0,1014.1,-1,41,0,-1,20,6.3,32100,34,4.5,2.7
2013,5,30,07:00,UTC,0,1014,,38,,-1,21.3,6.3,31770,33,5.3,3.1
2013,5,30,08:00,UTC,1,1013.9,,35,,-1,23.4,6.9,35610,72,7.4,4
2013,5,30,09:00,UTC,1,1013.9,,31,,-1,24.3,6.3,34130,102,7.1,5.3
2013,5,30,10:00,UTC,1,1014.2,,28,0,-1,25,5.3,29080,90,9.3,6.6
2013,5,30,11:00,UTC,5,1014.5,-1,37,0,-1,23.5,8,13080,135,7.1,3.7
2013,5,30,12:00,UTC,7,1014.7,-1,42,0,-1,22.2,8.9,11710,123,3.2,1.7
2013,5,30,13:00,UTC,7,1014.7,-1,42,0,-1,22.3,8.9,44080,138,3.1,2
2013,5,30,14:00,UTC,1,1014.1,-1,28,0,-1,24.2,4.6,29700,119,6.5,4.1
2013,5,30,15:00,UTC,7,1014,-1,34,0,-1,23.5,6.6,41870,135,5.5,2.9
2013,5,30,16:00,UTC,7,1013.9,-1,40,0,-1,23.2,8.7,32600,120,3.2,1.8
2013,5,30,17:00,UTC,7,1013.8,-1,47,0,-1,21.7,9.8,50000,149,1.8,1.1
2013,5,30,18:00,UTC,7,1014.2,-1,58,0,-1,20.2,11.6,40000,146,3.2,1.6
2013,5,30,19:00,UTC,7,1014.8,-1,66,0,-1,18.9,12.3,41330,152,3.9,1.6
2013,5,30,20:00,UTC,7,1015.2,-1,71,0,-1,17.6,12.3,43560,115,2,1.6
2013,5,30,21:00,UTC,7,1015.3,-1,77,0,-1,16.5,12.4,39050,348,1.2,0.9
2013,5,30,22:00,UTC,7,1015.1,-1,81,0,-1,15.7,12.4,42010,319,1.2,0.8
2013,5,30,23:00,UTC,7,1015.3,-1,80,0,-1,15.1,11.7,44780,101,1.5,0.8
2013,5,31,00:00,UTC,7,1015.3,-1,81,0,-1,14.5,11.4,45620,101,1.2,0.8
2013,5,31,01:00,UTC,3,1015.3,-1,89,0,-1,13,11.2,35820,0,0.9,0
2013,5,31,02:00,UTC,0,1015.4,-1,91,0,-1,12.1,10.7,31930,79,0.8,0.6
2013,5,31,03:00,UTC,3,1015.4,-1,83,0,-1,15,12,36920,110,1.8,1.2
2013,5,31,04:00,UTC,0,1015.3,-1,78,0,-1,16.1,12.3,32200,105,3.4,2.5
2013,5,31,05:00,UTC,1,1015.5,-1,79,0,-1,16.2,12.5,14110,100,3.4,2.6
2013,5,31,06:00,UTC,1,1015.5,-1,75,0,-1,17.7,13.3,12480,108,4.9,2.9
2013,5,31,07:00,UTC,1,1015.5,-1,65,0,-1,19.2,12.5,15240,109,5.7,3.2
2013,5,31,08:00,UTC,1,1015.4,-1,64,0,-1,19.8,12.8,14390,99,6.6,3.5
2013,5,31,09:00,UTC,1,1015.4,-1,56,0,-1,21.3,12.2,25170,112,5.3,3.6
2013,5,31,10:00,UTC,3,1015.1,-1,49,0,-1,21.8,10.7,18110,141,6.9,3.3
2013,5,31,11:00,UTC,5,1014.9,-1,52,0,-1,21.5,11.2,26260,88,6.6,4.1
2013,5,31,12:00,UTC,5,1014.5,-1,44,0,-1,22.6,9.8,17390,114,4.8,2.9
2013,5,31,13:00,UTC,1,1014.4,-1,50,0,-1,22.5,11.4,29240,160,5.1,2.7
2013,5,31,14:00,UTC,5,1015,-1,57,0,-1,20.1,11.3,27950,164,6.8,3.5
2013,5,31,15:00,UTC,3,1015,-1,56,0,-1,20.8,11.8,23000,21,2.4,1.3
2013,5,31,16:00,UTC,1,1014.5,-1,51,0,-1,21.4,10.7,43970,155,3.8,1.6
2013,5,31,17:00,UTC,7,1014.8,-1,48,0,-1,21,9.5,41680,132,4.7,2.3
2013,5,31,18:00,UTC,3,1014.8,-1,55,0,-1,19.1,9.9,49220,126,3.4,2.2
2013,5,31,19:00,UTC,0,1015.4,-1,72,0,-1,16.1,11,48420,0,0.4,0
2013,5,31,20:00,UTC,0,1015.8,-1,81,0,-1,14.3,11.1,48670,298,1.6,1.2
2013,5,31,21:00,UTC,0,1016,-1,92,0,-1,13.3,12,32170,306,1.7,1.3
2013,5,31,22:00,UTC,0,1016.3,-1,93,0,-1,10.8,9.8,25650,317,1.8,1.4
2013,5,31,23:00,UTC,0,1016.6,-1,95,0,-1,10.3,9.6,23380,291,1,0.7
2013,6,1,00:00,UTC,0,1016.9,-1,96,0,-1,9.4,8.8,16490,307,1.4,1.1
2013,6,1,01:00,UTC,0,1017.2,-1,96,0,-1,8.3,7.8,12990,306,1.1,0.9
2013,6,1,02:00,UTC,0,1017.2,-1,96,0,-1,10.1,9.5,17180,321,1.7,1.5
2013,6,1,03:00,UTC,0,1017.1,-1,89,0,-1,13.3,11.5,24920,0,0.5,0
2013,6,1,04:00,UTC,0,1017.1,-1,75,0,-1,16.1,11.7,40110,115,3.1,1.9
2013,6,1,05:00,UTC,0,1016.9,-1,67,0,-1,18.7,12.5,34750,103,4.3,2.7
2013,6,1,06:00,UTC,1,1016.8,-1,62,0,-1,19.7,12.2,34860,94,5.2,3.5
2013,6,1,07:00,UTC,3,1016.7,-1,62,0,-1,20,12.5,41910,101,5,3.5
2013,6,1,08:00,UTC,3,1016.9,-1,56,0,-1,20.8,11.7,43300,108,6.2,3.9
2013,6,1,09:00,UTC,5,1017,-1,58,0,-1,21,12.5,41230,130,4.9,2.9
2013,6,1,10:00,UTC,7,1016.8,-1,59,0,-1,21.4,13.1,32950,168,2.1,1.1
2013,6,1,11:00,UTC,7,1016.8,-1,59,0,-1,21.2,12.7,37610,120,5.4,2.5
2013,6,1,12:00,UTC,7,1016.6,-1,62,0,-1,21,13.4,40510,73,2.1,1.3
2013,6,1,13:00,UTC,7,1016.2,-1,64,0,-1,21.7,14.6,21630,82,4,2.5
2013,6,1,14:00,UTC,5,1015.6,-1,43,0,-1,23.9,10.4,29410,112,5.3,3.3
2013,6,1,15:00,UTC,0,1015.3,-1,40,0,-1,24,9.5,38330,122,6.9,3.8
2013,6,1,16:00,UTC,0,1015.2,-1,38,0,-1,24,8.7,36660,134,6.8,3.3
2013,6,1,17:00,UTC,0,1015.3,-1,37,0,-1,23.3,7.9,39580,132,5.6,3
2013,6,1,18:00,UTC,0,1015.6,-1,40,0,-1,22.1,7.9,33300,126,4.3,2.8
2013,6,1,19:00,UTC,0,1016.1,-1,59,0,-1,18.8,10.7,48640,127,1.5,0.9
2013,6,1,20:00,UTC,0,1016.3,-1,72,0,-1,15.7,10.7,50000,318,1.2,0.9
2013,6,1,21:00,UTC,0,1016.7,-1,83,0,-1,13.6,10.8,42660,308,1.2,0.9
2013,6,1,22:00,UTC,3,1016.9,-1,88,0,-1,11.9,10,39640,315,1.1,1
2013,6,1,23:00,UTC,0,1017,-1,91,0,-1,10.6,9.3,30940,0,0.8,0
2013,6,2,00:00,UTC,0,1017.2,-1,91,0,-1,10.1,8.8,30450,0,0.9,0
2013,6,2,01:00,UTC,0,1017.2,-1,93,0,-1,8.6,7.6,24780,0,0.5,0
2013,6,2,02:00,UTC,0,1017.1,-1,95,0,-1,9.9,9.2,20570,0,0.6,0
2013,6,2,03:00,UTC,0,1017.4,-1,89,0,-1,11.9,10.2,31210,313,0.8,0.6
2013,6,2,04:00,UTC,0,1017,-1,72,0,-1,16.7,11.7,22240,0,0.7,0
2013,6,2,05:00,UTC,0,1016.9,-1,61,0,-1,18.8,11.2,31830,136,2.7,1.4
2013,6,2,06:00,UTC,0,1016.9,-1,57,0,-1,20.4,11.6,26570,143,3.3,2
2013,6,2,07:00,UTC,0,1016.9,-1,51,0,-1,22.4,11.8,38660,149,3.6,2
2013,6,2,08:00,UTC,1,1016.9,-1,46,0,-1,23.4,11,30450,122,4.8,3
2013,6,2,09:00,UTC,1,1016.9,-1,41,0,-1,24.3,10.1,33990,113,6.3,4
2013,6,2,10:00,UTC,1,1016.5,-1,38,0,-1,25.1,9.7,29120,120,5.6,3.1
2013,6,2,11:00,UTC,1,1016.5,-1,39,0,-1,25.7,10.7,31270,161,5.8,2.5
2013,6,2,12:00,UTC,1,1016.3,-1,35,0,-1,26.5,9.8,38560,153,5.3,2.5
2013,6,2,13:00,UTC,0,1016,-1,33,0,-1,26.7,9.2,33130,198,4,1.9
2013,6,2,14:00,UTC,1,1015.9,-1,31,0,-1,26.9,8.5,42540,174,4.5,2.5
2013,6,2,15:00,UTC,7,1015.8,-1,36,0,-1,26.2,9.9,41250,164,4,2
2013,6,2,16:00,UTC,0,1015.6,-1,34,0,-1,26.5,9.3,38860,161,3.2,1.5
2013,6,2,17:00,UTC,0,1015.9,-1,35,0,-1,25.7,9.1,43770,157,2.1,0.9
2013,6,2,18:00,UTC,0,1016.1,-1,42,0,-1,23.6,10,37500,126,1.3,1.1
2013,6,2,19:00,UTC,0,1016.7,-1,54,0,-1,21.1,11.3,44110,0,0.3,0
2013,6,2,20:00,UTC,0,1017.2,-1,72,0,-1,16.9,11.9,36080,323,0.9,0.7
2013,6,2,21:00,UTC,0,1017.4,-1,81,0,-1,15.6,12.3,33890,0,0.8,0
2013,6,2,22:00,UTC,0,1017.4,-1,88,0,-1,13.4,11.4,24900,302,1.3,1.1
2013,6,2,23:00,UTC,0,1017.5,-1,91,0,-1,12.9,11.4,21790,321,1.2,1
2013,6,3,00:00,UTC,0,1017.6,-1,92,0,-1,12.4,11.1,21460,0,0.8,0
2013,6,3,01:00,UTC,0,1017.6,-1,95,0,-1,11.7,11,13520,306,1.1,1
2013,6,3,02:00,UTC,0,1017.5,-1,94,0,-1,12.1,11.2,15950,0,0.2,0
2013,6,3,03:00,UTC,1,1017.4,-1,88,0,-1,14.8,12.8,21380,0,0.3,0
2013,6,3,04:00,UTC,0,1017.3,-1,73,0,-1,17.7,12.7,27430,148,1.6,0.9
2013,6,3,05:00,UTC,0,1017.3,-1,66,0,-1,20,13.3,26140,135,2.7,1.8
2013,6,3,06:00,UTC,0,1017.3,-1,60,0,-1,21.8,13.7,29870,119,3,1.9
2013,6,3,07:00,UTC,1,1017,-1,53,0,-1,23.7,13.5,31050,122,4.1,2.5
2013,6,3,08:00,UTC,0,1016.7,-1,38,0,-1,25.3,10.1,28890,127,3.9,2.4
2013,6,3,09:00,UTC,3,1016.5,-1,38,0,-1,26.2,10.6,32070,136,6,3
2013,6,3,10:00,UTC,1,1016.1,-1,33,0,-1,26.8,9,30420,159,7.6,3.8
2013,6,3,11:00,UTC,1,1015.9,-1,32,0,-1,26.7,8.7,25510,142,7.9,4.8
2013,6,3,12:00,UTC,1,1015.5,-1,31,0,-1,26.9,8.4,30390,147,6.9,4.1
2013,6,3,13:00,UTC,1,1015,-1,30,0,-1,27.5,8.5,29910,156,6.1,2.6
2013,6,3,14:00,UTC,7,1014.8,-1,28,0,-1,27.5,7.5,30740,210,5.5,2.8
2013,6,3,15:00,UTC,5,1014.6,-1,24,0,-1,27.9,5.4,43440,160,7.5,3
2013,6,3,16:00,UTC,7,1014.4,-1,25,0,-1,27.4,5.8,31760,191,7.3,3.4
2013,6,3,17:00,UTC,3,1014.8,-1,41,0,-1,24,10,37890,297,9.8,5.9
2013,6,3,18:00,UTC,1,1015.4,-1,48,0,-1,22,10.4,42480,295,8.3,5.1
2013,6,3,19:00,UTC,3,1015.7,-1,61,0,-1,19.4,11.6,36140,316,1.5,1
2013,6,3,20:00,UTC,3,1015.8,-1,67,0,-1,18,11.8,45280,317,2.7,2.1
2013,6,3,21:00,UTC,1,1016,-1,77,0,-1,16.1,12,32790,315,1.7,1.3
2013,6,3,22:00,UTC,0,1016.3,-1,89,0,-1,12.8,11.1,30180,192,1.2,0.7
2013,6,3,23:00,UTC,0,1016.1,-1,90,0,-1,13.4,11.9,26540,311,2.2,2
2013,6,4,00:00,UTC,1,1016.2,-1,95,0,-1,11.1,10.3,14260,303,2.5,2.2
2013,6,4,01:00,UTC,1,1016.1,-1,97,0,-1,12.1,11.6,14040,308,2.8,2
2013,6,4,02:00,UTC,3,1016.1,-1,94,0,-1,13.1,12.2,15150,327,2.5,1.9
2013,6,4,03:00,UTC,1,1016.1,-1,93,0,-1,14.8,13.7,19710,298,2.4,1.6
2013,6,4,04:00,UTC,0,1015.9,-1,87,0,-1,17.1,14.9,22910,328,5.1,4
2013,6,4,05:00,UTC,1,1016,-1,87,0,-1,16.9,14.7,19120,358,4.8,3.4
2013,6,4,06:00,UTC,0,1015.9,-1,80,0,-1,19,15.5,25740,338,5.1,3.9
2013,6,4,07:00,UTC,0,1015.8,-1,73,0,-1,21.1,16,20250,351,5.9,3.9
2013,6,4,08:00,UTC,0,1015.9,-1,68,0,-1,21.8,15.7,21190,358,7.1,4.7
2013,6,4,09:00,UTC,0,1015.9,-1,60,0,-1,23.7,15.4,21310,337,6.3,4.2
2013,6,4,10:00,UTC,1,1016,-1,55,0,-1,23.9,14.2,26740,336,7,4.6
2013,6,4,11:00,UTC,1,1015.9,-1,52,0,-1,25.2,14.7,20240,5,7.3,4.2
2013,6,4,12:00,UTC,5,1015.8,-1,36,0,-1,26,9.8,29770,16,5.3,3
2013,6,4,13:00,UTC,3,1015.7,-1,39,0,-1,26.5,11.3,28040,18,5.1,3.2
2013,6,4,14:00,UTC,1,1016.1,-1,46,0,-1,23.8,11.5,42190,28,5.3,3.3
2013,6,4,15:00,UTC,0,1016,-1,35,0,-1,25.9,9.1,38640,39,4.5,3
2013,6,4,16:00,UTC,0,1016.3,-1,41,0,-1,25.4,11.3,26820,35,7.1,4.7
2013,6,4,17:00,UTC,0,1016.8,-1,44,0,-1,24.9,11.9,30020,33,6,4.1
2013,6,4,18:00,UTC,3,1017.3,-1,45,0,-1,24,11.4,33290,40,5.4,3.5
2013,6,4,19:00,UTC,7,1018,-1,55,0,-1,22.2,12.8,25650,347,1.3,0.6
2013,6,4,20:00,UTC,0,1018.3,-1,65,0,-1,19.3,12.5,37710,328,3.6,2.6
2013,6,4,21:00,UTC,1,1018.8,-1,74,0,-1,18,13.2,30840,324,3.4,2.8
2013,6,4,22:00,UTC,1,1019,-1,77,0,-1,17.5,13.5,29550,327,3.3,2.6
2013,6,4,23:00,UTC,0,1019.5,-1,80,0,-1,16.7,13.1,33750,323,4,3
2013,6,5,00:00,UTC,0,1019.7,-1,86,0,-1,15.6,13.2,24530,343,3.5,2.8
2013,6,5,01:00,UTC,0,1020,-1,89,0,-1,14.8,12.9,21070,337,3.8,3
2013,6,5,02:00,UTC,0,1020.2,-1,89,0,-1,14.6,12.8,20930,335,3.6,2.9
2013,6,5,03:00,UTC,0,1020.6,-1,87,0,-1,16.2,14.1,22430,340,3.3,2.4
2013,6,5,04:00,UTC,0,1020.7,-1,75,0,-1,18.5,14,26410,37,3.4,2.5
2013,6,5,05:00,UTC,1,1020.9,-1,68,0,-1,20.1,13.9,24690,66,4.2,2.5
2013,6,5,06:00,UTC,0,1021,-1,60,0,-1,22,14,25520,80,4.9,3.2
2013,6,5,07:00,UTC,0,1020.9,-1,56,0,-1,22.8,13.6,25390,68,4.7,3.5
2013,6,5,08:00,UTC,0,1021.1,-1,48,0,-1,24.2,12.5,25440,63,5.8,3.9
2013,6,5,09:00,UTC,0,1021.2,-1,46,0,-1,24.7,12.4,28140,68,5.3,3.1
2013,6,5,10:00,UTC,1,1021.1,-1,42,0,-1,25.7,12,25880,114,7.3,4.4
2013,6,5,11:00,UTC,0,1020.9,-1,39,0,-1,26.5,11.6,20850,103,6.7,4.3
2013,6,5,12:00,UTC,1,1020.6,-1,37,0,-1,26.9,10.9,30900,107,5.8,3.1
2013,6,5,13:00,UTC,1,1020.7,-1,38,0,-1,25.5,10.1,32830,87,8.3,5.7
2013,6,5,14:00,UTC,3,1021.3,-1,44,0,-1,23.5,10.7,33630,210,5.6,2.1
2013,6,5,15:00,UTC,1,1021.7,-1,49,0,-1,22.8,11.6,38720,313,2,1.3
2013,6,5,16:00,UTC,3,1022,-1,56,0,-1,21.4,12.4,36370,336,4.9,3.6
2013,6,5,17:00,UTC,0,1021.6,-1,56,0,-1,22.4,13.1,41230,340,4,2.6
2013,6,5,18:00,UTC,1,1022,-1,62,0,-1,21.4,13.8,37430,325,3,2.1
2013,6,5,19:00,UTC,5,1022.2,-1,65,0,-1,21.2,14.4,24920,110,2.7,1.3
2013,6,5,20:00,UTC,5,1022.9,-1,69,0,-1,19.6,13.8,34690,269,3.2,1.6
2013,6,5,21:00,UTC,0,1022.9,-1,77,0,-1,17.2,13.1,34280,328,3.5,1.9
2013,6,5,22:00,UTC,0,1023.3,-1,84,0,-1,15.7,13,35410,0,0.4,0
2013,6,5,23:00,UTC,1,1023.3,-1,88,0,-1,14.1,12.1,27860,252,1.1,0.8
2013,6,6,00:00,UTC,5,1023.6,-1,92,0,-1,14.4,13.2,18600,333,3.9,2.3
2013,6,6,01:00,UTC,7,1023.3,4.1,94,2,-1,15.2,14.2,13370,132,5.2,2.9
2013,6,6,02:00,UTC,7,1023.3,7.2,97,30.3,-1,14.6,14.1,1290,228,4,2.4
2013,6,6,03:00,UTC,7,1023.1,2.8,96,0.3,-1,15.3,14.6,15660,345,3.5,2.2
2013,6,6,04:00,UTC,3,1023.5,0.1,98,0,-1,15.4,15.1,11020,51,1.8,1.3
2013,6,6,05:00,UTC,3,1023.6,-1,87,0,-1,17.4,15.2,19680,187,2,1.1
2013,6,6,06:00,UTC,0,1023.1,-1,67,0,-1,19.3,13.1,26250,129,2.3,1.3
2013,6,6,07:00,UTC,3,1022.8,-1,69,0,-1,20.9,15,24810,28,2.3,1.1
2013,6,6,08:00,UTC,7,1022.8,-1,69,0,-1,21,15.1,27120,72,3.1,2
2013,6,6,09:00,UTC,7,1022.7,-1,57,0,-1,22.1,13.3,39350,24,3.5,1.9
2013,6,6,10:00,UTC,7,1022.6,-1,81,0,-1,19.5,16.2,13320,353,3.6,2.7
2013,6,6,11:00,UTC,7,1022.8,1.1,93,0,-1,17.5,16.5,17750,271,3.1,1.4
2013,6,6,12:00,UTC,7,1021.8,0.2,95,0.4,-1,18.7,17.9,12430,176,1,0.6
2013,6,6,13:00,UTC,7,1022.1,-1,87,0,-1,19.8,17.5,22330,232,2.9,1.5
2013,6,6,14:00,UTC,1,1021.5,-1,78,0,-1,19.8,15.9,30560,203,2.1,1.1
2013,6,6,15:00,UTC,5,1021.5,-1,80,0,-1,19.5,16,34400,230,2.9,1.6
2013,6,6,16:00,UTC,7,1021.2,-1,76,0,-1,19,14.7,33060,210,2.4,1.4
2013,6,6,17:00,UTC,7,1021.1,-1,79,0,-1,18.4,14.8,34780,274,1.7,0.9
2013,6,6,18:00,UTC,3,1020.8,-1,87,0,-1,17.1,14.9,31380,0,0.9,0
2013,6,6,19:00,UTC,1,1020.8,-1,93,0,-1,15.7,14.5,16660,0,0.8,0
2013,6,6,20:00,UTC,1,1020.9,-1,97,0,-1,14.4,13.9,6300,0,0.7,0
2013,6,6,21:00,UTC,0,1021.2,-1,98,0,-1,13.4,13.1,2150,0,1.4,0
2013,6,6,22:00,UTC,9,1021.3,-1,99,0,-1,13,12.9,720,149,1.8,1.5
2013,6,6,23:00,UTC,3,1021.3,-1,99,0,-1,11.9,11.7,160,0,0.5,0
2013,6,7,00:00,UTC,7,1021.2,-1,99,0,-1,11.1,10.9,270,299,1.1,0.8
2013,6,7,01:00,UTC,5,1021.1,-1,99,0,-1,11.5,11.4,2090,0,0.6,0
2013,6,7,02:00,UTC,3,1020.6,-1,99,0,-1,11.8,11.7,9480,312,1.2,0.9
2013,6,7,03:00,UTC,0,1020.3,-1,99,0,-1,13.5,13.3,17390,139,1.3,0.8
2013,6,7,04:00,UTC,7,1020.1,-1,92,0,-1,14.5,13.2,23990,137,2.3,1.3
2013,6,7,05:00,UTC,0,1019.4,-1,77,0,-1,16.4,12.4,28960,129,3.8,2
2013,6,7,06:00,UTC,7,1019.2,-1,74,0,-1,17.1,12.4,27600,145,3,1.5
2013,6,7,07:00,UTC,7,1019.2,-1,70,0,-1,17.4,11.9,32590,137,4.4,2.5
2013,6,7,08:00,UTC,5,1019,-1,70,0,-1,17.9,12.3,25950,139,4.7,2.7
2013,6,7,09:00,UTC,7,1018.6,-1,68,0,-1,19.7,13.5,30900,150,5.6,3
2013,6,7,10:00,UTC,3,1017.8,-1,67,0,-1,20.7,14.3,30310,127,5.2,3.3
2013,6,7,11:00,UTC,3,1017.1,-1,57,0,-1,21.1,12.3,22920,140,5.1,2.8
2013,6,7,12:00,UTC,5,1016,-1,56,0,-1,21,11.9,29670,158,4.8,2.4
2013,6,7,13:00,UTC,7,1016.3,-1,91,0,-1,16.8,15.3,16770,319,7.2,5.3
2013,6,7,14:00,UTC,7,1016.4,3.3,94,1,-1,15.1,14.2,20150,304,2.2,1.7
2013,6,7,15:00,UTC,7,1016.8,0.4,91,2.3,-1,13.7,12.3,6690,271,4.2,2
2013,6,7,16:00,UTC,7,1015.7,3.1,94,1.4,-1,13.6,12.6,25170,84,6.8,4.1
2013,6,7,17:00,UTC,7,1015.6,0.1,97,0,-1,13.2,12.7,21000,194,3.7,2.3
2013,6,7,18:00,UTC,7,1014.6,0.2,97,0,-1,13.3,12.8,15130,166,3.9,2
2013,6,7,19:00,UTC,7,1014.6,-1,98,0,-1,13.4,13,12980,66,2,1.3
2013,6,7,20:00,UTC,5,1014.8,-1,98,0,-1,12.5,12.3,1850,226,1,0.7
2013,6,7,21:00,UTC,1,1014.8,-1,99,0,-1,11.3,11.1,230,0,0.8,0
2013,6,7,22:00,UTC,9,1014.5,-1,99,0,-1,11.1,10.9,190,173,1.1,0.8
2013,6,7,23:00,UTC,3,1014,-1,99,0,-1,10.1,10,720,170,1.1,0.8
2013,6,8,00:00,UTC,9,1013.5,-1,99,0,-1,9.8,9.6,190,164,1.4,1.1
2013,6,8,01:00,UTC,9,1013.1,-1,99,0,-1,10.6,10.5,140,186,1.5,0.7
2013,6,8,02:00,UTC,8,1012.5,-1,99,0,-1,11.3,11.2,430,144,1,0.7
2013,6,8,03:00,UTC,8,1012.4,-1,99,0,-1,12.1,12,1390,130,1.4,1.1
2013,6,8,04:00,UTC,7,1012,-1,99,0,-1,12.7,12.6,6020,116,2.3,1.1
2013,6,8,05:00,UTC,8,1011.9,-1,99,0,-1,13,12.9,10120,208,3,1.4
2013,6,8,06:00,UTC,8,1011.7,-1,95,0,-1,14.6,13.8,16800,135,2.8,1.7
2013,6,8,07:00,UTC,7,1011.4,-1,85,0,-1,16,13.4,22710,220,3.3,1.7
2013,6,8,08:00,UTC,3,1011.1,-1,72,0,-1,18.9,13.7,25480,180,2.9,1.3
2013,6,8,09:00,UTC,3,1010.8,-1,62,0,-1,19.2,11.7,32100,125,4.3,1.9
2013,6,8,10:00,UTC,3,1010.2,-1,60,0,-1,20,12.1,28350,132,4.4,1.8
2013,6,8,11:00,UTC,3,1009.8,-1,48,0,-1,20.9,9.3,34270,171,5.5,3.1
2013,6,8,12:00,UTC,3,1009.3,-1,49,0,-1,20.6,9.4,41920,146,3.3,1.6
2013,6,8,13:00,UTC,3,1008.9,-1,45,0,-1,20.8,8.5,44050,162,5.1,2.4
2013,6,8,14:00,UTC,3,1008.2,-1,43,0,-1,21.9,8.9,35960,146,4.9,2.9
2013,6,8,15:00,UTC,1,1007.7,-1,38,0,-1,22.1,7.2,42300,159,6.1,2.3
2013,6,8,16:00,UTC,3,1007.3,-1,38,0,-1,22.1,7,38610,173,5.2,2.3
2013,6,8,17:00,UTC,1,1007.2,-1,52,0,-1,19.4,9.3,47390,171,2.7,1.2
2013,6,8,18:00,UTC,0,1007.3,-1,61,0,-1,17.6,9.9,44900,296,9.1,6
2013,6,8,19:00,UTC,1,1007.7,-1,72,0,-1,15.3,10.3,47880,301,4.3,3.2
2013,6,8,20:00,UTC,0,1008.3,-1,81,0,-1,13.7,10.4,50000,289,3.4,2.3
2013,6,8,21:00,UTC,7,1008.9,-1,88,0,-1,12.5,10.7,47100,290,1.7,1.2
2013,6,8,22:00,UTC,3,1008.8,-1,93,0,-1,11.2,10.2,30780,286,1.3,0.7
2013,6,8,23:00,UTC,0,1008.6,-1,96,0,-1,10.8,10.2,26220,292,2.6,1.7
2013,6,9,00:00,UTC,0,1008.7,-1,98,0,-1,10.1,9.7,10060,298,2.6,1.9
2013,6,9,01:00,UTC,0,1008.7,-1,98,0,-1,9.4,9.1,9390,296,1.7,1.1
2013,6,9,02:00,UTC,1,1008.5,-1,99,0,-1,9.7,9.5,1670,303,1.3,0.8
2013,6,9,03:00,UTC,7,1008.6,-1,98,0,-1,11.1,10.9,2170,281,2.8,1.6
2013,6,9,04:00,UTC,7,1008.6,-1,98,0,-1,12.2,11.8,18320,306,1.9,1.3
2013,6,9,05:00,UTC,1,1008.3,-1,84,0,-1,14.6,12.1,38160,304,2.9,2
2013,6,9,06:00,UTC,1,1008.2,-1,73,0,-1,15.8,11,32950,245,1.9,0.9
2013,6,9,07:00,UTC,3,1007.9,-1,68,0,-1,17.2,11.3,27530,51,2.4,1.1
2013,6,9,08:00,UTC,7,1008.2,1,89,6.1,-1,14.7,12.9,4350,229,2.7,1.3
2013,6,9,09:00,UTC,7,1008,0.4,77,0,-1,16.9,12.9,31830,9,4.6,2.8
2013,6,9,10:00,UTC,3,1008,-1,65,0,-1,16.7,10.1,39400,348,4.5,3
2013,6,9,11:00,UTC,7,1007.8,-1,61,0,-1,16.8,9.2,49470,339,3.5,2.5
2013,6,9,12:00,UTC,7,1007.6,0.2,62,0,-1,18.1,10.6,28510,308,2.2,1.1
2013,6,9,13:00,UTC,0,1006.9,-1,47,0,-1,18.3,6.8,40700,37,2.3,1
2013,6,9,14:00,UTC,0,1006.4,-1,44,0,-1,18.9,6.2,40920,315,4.6,2.5
2013,6,9,15:00,UTC,7,1006.1,-1,40,0,-1,19,5,50000,7,3.7,2.4
2013,6,9,16:00,UTC,5,1005.8,-1,43,0,-1,19,6.2,45730,39,2.8,1.9
2013,6,9,17:00,UTC,7,1005.9,-1,62,0,-1,16.7,9.3,47200,116,5.6,3.7
2013,6,9,18:00,UTC,3,1006.3,-1,70,0,-1,15.6,10.1,49910,142,2.9,1.5
2013,6,9,19:00,UTC,7,1006.4,-1,76,0,-1,14.4,10.2,50000,172,1.7,1.1
2013,6,9,20:00,UTC,7,1006.5,-1,77,0,-1,13.8,9.9,50000,192,2.3,1.4
2013,6,9,21:00,UTC,7,1006.4,-1,85,0,-1,13.1,10.7,16600,0,1.4,0
2013,6,9,22:00,UTC,8,1006.7,0.2,91,0,-1,12.1,10.7,49630,100,3.3,1.2
2013,6,9,23:00,UTC,8,1006.4,-1,90,0,-1,11.9,10.3,50000,256,1.9,1.6
2013,6,10,00:00,UTC,7,1006.2,-1,92,0,-1,11.8,10.6,28720,287,2.3,1.6
2013,6,10,01:00,UTC,7,1006.1,2.5,93,0,-1,11.7,10.6,23050,290,4.7,3.4
2013,6,10,02:00,UTC,7,1005.9,0.3,90,0,-1,11.1,9.5,50000,319,4.8,3.7
2013,6,10,03:00,UTC,7,1005.8,-1,90,0,-1,11.5,9.8,47590,354,4.9,3.2
2013,6,10,04:00,UTC,7,1006,-1,88,0,-1,11.9,9.8,50000,327,3.2,2
2013,6,10,05:00,UTC,1,1005.6,-1,72,0,-1,14.3,9.3,37760,352,2.9,1.3
2013,6,10,06:00,UTC,0,1005.2,-1,64,0,-1,16.1,9.3,45830,42,3,1.9
2013,6,10,07:00,UTC,3,1005,-1,60,0,-1,17.5,9.6,31210,110,3.6,1.6
2013,6,10,08:00,UTC,5,1004.7,-1,59,0,-1,18.1,10,39530,75,2.5,1.3
2013,6,10,09:00,UTC,7,1005,-1,78,0,-1,14.3,10.5,25710,340,3.9,2.7
2013,6,10,10:00,UTC,5,1004.6,2.2,79,0,-1,15.3,11.7,33180,30,3.7,1.6
2013,6,10,11:00,UTC,5,1004,-1,74,0,-1,16.8,12.1,37850,18,1.4,0.7
2013,6,10,12:00,UTC,7,1004.8,-1,88,0,-1,12.9,10.9,19170,131,5.1,2.7
2013,6,10,13:00,UTC,7,1003.9,0.6,80,0,-1,14.6,11.2,42950,227,1.5,1
2013,6,10,14:00,UTC,5,1003.4,-1,70,0,-1,16.4,10.9,38930,147,1.6,0.7
2013,6,10,15:00,UTC,5,1003.1,-1,69,0,-1,16.2,10.6,34940,275,4.8,2.3
2013,6,10,16:00,UTC,5,1002.5,-1,68,0,-1,16.5,10.5,41410,304,3.1,2.1
2013,6,10,17:00,UTC,7,1002.3,-1,81,0,-1,15.1,11.8,45640,170,0.9,0.6
2013,6,10,18:00,UTC,3,1002.2,-1,85,0,-1,14.5,12,50000,299,2.1,1.5
2013,6,10,19:00,UTC,7,1002.2,-1,89,0,-1,13.2,11.3,49640,325,0.8,0.6
2013,6,10,20:00,UTC,7,1002.1,-1,87,0,-1,13.5,11.4,50000,126,3.1,0.9
2013,6,10,21:00,UTC,7,1001.5,-1,92,0,-1,11.9,10.6,50000,316,2.2,2
2013,6,10,22:00,UTC,7,1001.1,-1,87,0,-1,12.1,10,49380,294,4.2,2.9
2013,6,10,23:00,UTC,7,1001.2,-1,95,0,-1,9.8,9.1,32510,284,1.5,0.9
2013,6,11,00:00,UTC,7,1000.8,-1,92,0,-1,10.6,9.3,50000,298,3.1,2.6
2013,6,11,01:00,UTC,7,1000.3,-1,90,0,-1,10.7,9.1,50000,318,4.1,3.3
2013,6,11,02:00,UTC,7,1000.1,-1,89,0,-1,11.3,9.5,50000,311,4.8,3.8
2013,6,11,03:00,UTC,7,999.8,-1,91,0,-1,11.9,10.5,50000,319,7.2,5.5
2013,6,11,04:00,UTC,5,1000,-1,90,0,-1,12.6,10.9,39050,317,7.6,5.7
2013,6,11,05:00,UTC,7,1000.1,-1,86,0,-1,12.8,10.5,42830,318,9.6,6.7
2013,6,11,06:00,UTC,8,1000.8,-1,87,0,-1,12.1,10,42170,315,9.8,7.1
2013,6,11,07:00,UTC,5,1001.2,-1,78,0,-1,14.2,10.5,36000,323,9.5,6.3
2013,6,11,08:00,UTC,3,1001,-1,66,0,-1,16.5,10.3,31610,348,9.4,7
2013,6,11,09:00,UTC,7,1001.8,-1,76,0,-1,14.6,10.5,25850,306,9.1,6.1
2013,6,11,10:00,UTC,5,1002.8,-1,71,0,-1,15.2,10,22000,314,12.7,9.4
2013,6,11,11:00,UTC,7,1003.9,-1,75,0,-1,13.5,9.2,37690,317,10.9,8.4
2013,6,11,12:00,UTC,8,1005,-1,77,0,-1,12.6,8.7,30880,312,11,7.8
2013,6,11,13:00,UTC,8,1006.1,-1,80,0,-1,11.3,8,17150,305,10.1,7.2
2013,6,11,14:00,UTC,8,1006.8,-1,77,0,-1,11.4,7.6,24640,310,9.1,5.8
2013,6,11,15:00,UTC,7,1007.3,-1,72,0,-1,12.2,7.4,35050,321,7.3,5
2013,6,11,16:00,UTC,7,1007.7,-1,74,0,-1,12.6,8.1,40460,312,4.7,3.4
2013,6,11,17:00,UTC,8,1008.2,-1,71,0,-1,12.1,7,47580,304,8.6,5.8
2013,6,11,18:00,UTC,3,1008.7,-1,70,0,-1,11.6,6.4,42720,307,6.3,4.8
2013,6,11,19:00,UTC,5,1009.2,-1,67,0,-1,11.4,5.6,49620,301,5.7,4.2
2013,6,11,20:00,UTC,7,1009.9,-1,75,0,-1,9.7,5.5,50000,297,3.8,2.6
2013,6,11,21:00,UTC,5,1010.5,-1,80,0,-1,8.8,5.4,50000,293,6,4
2013,6,11,22:00,UTC,8,1010.9,-1,81,0,-1,8.2,5.2,50000,295,5.3,3.8
2013,6,11,23:00,UTC,7,1011.2,-1,83,0,-1,7.7,4.9,50000,298,4.5,3
2013,6,12,00:00,UTC,8,1011.8,-1,87,0,-1,7.1,5.1,48320,353,2.9,1.8
2013,6,12,01:00,UTC,7,1012.3,-1,87,0,-1,7.2,5.2,35650,308,3.6,3.1
2013,6,12,02:00,UTC,7,1012.7,-1,87,0,-1,7.4,5.3,36410,293,3.5,2.8
2013,6,12,03:00,UTC,7,1013.1,-1,85,0,-1,7.9,5.6,32860,296,3.8,2.8
2013,6,12,04:00,UTC,7,1013.7,-1,90,0,-1,8.2,6.7,17750,296,3.5,2.1
2013,6,12,05:00,UTC,7,1014.1,-1,82,0,-1,9.2,6.3,33030,294,3.6,2.5
2013,6,12,06:00,UTC,3,1014.4,-1,72,0,-1,10.6,5.8,32440,322,4.7,2.8
2013,6,12,07:00,UTC,3,1014.6,-1,66,0,-1,12.9,6.8,26320,360,5,2.9
2013,6,12,08:00,UTC,7,1015,-1,52,0,-1,12.6,3.1,46980,35,4.3,2.3
2013,6,12,09:00,UTC,7,1015.3,-1,48,0,-1,13.3,2.4,46220,27,3.3,1.7
2013,6,12,10:00,UTC,7,1015.4,-1,40,0,-1,13.8,0.3,40100,18,4.4,2.5
2013,6,12,11:00,UTC,7,1015.8,-1,43,0,-1,13.6,1.2,42420,358,4,2.3
2013,6,12,12:00,UTC,5,1015.8,-1,36,0,-1,15.4,0.3,33100,225,4.2,2.2
2013,6,12,13:00,UTC,7,1016,-1,51,0,-1,13.9,4,42000,262,3.6,2
2013,6,12,14:00,UTC,3,1015.9,-1,39,0,-1,15.6,1.5,39380,217,3.5,2
2013,6,12,15:00,UTC,5,1016.4,-1,46,0,-1,13.4,1.9,49280,47,6.5,3.8
2013,6,12,16:00,UTC,5,1016.5,-1,39,0,-1,14.9,1.2,33150,238,1.3,0.7
2013,6,12,17:00,UTC,0,1016.9,-1,50,0,-1,13.2,3,50000,339,4.9,3.6
2013,6,12,18:00,UTC,0,1017,-1,51,0,-1,13.9,3.8,46300,345,2.3,1.7
2013,6,12,19:00,UTC,0,1017.5,-1,73,0,-1,10.8,6.2,48130,8,1.2,0.6
2013,6,12,20:00,UTC,0,1018.2,-1,63,0,-1,9.9,3.2,50000,31,2.5,1.6
2013,6,12,21:00,UTC,0,1018.7,-1,81,0,-1,6.7,3.6,50000,317,2,1.5
2013,6,12,22:00,UTC,0,1019.1,-1,80,0,-1,6.3,3,50000,310,2,1.6
2013,6,12,23:00,UTC,0,1019.4,-1,90,0,-1,4.2,2.7,50000,310,1.7,1.4
2013,6,13,00:00,UTC,0,1019.6,-1,94,0,-1,4,3.2,36180,303,1.5,1.1
2013,6,13,01:00,UTC,0,1019.7,-1,95,0,-1,2.7,2.1,50000,291,1.3,0.8
2013,6,13,02:00,UTC,0,1019.8,-1,93,0,-1,4,3.1,50000,310,1.3,1
2013,6,13,03:00,UTC,3,1019.5,-1,80,0,-1,7.2,4,50000,86,2.6,1.5
2013,6,13,04:00,UTC,0,1019.3,-1,71,0,-1,9.8,4.7,50000,87,4.3,3
2013,6,13,05:00,UTC,0,1019,-1,61,0,-1,11.4,4.3,32690,111,5.4,3
2013,6,13,06:00,UTC,0,1018.6,-1,59,0,-1,12.8,4.9,43110,114,5.3,3.5
2013,6,13,07:00,UTC,0,1018.2,-1,54,0,-1,14.3,5.2,27970,108,5.4,3.1
2013,6,13,08:00,UTC,1,1017.4,-1,53,0,-1,15.3,5.6,35050,120,5.4,3
2013,6,13,09:00,UTC,1,1016.7,-1,42,0,-1,16.7,3.7,33840,137,6.1,2.6
2013,6,13,10:00,UTC,1,1016.2,-1,38,0,-1,17.4,2.9,38920,129,6.1,3
2013,6,13,11:00,UTC,7,1015.8,-1,41,0,-1,17.1,3.8,48110,149,6.1,3.3
2013,6,13,12:00,UTC,5,1015,-1,45,0,-1,17.8,5.8,32600,152,5.9,3.3
2013,6,13,13:00,UTC,7,1014.4,-1,55,0,-1,16.8,7.6,48530,152,6.2,2.6
2013,6,13,14:00,UTC,5,1013.5,-1,54,0,-1,17.5,8,45960,142,6.6,3
2013,6,13,15:00,UTC,3,1012.5,-1,51,0,-1,18.5,8.3,44630,152,7.2,3.8
2013,6,13,16:00,UTC,3,1011.8,-1,58,0,-1,17.9,9.4,37750,133,7.6,3.6
2013,6,13,17:00,UTC,3,1011,-1,57,0,-1,17.6,8.9,43240,147,6.5,3.1
2013,6,13,18:00,UTC,3,1010.3,-1,58,0,-1,17,8.8,45330,154,4.5,2.3
2013,6,13,19:00,UTC,7,1009.5,-1,66,0,-1,16.1,9.9,42070,138,4.2,2.2
2013,6,13,20:00,UTC,7,1009.3,-1,74,0,-1,15.5,10.8,17370,179,9.1,3.3
2013,6,13,21:00,UTC,8,1008.9,1.1,90,1.5,-1,12.2,10.6,8510,158,7.2,3.2
2013,6,13,22:00,UTC,8,1007,3,97,3.9,-1,11.8,11.4,5530,129,8.3,4.4
2013,6,13,23:00,UTC,7,1005.5,3.3,98,1.6,-1,12.7,12.3,5620,150,7.4,3.8
2013,6,14,00:00,UTC,8,1005.1,1.7,97,0,-1,13.3,12.8,9210,177,7.9,3.3
2013,6,14,01:00,UTC,7,1004.6,-1,97,0,-1,13.5,13.1,5800,162,6.6,2.6
2013,6,14,02:00,UTC,7,1003.8,2.2,98,3.6,-1,13.5,13.2,4430,169,6.5,3.5
2013,6,14,03:00,UTC,7,1003.9,8.2,97,0,-1,13.9,13.5,20610,181,4.6,2.4
2013,6,14,04:00,UTC,7,1004.1,0.1,97,0,-1,14.3,13.7,18010,186,4.9,2.3
2013,6,14,05:00,UTC,7,1003.8,-1,95,0,-1,15,14.2,20410,173,4,2.2
2013,6,14,06:00,UTC,7,1003.6,-1,95,0,-1,14.9,14.1,20730,155,4.9,2.2
2013,6,14,07:00,UTC,7,1003.3,-1,96,0,-1,14.6,14,7940,162,5.5,2.5
2013,6,14,08:00,UTC,7,1002.9,1.9,98,1.3,-1,14.9,14.5,7230,157,4.2,2
2013,6,14,09:00,UTC,7,1002.7,1.5,97,0.5,-1,15,14.6,7800,167,3.6,1.7
2013,6,14,10:00,UTC,8,1002.7,1,94,0.5,-1,14.2,13.1,9940,193,4.3,2
2013,6,14,11:00,UTC,7,1002.1,1.7,97,0.2,-1,14.3,13.8,19500,162,4.2,1.9
2013,6,14,12:00,UTC,8,1001.9,0.6,96,0.5,-1,14.1,13.4,4430,182,5.6,2.8
2013,6,14,13:00,UTC,7,1001.7,0.2,94,0,-1,13.7,12.7,23540,176,5.9,2.4
2013,6,14,14:00,UTC,7,1001.3,-1,94,0,-1,13.8,12.9,19530,178,5,1.8
2013,6,14,15:00,UTC,8,1000.8,0.2,96,0,-1,13.6,12.9,13560,182,5.5,2.3
2013,6,14,16:00,UTC,7,1000.7,0.8,94,0.7,-1,12.7,11.7,9500,225,6.1,2.3
2013,6,14,17:00,UTC,7,1000.7,-1,95,0,-1,12.8,12.1,22330,184,5.1,2.6
2013,6,14,18:00,UTC,8,1000.7,-1,94,0,-1,12.8,11.9,31980,194,6.7,2.8
2013,6,14,19:00,UTC,7,1000.6,-1,92,0,-1,12.6,11.3,32280,188,7.8,3.6
2013,6,14,20:00,UTC,8,1000.4,-1,92,0,-1,12.5,11.3,31990,181,5.8,2.5
2013,6,14,21:00,UTC,7,1000.2,-1,92,0,-1,12.4,11.1,35440,182,6.5,3.1
2013,6,14,22:00,UTC,8,1000.1,-1,91,0,-1,12.4,11,35640,186,7,3.2
2013,6,14,23:00,UTC,8,999.9,-1,89,0,-1,12.4,10.7,40860,188,6.4,3.1
2013,6,15,00:00,UTC,7,1000,-1,90,0,-1,12.4,10.8,39500,185,6.5,2.9
2013,6,15,01:00,UTC,7,999.9,-1,90,0,-1,12.4,10.8,40180,192,7.2,3.5
2013,6,15,02:00,UTC,8,1000.4,-1,89,0,-1,12.6,10.8,50000,212,7.7,2.7
2013,6,15,03:00,UTC,8,1001.3,-1,81,0,-1,12.2,9,50000,221,6.6,2.8
2013,6,15,04:00,UTC,8,1001.8,-1,81,0,-1,12,8.9,50000,221,8.7,3.1
2013,6,15,05:00,UTC,8,1002.3,-1,80,0,-1,12,8.7,48780,218,7.1,3.1
2013,6,15,06:00,UTC,8,1002.8,-1,77,0,-1,12.4,8.5,43780,234,7.9,3.8
2013,6,15,07:00,UTC,7,1003.3,-1,74,0,-1,13.2,8.6,40300,215,8.5,4
2013,6,15,08:00,UTC,7,1004.1,-1,71,0,-1,13.8,8.7,42190,227,7.8,3.6
2013,6,15,09:00,UTC,7,1004.6,-1,68,0,-1,14.5,8.5,44880,226,10,4.3
2013,6,15,10:00,UTC,7,1005.1,-1,64,0,-1,16.3,9.6,28420,244,11.4,3.5
2013,6,15,11:00,UTC,7,1005.8,-1,65,0,-1,15.1,8.7,50000,247,7.5,3.6
2013,6,15,12:00,UTC,7,1006.3,-1,63,0,-1,15.5,8.4,38350,231,7.3,3.8
2013,6,15,13:00,UTC,7,1006.8,-1,61,0,-1,15.7,8,44020,227,6.9,3.5
2013,6,15,14:00,UTC,7,1007.3,-1,64,0,-1,14.9,8,47970,238,7.1,3.5
2013,6,15,15:00,UTC,7,1007.5,-1,64,0,-1,14.9,8,50000,230,6.8,3.3
2013,6,15,16:00,UTC,7,1007.7,-1,64,0,-1,14.7,7.8,47490,248,9,3.3
2013,6,15,17:00,UTC,7,1008.2,-1,66,0,-1,14.6,8.2,41830,257,5,2.5
2013,6,15,18:00,UTC,7,1008.5,-1,64,0,-1,14.3,7.5,50000,250,5.4,2.7
2013,6,15,19:00,UTC,7,1008.7,-1,69,0,-1,13.8,8.1,50000,219,5.1,2.3
2013,6,15,20:00,UTC,0,1009.2,-1,80,0,-1,11.7,8.4,50000,231,2,0.8
2013,6,15,21:00,UTC,1,1009.8,-1,84,0,-1,10.9,8.3,50000,211,2.3,1.1
2013,6,15,22:00,UTC,0,1009.9,-1,83,0,-1,10.7,7.9,50000,268,2.5,1.1
2013,6,15,23:00,UTC,1,1009.9,-1,86,0,-1,10,7.7,50000,272,2.8,1.5
2013,6,16,00:00,UTC,1,1010.3,-1,95,0,-1,8,7.3,50000,0,0.9,0
2013,6,16,01:00,UTC,0,1010.6,-1,97,0,-1,6.6,6.2,30270,163,2.2,1.7
2013,6,16,02:00,UTC,0,1010.6,-1,96,0,-1,7.2,6.7,40570,161,2.3,1.3
2013,6,16,03:00,UTC,0,1010.1,-1,85,0,-1,10.3,8,46110,146,1.7,1
2013,6,16,04:00,UTC,0,1009.9,-1,78,0,-1,12.7,9,43730,153,1.9,1.1
2013,6,16,05:00,UTC,0,1009.8,-1,73,0,-1,14.1,9.4,40070,187,4.3,2.2
2013,6,16,06:00,UTC,1,1009.6,-1,63,0,-1,15.3,8.4,47880,186,4.9,2.6
2013,6,16,07:00,UTC,0,1009.3,-1,60,0,-1,16.4,8.6,38920,202,4.8,2.7
2013,6,16,08:00,UTC,1,1008.7,-1,56,0,-1,17,8.1,35140,158,6.6,2.9
2013,6,16,09:00,UTC,3,1008.2,-1,45,0,-1,18.2,6,27440,143,8.3,4.1
2013,6,16,10:00,UTC,1,1008,-1,46,0,-1,17.7,6,38790,135,7.6,4.4
2013,6,16,11:00,UTC,1,1007.2,-1,45,0,-1,17.8,5.7,33500,153,7.9,3.5
2013,6,16,12:00,UTC,5,1006.9,-1,46,0,-1,17.8,5.9,39110,170,7.5,3.4
2013,6,16,13:00,UTC,7,1006.3,-1,48,0,-1,17.1,6.1,45060,170,5.7,2.9
2013,6,16,14:00,UTC,7,1005.5,-1,53,0,-1,17,7.2,38090,162,4.2,2.2
2013,6,16,15:00,UTC,7,1004.9,-1,56,0,-1,16.4,7.5,50000,158,6.4,2.9
2013,6,16,16:00,UTC,7,1004.4,-1,54,0,-1,15.6,6.4,47280,145,6.2,2.6
2013,6,16,17:00,UTC,7,1003.4,-1,70,0,-1,13.7,8.4,11030,119,7.1,3.8
2013,6,16,18:00,UTC,7,1003.7,1,93,1,-1,10.5,9.4,18050,165,3.3,1.6
2013,6,16,19:00,UTC,7,1003.4,1.6,97,1.3,-1,10.5,10,16690,176,5.3,2
2013,6,16,20:00,UTC,7,1003.5,0.4,97,0.4,-1,10.3,9.8,15020,157,3.6,1.6
2013,6,16,21:00,UTC,7,1003.4,0.3,97,0.3,-1,10.4,10,18480,170,3.1,1.4
2013,6,16,22:00,UTC,7,1003.5,0.1,97,0,-1,10.2,9.8,38490,162,3.2,1.9
2013,6,16,23:00,UTC,7,1003.3,0.5,96,0,-1,10.7,10,28320,191,4.9,2.3
2013,6,17,00:00,UTC,7,1003.3,-1,96,0,-1,10.6,10,19790,189,4.5,2
2013,6,17,01:00,UTC,7,1003.2,-1,95,0,-1,10.3,9.6,21860,188,4.5,2.2
2013,6,17,02:00,UTC,7,1003.4,-1,94,0,-1,10,9.1,25270,190,4.3,2
2013,6,17,03:00,UTC,7,1003.3,-1,92,0,-1,10,8.8,34170,193,5.3,2.4
2013,6,17,04:00,UTC,8,1003.4,-1,92,0,-1,10.2,8.9,35880,186,5.8,2.5
2013,6,17,05:00,UTC,8,1003.3,-1,87,0,-1,11.3,9.3,36330,194,6.2,2.7
2013,6,17,06:00,UTC,7,1003.5,-1,85,0,-1,11.3,8.9,48310,194,5.1,2.7
2013,6,17,07:00,UTC,7,1003.6,-1,83,0,-1,11.9,9.2,48150,190,5.1,1.8
2013,6,17,08:00,UTC,7,1003.8,-1,89,0,-1,11.4,9.7,20300,187,6.6,2.3
2013,6,17,09:00,UTC,7,1004.1,1,91,0.5,-1,11.5,10.1,14130,204,4,2
2013,6,17,10:00,UTC,7,1004.5,1.9,95,3.4,-1,11.2,10.4,5140,212,3.4,1.4
2013,6,17,11:00,UTC,7,1004.8,2.4,93,0.5,-1,12.2,11.1,15990,273,4.4,2.5
2013,6,17,12:00,UTC,7,1005.1,0.5,91,0.8,-1,12.4,11,20540,250,4.5,2.2
2013,6,17,13:00,UTC,7,1005.6,-1,93,0,-1,12.7,11.6,13100,282,3.9,2.2
2013,6,17,14:00,UTC,7,1005.9,1.6,94,0,-1,12.1,11.2,40770,262,3,1.8
2013,6,17,15:00,UTC,5,1005.8,0.1,87,0,-1,14.6,12.5,38260,282,4.4,2.5
2013,6,17,16:00,UTC,7,1006.1,-1,88,0,-1,13.7,11.9,39330,281,2.6,1.3
2013,6,17,17:00,UTC,7,1006.1,-1,88,0,-1,14.4,12.4,40360,270,4.2,1.8
2013,6,17,18:00,UTC,0,1006.6,-1,86,0,-1,14.3,11.9,44250,276,4.4,2.4
2013,6,17,19:00,UTC,0,1007.3,-1,83,0,-1,13.9,11.1,50000,285,4.6,2.8
2013,6,17,20:00,UTC,0,1008,-1,91,0,-1,12.3,10.9,49460,272,4.1,2
2013,6,17,21:00,UTC,0,1008.5,-1,91,0,-1,11.9,10.5,50000,274,4.2,2.2
2013,6,17,22:00,UTC,1,1009,-1,92,0,-1,11.4,10.2,49110,273,4.6,2.6
2013,6,17,23:00,UTC,3,1009.3,-1,90,0,-1,11.1,9.5,50000,277,5.3,3.2
2013,6,18,00:00,UTC,1,1009.8,-1,90,0,-1,10.3,8.6,50000,268,5.7,2.9
2013,6,18,01:00,UTC,5,1010,-1,90,0,-1,10.3,8.8,50000,261,4.8,2.3
2013,6,18,02:00,UTC,5,1010.1,-1,90,0,-1,10.4,8.9,47840,281,5.5,2
2013,6,18,03:00,UTC,7,1010.2,-1,90,0,-1,10.9,9.4,29640,279,4.8,2.5
2013,6,18,04:00,UTC,7,1010.7,-1,91,0,-1,10.8,9.4,47510,286,5.3,3.1
2013,6,18,05:00,UTC,1,1010.4,-1,82,0,-1,13.3,10.4,46260,291,5.3,3.1
2013,6,18,06:00,UTC,1,1010.7,-1,68,0,-1,15.1,9.1,36320,288,7.1,4.3
2013,6,18,07:00,UTC,1,1010.9,-1,62,0,-1,15.8,8.4,42300,299,6.7,3.6
2013,6,18,08:00,UTC,5,1011.2,-1,62,0,-1,15.8,8.5,40090,295,7.3,5.1
2013,6,18,09:00,UTC,1,1011.5,-1,54,0,-1,17,7.5,36600,283,5.4,2.8
2013,6,18,10:00,UTC,1,1011.8,-1,49,0,-1,16.4,5.6,32640,287,10.3,5.1
2013,6,18,11:00,UTC,1,1012,-1,47,0,-1,16.5,5.1,40070,288,6.6,3.3
2013,6,18,12:00,UTC,1,1012.3,-1,34,0,-1,17.4,1.5,39130,303,8.4,6.1
2013,6,18,13:00,UTC,1,1012.6,-1,34,0,-1,18.3,2.1,40860,292,8.6,5
2013,6,18,14:00,UTC,1,1012.9,-1,34,0,-1,17.8,1.7,35250,289,7.8,4.8
2013,6,18,15:00,UTC,3,1013.2,-1,36,0,-1,17.5,2.2,43960,321,9.7,5.6
2013,6,18,16:00,UTC,3,1013.7,-1,37,0,-1,16.3,1.5,50000,330,8.2,4.8
2013,6,18,17:00,UTC,5,1014.2,-1,38,0,-1,16.5,2.2,42530,322,7.7,5.5
2013,6,18,18:00,UTC,1,1014.7,-1,42,0,-1,15.3,2.5,47430,329,7.5,4.6
2013,6,18,19:00,UTC,0,1015.4,-1,49,0,-1,13.4,2.9,50000,308,4,3.3
2013,6,18,20:00,UTC,0,1016.1,-1,68,0,-1,10.5,4.8,50000,293,3.4,2.5
2013,6,18,21:00,UTC,0,1016.8,-1,77,0,-1,7.9,4.2,50000,303,1.8,1.5
2013,6,18,22:00,UTC,0,1017.6,-1,84,0,-1,5.6,3.2,50000,294,1.7,1.3
2013,6,18,23:00,UTC,0,1018.1,-1,92,0,-1,4.9,3.7,50000,292,1.7,1.4
2013,6,19,00:00,UTC,0,1018.4,-1,93,0,-1,5,3.9,50000,298,1.9,1.4
2013,6,19,01:00,UTC,0,1018.9,-1,94,0,-1,4.9,4,50000,312,1.8,1.3
2013,6,19,02:00,UTC,0,1019,-1,89,0,-1,5.9,4.2,50000,306,1.2,0.9
2013,6,19,03:00,UTC,0,1019.2,-1,82,0,-1,8,5,42510,0,0.5,0
2013,6,19,04:00,UTC,0,1019.3,-1,76,0,-1,11,7.1,44330,102,1.4,0.9
2013,6,19,05:00,UTC,0,1019.4,-1,62,0,-1,13.9,6.8,48070,263,2.1,0.9
2013,6,19,06:00,UTC,0,1019.4,-1,47,0,-1,15.5,4.4,46340,284,5,1.8
2013,6,19,07:00,UTC,1,1019.5,-1,40,0,-1,16.4,2.7,37420,244,4.5,2.5
2013,6,19,08:00,UTC,7,1019.6,-1,37,0,-1,16.3,1.4,48250,315,5.6,2.8
2013,6,19,09:00,UTC,3,1019.5,-1,33,0,-1,16.9,0.7,41130,331,5.7,2.9
2013,6,19,10:00,UTC,3,1019.5,-1,34,0,-1,18,1.7,29050,228,6.6,3.1
2013,6,19,11:00,UTC,5,1019.6,-1,34,0,-1,18.2,1.9,41980,279,5.1,3.2
2013,6,19,12:00,UTC,5,1019.6,-1,35,0,-1,18.4,2.7,40550,290,5.4,2.2
2013,6,19,13:00,UTC,5,1019.6,-1,32,0,-1,19.1,1.9,40350,272,5.9,3
2013,6,19,14:00,UTC,5,1019.5,-1,32,0,-1,19.3,2.4,40480,239,2.8,1.2
2013,6,19,15:00,UTC,7,1019.8,-1,37,0,-1,18.5,3.3,44820,277,3.9,2
2013,6,19,16:00,UTC,3,1019.7,-1,33,0,-1,19.3,2.7,45030,263,4.7,2.4
2013,6,19,17:00,UTC,1,1019.8,-1,46,0,-1,16.6,4.9,40620,267,1,0.6
2013,6,19,18:00,UTC,0,1019.6,-1,47,0,-1,16.3,5,46620,131,0.9,0.6
2013,6,19,19:00,UTC,0,1020.1,-1,53,0,-1,14.4,5,50000,156,1.4,1.2
2013,6,19,20:00,UTC,0,1020.6,-1,69,0,-1,11.7,6.2,50000,0,0.6,0
2013,6,19,21:00,UTC,1,1020.6,-1,82,0,-1,10,7.1,50000,146,1.2,0.9
2013,6,19,22:00,UTC,3,1020.5,-1,93,0,-1,8.1,7.1,44500,0,0.3,0
2013,6,19,23:00,UTC,1,1020.6,-1,96,0,-1,7.1,6.6,29920,0,0.5,0
2013,6,20,00:00,UTC,0,1020.2,-1,97,0,-1,6.6,6.3,19070,0,0.3,0
2013,6,20,01:00,UTC,0,1020.1,-1,98,0,-1,6.3,6,18730,0,0.4,0
2013,6,20,02:00,UTC,0,1020,-1,96,0,-1,7.6,7.1,38250,0,0.7,0
2013,6,20,03:00,UTC,0,1020.1,-1,88,0,-1,9.6,7.7,38890,138,1.5,0.9
2013,6,20,04:00,UTC,1,1019.6,-1,83,0,-1,12.2,9.4,37510,127,3.5,1.8
2013,6,20,05:00,UTC,3,1019.3,-1,79,0,-1,13.9,10.3,43540,114,1.7,1.2
2013,6,20,06:00,UTC,7,1019.4,-1,75,0,-1,14.7,10.3,45040,144,2,1.1
2013,6,20,07:00,UTC,7,1018.9,-1,72,0,-1,14.3,9.3,45700,148,2.5,1.4
2013,6,20,08:00,UTC,7,1018.7,-1,67,0,-1,15.8,9.5,42580,138,4.4,2.3
2013,6,20,09:00,UTC,7,1018.4,-1,60,0,-1,15.8,8,44070,138,6.5,3
2013,6,20,10:00,UTC,7,1018,-1,53,0,-1,16.1,6.6,41280,160,7.6,3.5
2013,6,20,11:00,UTC,7,1017.8,-1,69,0,-1,14.2,8.7,21160,157,6.6,3.5
2013,6,20,12:00,UTC,7,1017.4,0.2,76,0,-1,13.8,9.7,41980,133,4.5,2.5
2013,6,20,13:00,UTC,7,1016.9,-1,80,0,-1,13.7,10.3,26640,138,4.4,2.4
2013,6,20,14:00,UTC,7,1016.4,-1,74,0,-1,13.7,9.2,32080,137,10.2,3.8
2013,6,20,15:00,UTC,7,1016.4,-1,74,0,-1,13.9,9.2,29430,154,4.8,2.2
2013,6,20,16:00,UTC,7,1015.8,-1,72,0,-1,14.3,9.4,50000,139,3.8,2
2013,6,20,17:00,UTC,7,1015.8,-1,75,0,-1,14.3,9.8,50000,148,4.6,2.2
2013,6,20,18:00,UTC,7,1015.8,-1,77,0,-1,14.4,10.4,49760,157,3.7,1.8
2013,6,20,19:00,UTC,7,1016,-1,81,0,-1,14.3,11,48060,157,3.3,1.1
2013,6,20,20:00,UTC,7,1016,-1,87,0,-1,13.7,11.5,46820,144,1.9,1.2
2013,6,20,21:00,UTC,7,1016.1,-1,91,0,-1,12.7,11.3,40820,170,1.4,0.7
2013,6,20,22:00,UTC,7,1016.6,-1,93,0,-1,12.5,11.4,34840,158,1.3,0.6
2013,6,20,23:00,UTC,7,1016.9,-1,93,0,-1,12.7,11.6,35500,194,1.2,0.8
2013,6,21,00:00,UTC,7,1017,-1,95,0,-1,12.5,11.7,29750,201,2.4,1.3
2013,6,21,01:00,UTC,7,1017.3,-1,95,0,-1,12.1,11.4,25890,285,1.3,0.9
2013,6,21,02:00,UTC,0,1017.2,-1,98,0,-1,10.4,10.1,460,327,1.6,1.3
2013,6,21,03:00,UTC,7,1017.3,-1,98,0,-1,12.5,12.2,28330,315,2.8,2.4
2013,6,21,04:00,UTC,7,1017.6,-1,92,0,-1,13.5,12.2,44830,339,3.4,2.1
2013,6,21,05:00,UTC,7,1018.1,-1,90,0,-1,13.8,12.2,34630,336,4.3,3.2
2013,6,21,06:00,UTC,7,1018.3,-1,89,0,-1,14.2,12.4,34920,352,3.3,2.5
2013,6,21,07:00,UTC,7,1018.3,-1,83,0,-1,15.3,12.4,24990,349,4.4,2.9
2013,6,21,08:00,UTC,7,1018,-1,79,0,-1,16.6,12.9,27150,17,3.9,2.5
2013,6,21,09:00,UTC,7,1017.9,-1,74,0,-1,17.3,12.6,35210,63,2.6,1.5
2013,6,21,10:00,UTC,7,1018,-1,69,0,-1,17.8,12.1,36280,309,3.5,1.3
2013,6,21,11:00,UTC,7,1017.6,-1,65,0,-1,18.5,11.8,29410,67,4,2
2013,6,21,12:00,UTC,5,1017,-1,58,0,-1,19.5,11.1,35020,148,4.4,1.3
2013,6,21,13:00,UTC,7,1016.9,-1,59,0,-1,19.9,11.6,33630,108,4.1,2.4
2013,6,21,14:00,UTC,7,1016.8,-1,60,0,-1,19.7,11.7,33770,169,2.3,1.6
2013,6,21,15:00,UTC,3,1016.3,-1,58,0,-1,20.4,11.8,34210,100,4.9,3.5
2013,6,21,16:00,UTC,0,1016.1,-1,54,0,-1,21.2,11.6,45590,119,3.8,2.3
2013,6,21,17:00,UTC,0,1015.9,-1,58,0,-1,21.1,12.4,44210,96,4.2,2.4
2013,6,21,18:00,UTC,0,1015.5,-1,61,0,-1,20.3,12.4,40720,68,4.1,2.6
2013,6,21,19:00,UTC,0,1015.2,-1,70,0,-1,18.6,13.1,50000,57,3,2
2013,6,21,20:00,UTC,1,1015.1,-1,80,0,-1,16.6,13.1,47750,73,1.5,0.8
2013,6,21,21:00,UTC,1,1015.1,-1,84,0,-1,16.1,13.4,37620,119,2.8,1.9
2013,6,21,22:00,UTC,0,1015.4,-1,89,0,-1,14.7,12.9,30220,147,2.9,1.7
2013,6,21,23:00,UTC,0,1015.5,-1,93,0,-1,13.8,12.6,21000,144,2.5,1.6
2013,6,22,00:00,UTC,0,1015,-1,96,0,-1,12.7,12.1,11400,131,2.2,1.5
2013,6,22,01:00,UTC,0,1014.3,-1,91,0,-1,14,12.5,29120,126,3.9,2.4
2013,6,22,02:00,UTC,7,1013.6,-1,86,0,-1,14.5,12.2,41620,126,4,2.7
2013,6,22,03:00,UTC,1,1013.4,-1,81,0,-1,15.2,12,43310,125,4.9,3
2013,6,22,04:00,UTC,1,1013.1,-1,73,0,-1,16.5,11.7,29950,126,4.9,3
2013,6,22,05:00,UTC,0,1012.7,-1,73,0,-1,16.8,12,44910,121,5.8,3.7
2013,6,22,06:00,UTC,7,1012.3,-1,67,0,-1,18.2,12,37240,131,8.4,4.1
2013,6,22,07:00,UTC,3,1011.6,-1,66,0,-1,19.1,12.6,43210,127,8.9,4.6
2013,6,22,08:00,UTC,7,1011.4,-1,60,0,-1,21,12.8,36010,138,9,4.9
2013,6,22,09:00,UTC,7,1011.2,-1,63,0,-1,20.4,13.1,40740,133,8.4,4.2
2013,6,22,10:00,UTC,7,1010.8,-1,64,0,-1,20.6,13.7,42840,138,7.9,4.2
2013,6,22,11:00,UTC,7,1010.6,-1,61,0,-1,21.1,13.4,41880,140,7.4,3.8
2013,6,22,12:00,UTC,7,1010.2,-1,54,0,-1,21.6,12,32670,156,8.9,4.2
2013,6,22,13:00,UTC,8,1010,-1,55,0,-1,21,11.5,44030,158,7.6,3.8
2013,6,22,14:00,UTC,8,1009.6,-1,54,0,-1,21.3,11.6,43270,151,10.6,3.7
2013,6,22,15:00,UTC,7,1009.4,-1,54,0,-1,22.1,12.3,36200,161,9.1,4.4
2013,6,22,16:00,UTC,3,1009.2,-1,60,0,-1,21.7,13.6,33550,149,9.4,4.6
2013,6,22,17:00,UTC,0,1009,-1,61,0,-1,21.6,13.8,38250,149,8.1,3.9
2013,6,22,18:00,UTC,0,1008.9,-1,64,0,-1,21.1,14,35540,160,6.2,3
2013,6,22,19:00,UTC,0,1009.1,-1,72,0,-1,19.8,14.6,39970,152,5,2.3
2013,6,22,20:00,UTC,0,1009.3,-1,80,0,-1,18.3,14.7,45560,153,3.5,1.8
2013,6,22,21:00,UTC,0,1009.3,-1,87,0,-1,16.6,14.5,37150,148,3.3,1.8
2013,6,22,22:00,UTC,0,1009.4,-1,89,0,-1,16.7,14.8,34230,171,2.5,1.3
2013,6,22,23:00,UTC,1,1009.6,-1,87,0,-1,16.3,14.1,37810,178,4.1,2
2013,6,23,00:00,UTC,0,1009.9,-1,92,0,-1,14.5,13.3,28280,160,2,0.9
2013,6,23,01:00,UTC,0,1010,-1,97,0,-1,12.9,12.4,8130,122,1.9,1.4
2013,6,23,02:00,UTC,1,1010.1,-1,95,0,-1,13.5,12.7,19430,131,2.2,1.3
2013,6,23,03:00,UTC,0,1009.9,-1,85,0,-1,15.8,13.3,33530,171,3.8,1.6
2013,6,23,04:00,UTC,1,1010,-1,80,0,-1,17.2,13.7,42220,177,4.3,2.6
2013,6,23,05:00,UTC,8,1010.2,-1,75,0,-1,17.6,13.2,43430,204,5,2.4
2013,6,23,06:00,UTC,8,1010.4,-1,78,0,-1,17.3,13.6,41880,187,4.9,2.8
2013,6,23,07:00,UTC,8,1010.9,-1,80,0,-1,17.2,13.7,35040,196,4.3,2
2013,6,23,08:00,UTC,8,1011.2,-1,78,0,-1,17.9,14,32380,171,4.5,2.2
2013,6,23,09:00,UTC,8,1011.4,-1,74,0,-1,18.6,13.8,33310,162,5.4,2.1
2013,6,23,10:00,UTC,8,1011.9,-1,73,0,-1,18.1,13.2,36290,191,6.1,3
2013,6,23,11:00,UTC,7,1012.2,-1,66,0,-1,19,12.5,40850,225,6.1,2.9
2013,6,23,12:00,UTC,8,1012.5,-1,66,0,-1,19.5,13,45710,233,4.6,2
2013,6,23,13:00,UTC,7,1012.5,-1,63,0,-1,20.3,13,41160,206,3.6,1.7
2013,6,23,14:00,UTC,5,1012.4,-1,55,0,-1,22.5,12.9,32360,223,4.3,1.7
2013,6,23,15:00,UTC,8,1012.7,-1,62,0,-1,20.6,13,32620,176,4,2
2013,6,23,16:00,UTC,7,1013.1,-1,64,0,-1,20.5,13.5,39020,204,3.2,1.9
2013,6,23,17:00,UTC,7,1013.2,-1,66,0,-1,20,13.4,42790,210,2.1,0.9
2013,6,23,18:00,UTC,1,1013.2,-1,72,0,-1,19.7,14.6,40230,0,0.9,0
2013,6,23,19:00,UTC,0,1013.7,-1,82,0,-1,17.4,14.3,38310,151,1.5,1.1
2013,6,23,20:00,UTC,0,1014.1,-1,92,0,-1,15.4,14.1,23120,0,0.7,0
2013,6,23,21:00,UTC,0,1014.6,-1,96,0,-1,13.1,12.5,9190,0,0.4,0
2013,6,23,22:00,UTC,1,1014.8,-1,98,0,-1,12.6,12.3,4880,0,0.7,0
2013,6,23,23:00,UTC,7,1015.2,-1,98,0,-1,12.3,12,7700,0,0.6,0
2013,6,24,00:00,UTC,7,1015.3,-1,99,0,-1,12.8,12.5,9920,0,0.8,0
2013,6,24,01:00,UTC,7,1015.4,-1,98,0,-1,12.9,12.6,9410,326,1.7,0.7
2013,6,24,02:00,UTC,0,1015.8,-1,98,0,-1,11.8,11.6,1930,0,0.4,0
2013,6,24,03:00,UTC,0,1015.8,-1,87,0,-1,16,13.9,16930,0,1,0
2013,6,24,04:00,UTC,1,1015.7,-1,84,0,-1,17.1,14.4,28690,108,1.3,0.8
2013,6,24,05:00,UTC,0,1015.7,-1,73,0,-1,18.9,14.1,31710,138,3.4,1.9
2013,6,24,06:00,UTC,1,1015.7,-1,74,0,-1,20.1,15.3,35100,147,2.3,1.3
2013,6,24,07:00,UTC,0,1015.6,-1,70,0,-1,20.6,15,37830,123,1.6,0.7
2013,6,24,08:00,UTC,1,1015.5,-1,59,0,-1,23,14.4,35000,129,5.1,3.3
2013,6,24,09:00,UTC,3,1015.9,-1,55,0,-1,23,13.5,30290,148,4.9,3
2013,6,24,10:00,UTC,3,1016.1,-1,57,0,-1,22.3,13.4,35590,153,4.3,2.4
2013,6,24,11:00,UTC,7,1015.9,-1,55,0,-1,23,13.6,31440,161,6.2,2.8
2013,6,24,12:00,UTC,1,1015.8,-1,50,0,-1,24.2,13.1,27440,122,6.9,4
2013,6,24,13:00,UTC,5,1015.6,-1,44,0,-1,24.2,11.3,44520,142,6.1,3.4
2013,6,24,14:00,UTC,0,1015.4,-1,44,0,-1,24.8,11.8,32490,161,4.9,2.5
2013,6,24,15:00,UTC,0,1015.4,-1,55,0,-1,23.3,13.9,45060,150,3.8,1.9
2013,6,24,16:00,UTC,0,1015.2,-1,46,0,-1,24.5,12,50000,196,3.9,2.3
2013,6,24,17:00,UTC,0,1015.4,-1,48,0,-1,24.7,12.8,36740,167,2.2,1.2
2013,6,24,18:00,UTC,0,1015.6,-1,51,0,-1,23.1,12.3,42540,189,2.1,1.1
2013,6,24,19:00,UTC,0,1015.8,-1,65,0,-1,20.8,14.1,42970,198,1.9,1.3
2013,6,24,20:00,UTC,0,1016.1,-1,75,0,-1,18.6,14.1,46140,179,2,1.1
2013,6,24,21:00,UTC,0,1016.4,-1,84,0,-1,16.6,13.9,35680,0,0.7,0
2013,6,24,22:00,UTC,0,1016.8,-1,93,0,-1,15,13.8,25090,0,0.3,0
2013,6,24,23:00,UTC,0,1017,-1,97,0,-1,13.4,12.9,10680,301,1,0.6
2013,6,25,00:00,UTC,0,1017.3,-1,96,0,-1,12.3,11.7,9020,303,1,0.8
2013,6,25,01:00,UTC,8,1017,-1,94,0,-1,13.9,13,18710,323,1.9,1.6
2013,6,25,02:00,UTC,7,1017,-1,92,0,-1,14.9,13.6,20290,0,0.9,0
2013,6,25,03:00,UTC,8,1017.1,-1,93,0,-1,15.3,14.2,16970,0,0.4,0
2013,6,25,04:00,UTC,7,1017.2,-1,90,0,-1,16.6,14.9,24730,195,1.3,0.9
2013,6,25,05:00,UTC,7,1017.3,-1,87,0,-1,17.8,15.7,24170,99,1.4,0.8
2013,6,25,06:00,UTC,7,1016.8,-1,73,0,-1,21,16,25200,154,2.4,1.3
2013,6,25,07:00,UTC,7,1016.4,-1,62,0,-1,23,15.4,30700,132,3.2,2
2013,6,25,08:00,UTC,7,1016.6,-1,61,0,-1,23.4,15.5,32100,181,4.2,2.3
2013,6,25,09:00,UTC,5,1016.6,-1,59,0,-1,23.9,15.4,34280,144,3.6,2.2
2013,6,25,10:00,UTC,7,1016.7,-1,59,0,-1,23.9,15.4,33130,235,2.3,1.1
2013,6,25,11:00,UTC,7,1016.6,-1,63,0,-1,24.4,16.9,26720,229,2.1,1.1
2013,6,25,12:00,UTC,7,1016.3,-1,56,0,-1,25.2,16,32560,185,4.3,1.9
2013,6,25,13:00,UTC,5,1016.1,-1,52,0,-1,25.8,15.3,31100,142,3.9,1.6
2013,6,25,14:00,UTC,3,1015.9,-1,60,0,-1,25.2,17,37520,175,3,1.4
2013,6,25,15:00,UTC,1,1015.8,-1,62,0,-1,24.5,16.8,30650,206,2.6,1.3
2013,6,25,16:00,UTC,0,1015.8,-1,57,0,-1,25.7,16.5,37250,243,4.5,1.7
2013,6,25,17:00,UTC,3,1016.1,-1,70,0,-1,23.4,17.6,30220,277,3.6,1.9
2013,6,25,18:00,UTC,7,1016.4,-1,74,0,-1,22.9,18,27000,300,2,1.4
2013,6,25,19:00,UTC,1,1016.6,-1,85,0,-1,20.8,18.1,22860,352,1.1,0.7
2013,6,25,20:00,UTC,7,1016.7,-1,88,0,-1,20.4,18.3,20460,351,2.8,2
2013,6,25,21:00,UTC,7,1017.3,-1,91,0,-1,19.6,18.1,17810,316,1.9,1.4
2013,6,25,22:00,UTC,8,1017.4,-1,91,0,-1,19.6,18.1,16460,334,1.7,1
2013,6,25,23:00,UTC,7,1017.5,-1,94,0,-1,18.6,17.6,12420,320,1.8,1.6
2013,6,26,00:00,UTC,0,1017.7,-1,98,0,-1,17.2,16.8,3020,305,2,1.7
2013,6,26,01:00,UTC,0,1017.7,-1,98,0,-1,17,16.7,7220,315,2.3,2.1
2013,6,26,02:00,UTC,0,1017.7,-1,97,0,-1,17.5,16.9,12610,306,3.4,3.1
2013,6,26,03:00,UTC,0,1017.7,-1,95,0,-1,18.3,17.4,12970,335,3.4,2.7
2013,6,26,04:00,UTC,0,1017.7,-1,90,0,-1,19.8,18,15330,338,4,3
2013,6,26,05:00,UTC,0,1017.6,-1,83,0,-1,21.1,18,17580,349,4,2.9
2013,6,26,06:00,UTC,0,1017.2,-1,80,0,-1,22.8,19.2,24510,346,3.6,2.5
2013,6,26,07:00,UTC,0,1017.2,-1,72,0,-1,24.1,18.7,25090,25,4.1,2.8
2013,6,26,08:00,UTC,1,1017.2,-1,67,0,-1,25.6,18.9,22410,59,4.1,2.5
2013,6,26,09:00,UTC,1,1017.1,-1,55,0,-1,26.9,17.1,24930,109,5.2,2.7
2013,6,26,10:00,UTC,7,1017.1,-1,60,0,-1,26.1,17.8,30110,102,4.1,2.6
2013,6,26,11:00,UTC,7,1016.9,-1,55,0,-1,27.4,17.4,22990,91,5.9,3.5
2013,6,26,12:00,UTC,3,1016.7,-1,50,0,-1,27.2,16,24870,74,5.5,2.5
2013,6,26,13:00,UTC,3,1016.3,-1,50,0,-1,28.4,17.1,32840,86,5.2,3
2013,6,26,14:00,UTC,0,1016.1,-1,46,0,-1,27.9,15.3,30810,86,4.9,2.8
2013,6,26,15:00,UTC,1,1015.8,-1,43,0,-1,28.6,14.8,28850,58,5.8,3.2
2013,6,26,16:00,UTC,0,1015.8,-1,45,0,-1,28.6,15.4,31590,61,4.1,3
2013,6,26,17:00,UTC,1,1015.7,-1,45,0,-1,28.4,15.4,31690,58,4,2.7
2013,6,26,18:00,UTC,0,1016,-1,48,0,-1,27.5,15.7,34470,71,3.1,2.2
2013,6,26,19:00,UTC,0,1016,-1,58,0,-1,25.6,16.6,36630,63,3.9,2.9
2013,6,26,20:00,UTC,0,1016.1,-1,71,0,-1,23.4,17.8,28990,314,1.5,1.1
2013,6,26,21:00,UTC,1,1016.4,-1,77,0,-1,21.8,17.5,26260,304,1.6,1.3
2013,6,26,22:00,UTC,7,1016.5,-1,74,0,-1,22,17.1,28120,311,1.7,1.5
2013,6,26,23:00,UTC,7,1016.6,-1,77,0,-1,21.4,17.1,27980,0,1,0
2013,6,27,00:00,UTC,7,1016.6,-1,82,0,-1,20.5,17.4,22720,323,1.7,1.4
2013,6,27,01:00,UTC,7,1016.3,-1,77,0,-1,21.3,17.1,27180,302,1.4,0.9
2013,6,27,02:00,UTC,7,1016,-1,85,0,-1,21.1,18.4,20890,328,0.8,0.6
2013,6,27,03:00,UTC,0,1015.9,-1,79,0,-1,22,18.2,19960,329,1.4,1.1
2013,6,27,04:00,UTC,0,1015.8,-1,69,0,-1,24.1,18.2,21090,59,1.1,0.7
2013,6,27,05:00,UTC,0,1015.7,-1,70,0,-1,24.9,19,16870,102,2.9,2
2013,6,27,06:00,UTC,0,1015.3,-1,67,0,-1,26,19.5,21040,110,4.7,3.1
2013,6,27,07:00,UTC,0,1015.3,-1,63,0,-1,27,19.4,19880,132,5.2,3
2013,6,27,08:00,UTC,3,1015,-1,63,0,-1,27.8,20,17990,118,6,3.8
2013,6,27,09:00,UTC,1,1014.6,-1,55,0,-1,28.6,18.8,20580,119,8.3,4.5
2013,6,27,10:00,UTC,3,1013.9,-1,60,0,-1,28.5,19.9,19390,122,6.8,3.4
2013,6,27,11:00,UTC,5,1013.2,-1,56,0,-1,28,18.5,24730,107,7.6,5.3
2013,6,27,12:00,UTC,5,1012.6,-1,49,0,-1,29.9,17.9,24780,128,5.8,3.2
2013,6,27,13:00,UTC,7,1014.6,1.6,90,9.5,-1,19.9,18.2,3880,223,14.5,6.8
2013,6,27,14:00,UTC,3,1015,0.1,94,0,-1,19.7,18.7,17490,334,4.5,3.3
2013,6,27,15:00,UTC,3,1014.5,-1,91,0,-1,20.4,18.9,23080,311,4.7,2.7
2013,6,27,16:00,UTC,0,1014.6,-1,85,0,-1,22.1,19.4,19910,166,2.2,1.2
2013,6,27,17:00,UTC,7,1014.9,-1,82,0,-1,21.8,18.6,32650,346,2.5,1.6
2013,6,27,18:00,UTC,7,1014.9,3.3,97,19.7,-1,20.1,19.5,1680,229,4.7,2.8
2013,6,27,19:00,UTC,7,1015,6.1,97,0,-1,18.6,18.2,10770,212,2.9,1.4
2013,6,27,20:00,UTC,7,1015.2,0.4,99,0,-1,18.2,18,4580,178,2.4,1.4
2013,6,27,21:00,UTC,7,1015.4,-1,98,0,-1,18.1,17.8,11380,189,1.8,0.8
2013,6,27,22:00,UTC,7,1016.1,-1,97,0,-1,18.4,17.9,15470,217,3.5,1.5
2013,6,27,23:00,UTC,7,1016.3,-1,96,0,-1,18.4,17.8,14650,218,3.7,1.4
2013,6,28,00:00,UTC,7,1016.9,-1,96,0,-1,18.1,17.5,9750,199,4.7,2
2013,6,28,01:00,UTC,8,1017.5,-1,97,0,-1,17.6,17.1,6480,217,5.8,2.5
2013,6,28,02:00,UTC,7,1018.2,-1,95,0,-1,17.1,16.2,17040,243,4.9,1.9
2013,6,28,03:00,UTC,8,1018.2,-1,92,0,-1,17,15.7,20150,249,3.7,1.8
2013,6,28,04:00,UTC,7,1018.5,-1,95,0,-1,16.9,16,11900,200,4.5,1.9
2013,6,28,05:00,UTC,8,1019,-1,90,0,-1,16.2,14.5,26520,205,4.5,2.5
2013,6,28,06:00,UTC,7,1019.6,-1,85,0,-1,15.8,13.4,41310,240,4.5,2.2
2013,6,28,07:00,UTC,7,1019.9,-1,75,0,-1,17.9,13.4,34610,234,5.2,2.7
2013,6,28,08:00,UTC,3,1019.8,-1,72,0,-1,18.1,12.9,27990,246,4.1,2.2
2013,6,28,09:00,UTC,1,1019.9,-1,62,0,-1,19.8,12.3,30830,218,5.8,2.7
2013,6,28,10:00,UTC,1,1019.9,-1,59,0,-1,21.4,13,34870,184,6.1,2.5
2013,6,28,11:00,UTC,1,1019.7,-1,57,0,-1,21.5,12.6,30810,207,5.6,2.7
2013,6,28,12:00,UTC,1,1019.1,-1,55,0,-1,21.5,12,38360,175,5.7,2.7
2013,6,28,13:00,UTC,3,1018.8,-1,52,0,-1,22.5,12.1,28950,206,5.4,3.2
2013,6,28,14:00,UTC,1,1018.4,-1,55,0,-1,22.2,12.7,42320,216,4.9,1.7
2013,6,28,15:00,UTC,1,1018.1,-1,51,0,-1,22.8,12.1,37230,216,4.3,2
2013,6,28,16:00,UTC,0,1017.8,-1,50,0,-1,22.6,11.8,44220,259,4.1,1.9
2013,6,28,17:00,UTC,0,1017.8,-1,52,0,-1,21.9,11.6,42730,234,2.5,1.3
2013,6,28,18:00,UTC,0,1017.6,-1,55,0,-1,20.7,11.5,49280,230,2.5,1.2
2013,6,28,19:00,UTC,0,1017.7,-1,71,0,-1,18.3,13,50000,238,2,1.3
2013,6,28,20:00,UTC,0,1017.9,-1,82,0,-1,15.6,12.6,42790,202,1.8,1
2013,6,28,21:00,UTC,0,1017.9,-1,92,0,-1,14.1,12.8,28340,0,0.7,0
2013,6,28,22:00,UTC,0,1017.6,-1,97,0,-1,13.2,12.8,12750,296,1.1,0.9
2013,6,28,23:00,UTC,0,1017.5,-1,97,0,-1,11.9,11.5,17040,305,1.1,0.7
2013,6,29,00:00,UTC,0,1017,-1,98,0,-1,10.4,10.1,6330,301,0.9,0.6
2013,6,29,01:00,UTC,0,1016.6,-1,98,0,-1,10.9,10.7,13100,335,1.7,1.6
2013,6,29,02:00,UTC,0,1016.1,-1,96,0,-1,12.3,11.7,16930,308,2.2,1.6
2013,6,29,03:00,UTC,0,1015.7,-1,92,0,-1,14.5,13.1,22330,298,2,1.3
2013,6,29,04:00,UTC,0,1015,-1,83,0,-1,16.4,13.4,36300,337,2.4,1.8
2013,6,29,05:00,UTC,1,1014.5,-1,72,0,-1,19.2,14,25860,120,1.8,0.9
2013,6,29,06:00,UTC,1,1014,-1,66,0,-1,21,14.4,31880,121,3.1,1.5
2013,6,29,07:00,UTC,1,1013.3,-1,60,0,-1,21.9,13.9,35650,106,4.5,2.5
2013,6,29,08:00,UTC,5,1013.1,-1,57,0,-1,23,14.1,33030,122,5.2,3.3
2013,6,29,09:00,UTC,5,1012.7,-1,59,0,-1,22.7,14.3,35500,110,4.5,2.3
2013,6,29,10:00,UTC,7,1012.3,-1,58,0,-1,23.7,14.8,37960,127,5.1,2.8
2013,6,29,11:00,UTC,7,1012,-1,54,0,-1,23.6,13.7,36520,160,5.3,2.4
2013,6,29,12:00,UTC,1,1011.3,-1,52,0,-1,25.1,14.5,31270,176,5.2,2.5
2013,6,29,13:00,UTC,5,1011.1,-1,55,0,-1,23.8,14.2,34690,209,2.8,1.7
2013,6,29,14:00,UTC,5,1010.6,-1,58,0,-1,23,14.3,41510,246,3,1.5
2013,6,29,15:00,UTC,7,1010.3,-1,61,0,-1,23,15.2,42680,268,2.8,1.5
2013,6,29,16:00,UTC,7,1009.9,-1,69,0,-1,22,16.1,41370,286,4.3,2.5
2013,6,29,17:00,UTC,5,1009.7,-1,70,0,-1,21.7,16,32240,309,4.2,3.2
2013,6,29,18:00,UTC,7,1009.5,-1,78,0,-1,20.5,16.5,47140,308,3,2.5
2013,6,29,19:00,UTC,7,1009.4,-1,78,0,-1,20.2,16.3,46000,304,3.1,2.6
2013,6,29,20:00,UTC,7,1009.4,-1,82,0,-1,19.4,16.4,33690,300,2.5,2
2013,6,29,21:00,UTC,7,1008.8,-1,88,0,-1,18.5,16.4,33730,326,2.7,2.4
2013,6,29,22:00,UTC,7,1008.6,2.7,97,1.8,-1,17.8,17.3,4150,310,1.5,1.1
2013,6,29,23:00,UTC,7,1008.4,0.4,98,0,-1,17.7,17.5,2950,310,1.7,1.1
2013,6,30,00:00,UTC,8,1008.4,0.3,99,0,-1,17.5,17.3,2250,245,1.8,1.3
2013,6,30,01:00,UTC,7,1008,-1,99,0,-1,17.3,17.2,1390,0,0.5,0
2013,6,30,02:00,UTC,7,1007.8,1.2,99,0.4,-1,17.4,17.2,2750,89,1.4,0.7
2013,6,30,03:00,UTC,7,1008.1,0.2,99,0.4,-1,17.7,17.5,2730,209,2.1,1.1
2013,6,30,04:00,UTC,7,1007.9,1,99,0.3,-1,17.8,17.7,7770,301,1,0.6
2013,6,30,05:00,UTC,7,1008.2,-1,97,0,-1,18.5,18,9410,257,2,1.4
2013,6,30,06:00,UTC,5,1008.2,-1,86,0,-1,20.2,17.8,25890,168,2.9,1.6
2013,6,30,07:00,UTC,7,1008.8,-1,90,0,-1,19.6,18,22120,169,2,0.8
2013,6,30,08:00,UTC,8,1009.1,-1,88,0,-1,19.6,17.5,24950,235,3,1.5
2013,6,30,09:00,UTC,7,1009.2,-1,76,0,-1,21.8,17.3,29900,235,4,2.1
2013,6,30,10:00,UTC,7,1009.8,-1,80,0,-1,20.9,17.3,28930,248,4.3,2
2013,6,30,11:00,UTC,7,1009.8,-1,79,0,-1,20.9,17.1,32800,248,6.1,3.4
2013,6,30,12:00,UTC,5,1009.8,-1,78,0,-1,21.6,17.6,29560,272,7.7,3.5
2013,6,30,13:00,UTC,7,1010,-1,81,0,-1,20.1,16.8,33510,267,4.7,2.7
2013,6,30,14:00,UTC,7,1009.9,-1,84,0,-1,19.3,16.5,38280,289,5.7,3.5
2013,6,30,15:00,UTC,7,1010,-1,85,0,-1,19.1,16.5,35830,286,5.2,2.8
2013,6,30,16:00,UTC,7,1010.2,-1,85,0,-1,19.1,16.6,23940,319,4.6,3.3
2013,6,30,17:00,UTC,8,1010.4,0.6,94,0,-1,18.1,17,13030,303,4,2.9
2013,6,30,18:00,UTC,8,1010.4,-1,94,0,-1,17.7,16.8,38470,304,4.4,3.4
2013,6,30,19:00,UTC,8,1010,-1,94,0,-1,17.3,16.3,37990,303,4.8,3.6
2013,6,30,20:00,UTC,7,1010,-1,94,0,-1,17,16,35380,296,5.8,3.8
2013,6,30,21:00,UTC,7,1009.7,-1,94,0,-1,16.5,15.6,31950,299,4.7,3.5
2013,6,30,22:00,UTC,7,1009.6,-1,96,0,-1,16.3,15.7,13310,289,3.2,2.3
2013,6,30,23:00,UTC,8,1009,1,98,1.4,-1,16.1,15.7,9090,295,4.9,3.3
2013,7,1,00:00,UTC,7,1008.7,0.6,98,0.7,-1,16,15.7,9900,271,1.6,0.8
2013,7,1,01:00,UTC,7,1008.4,0.3,98,0,-1,16.2,15.9,14700,280,3.9,2.3
2013,7,1,02:00,UTC,7,1008.2,0.3,98,0.5,-1,16,15.7,6760,295,5.3,3.2
2013,7,1,03:00,UTC,7,1008.6,3.4,98,1.5,-1,15.8,15.5,6480,294,4.3,2.7
2013,7,1,04:00,UTC,7,1008.4,1.8,98,0.7,-1,15.9,15.5,5490,300,4.6,3.2
2013,7,1,05:00,UTC,7,1008.3,0.1,96,0,-1,15.9,15.2,44280,307,4.6,3.4
2013,7,1,06:00,UTC,7,1008.4,-1,96,0,-1,15.9,15.3,31980,296,4.3,2.9
2013,7,1,07:00,UTC,7,1008.2,,95,1.1,-1,15.9,15.1,13090,294,6.7,4.2
2013,7,1,08:00,UTC,7,1008.1,,96,4.4,-1,15.6,15,4990,307,7.3,5
2013,7,1,09:00,UTC,7,1008.2,,96,1.6,-1,15.9,15.3,6210,316,4.9,3.6
2013,7,1,10:00,UTC,7,1008,,97,1.1,-1,15.8,15.2,3570,290,4.5,2.9
2013,7,1,11:00,UTC,7,1007.8,,97,0.6,-1,15.8,15.4,5040,289,5.2,3.3
2013,7,1,12:00,UTC,7,1007.4,,97,0,-1,16.3,15.7,5610,305,6.2,4.2
2013,7,1,13:00,UTC,7,1007.4,,96,0,-1,16.1,15.5,4770,302,5.1,3.8
2013,7,1,14:00,UTC,7,1007.4,-1,96,0,-1,16.4,15.8,7560,281,3,1.9
2013,7,1,15:00,UTC,7,1007.3,,97,0.6,-1,16,15.5,5960,293,4.4,3.1
2013,7,1,16:00,UTC,7,1007.1,,97,3.6,-1,15.8,15.4,6190,295,3.1,2.3
2013,7,1,17:00,UTC,7,1007,,98,1.1,-1,15.7,15.3,6730,272,2.4,1.2
2013,7,1,18:00,UTC,7,1006.6,0.7,97,0,-1,15.6,15.2,12520,305,4.6,3.2
2013,7,1,19:00,UTC,7,1006.8,-1,98,0,-1,15.4,15.1,6480,224,1.6,1.1
2013,7,1,20:00,UTC,7,1007,-1,99,0,-1,15,14.8,2960,251,1.1,0.8
2013,7,1,21:00,UTC,7,1007.4,-1,99,0,-1,14.9,14.8,6020,224,2.4,1.5
2013,7,1,22:00,UTC,7,1007.4,0.2,99,0,-1,14.7,14.6,3380,161,0.9,0.6
2013,7,1,23:00,UTC,7,1007.3,0.6,99,3.4,-1,14.8,14.6,4650,0,0.8,0
2013,7,2,00:00,UTC,7,1007.4,1.6,99,0.3,-1,14.4,14.2,14770,228,1.8,1.2
2013,7,2,01:00,UTC,7,1007.5,-1,99,0,-1,13.6,13.4,5400,224,2.1,1.3
2013,7,2,02:00,UTC,7,1007.7,-1,98,0,-1,13.5,13.1,10850,202,3.1,1.2
2013,7,2,03:00,UTC,7,1008.8,1.7,98,2.1,-1,13.2,12.9,5490,169,3.8,1.9
2013,7,2,04:00,UTC,7,1008.9,0.4,96,0,-1,13.8,13.2,14040,193,6,3.1
2013,7,2,05:00,UTC,1,1008.9,0.5,91,0,-1,14,12.5,41500,197,6.2,3
2013,7,2,06:00,UTC,3,1009.2,-1,88,0,-1,14.8,12.9,42540,193,8.6,3.8
2013,7,2,07:00,UTC,7,1009.8,-1,87,0,-1,14.5,12.3,46520,214,6,2.4
2013,7,2,08:00,UTC,7,1010.7,0.3,96,2,-1,12.5,11.8,11550,185,5.5,2.4
2013,7,2,09:00,UTC,5,1010.9,0.1,79,0,-1,15.8,12.1,34980,188,8.1,3.4
2013,7,2,10:00,UTC,3,1011.1,-1,70,0,-1,17.1,11.6,31460,178,8.4,3.9
2013,7,2,11:00,UTC,3,1011.3,-1,58,0,-1,18.1,9.7,33360,185,10.1,4.3
2013,7,2,12:00,UTC,3,1011.4,-1,60,0,-1,18.4,10.5,30680,192,7.7,3.7
2013,7,2,13:00,UTC,5,1011.7,-1,60,0,-1,18.4,10.4,34240,172,9,3.9
2013,7,2,14:00,UTC,7,1012.3,-1,64,0,-1,17.9,11,42570,163,6.5,3
2013,7,2,15:00,UTC,7,1012.6,-1,63,0,-1,17.9,10.7,42610,162,7,3.3
2013,7,2,16:00,UTC,5,1012.6,-1,59,0,-1,18.8,10.6,33560,166,7.8,3.8
2013,7,2,17:00,UTC,1,1013,-1,65,0,-1,18.4,11.6,47050,167,6.8,3.4
2013,7,2,18:00,UTC,5,1013.5,-1,72,0,-1,17,11.8,47100,165,4.4,2.2
2013,7,2,19:00,UTC,0,1013.8,-1,84,0,-1,15,12.3,43360,156,2,0.8
2013,7,2,20:00,UTC,1,1014.1,-1,93,0,-1,12.8,11.6,35870,160,2.7,0.9
2013,7,2,21:00,UTC,0,1014.4,-1,96,0,-1,11.8,11.2,21450,143,1.8,0.9
2013,7,2,22:00,UTC,3,1014.8,-1,98,0,-1,11.4,11,13220,126,1,0.7
2013,7,2,23:00,UTC,5,1015.1,-1,98,0,-1,11.3,10.9,20420,151,1.6,0.8
2013,7,3,00:00,UTC,3,1015.1,-1,93,0,-1,12.7,11.6,41990,155,2.1,0.9
2013,7,3,01:00,UTC,7,1015.3,-1,95,0,-1,11.4,10.6,24970,343,1.6,1.1
2013,7,3,02:00,UTC,7,1015.2,-1,96,0,-1,12.7,12,26860,138,2,1.3
2013,7,3,03:00,UTC,5,1015.2,-1,93,0,-1,13.7,12.6,30200,140,2.1,1.3
2013,7,3,04:00,UTC,7,1015.2,-1,91,0,-1,14.8,13.4,38840,143,1.9,1.1
2013,7,3,05:00,UTC,7,1014.9,-1,89,0,-1,15.8,14,37290,123,2.4,1.4
2013,7,3,06:00,UTC,7,1014.9,-1,89,0,-1,15.9,14,29380,156,3.9,2.2
2013,7,3,07:00,UTC,5,1015.1,-1,76,0,-1,17.1,12.7,34390,186,6.5,3.1
2013,7,3,08:00,UTC,7,1015.2,-1,79,0,-1,16.4,12.7,16380,196,6.7,3.5
2013,7,3,09:00,UTC,3,1015.1,-1,67,0,-1,18.6,12.3,32870,189,6.6,4
2013,7,3,10:00,UTC,5,1014.9,-1,65,0,-1,19.2,12.5,30930,178,6.4,3
2013,7,3,11:00,UTC,7,1014.9,-1,60,0,-1,19.8,11.8,42390,188,5.8,2.9
2013,7,3,12:00,UTC,5,1014.7,-1,56,0,-1,20.1,10.9,33930,195,6.4,3.2
2013,7,3,13:00,UTC,3,1014.8,-1,52,0,-1,20.1,9.9,35960,212,6.6,3.2
2013,7,3,14:00,UTC,7,1014.8,-1,45,0,-1,20.3,7.9,31720,213,8.5,3.7
2013,7,3,15:00,UTC,3,1014.9,-1,52,0,-1,20,9.8,34600,165,5.1,2.6
2013,7,3,16:00,UTC,7,1015.9,3.3,87,0,-1,17.3,15.1,21310,125,1.9,0.9
2013,7,3,17:00,UTC,0,1016.1,-1,74,0,-1,17.6,12.9,29950,260,3.9,1.9
2013,7,3,18:00,UTC,1,1016.4,-1,86,0,-1,15.4,13.1,35350,213,2.4,0.9
2013,7,3,19:00,UTC,0,1016.9,-1,91,0,-1,13.9,12.4,27430,211,1.2,1
2013,7,3,20:00,UTC,3,1017.5,-1,93,0,-1,13.1,12,19900,213,1.7,1.1
2013,7,3,21:00,UTC,0,1017.8,-1,98,0,-1,11.2,10.8,10410,0,0.7,0
2013,7,3,22:00,UTC,0,1018.3,-1,98,0,-1,9.8,9.5,1390,0,0.5,0
2013,7,3,23:00,UTC,0,1018.7,-1,98,0,-1,8.8,8.5,990,0,0.7,0
2013,7,4,00:00,UTC,0,1019.1,-1,99,0,-1,8.4,8.3,1010,0,0.2,0
2013,7,4,01:00,UTC,1,1019.3,-1,99,0,-1,7.3,7.1,2130,299,1.4,1.1
2013,7,4,02:00,UTC,0,1019.5,-1,99,0,-1,8.1,7.9,6520,291,1.1,0.8
2013,7,4,03:00,UTC,0,1019.6,-1,98,0,-1,10.1,9.8,13310,127,1.2,0.8
2013,7,4,04:00,UTC,0,1019.7,-1,91,0,-1,13.2,11.8,26540,143,1.7,0.9
2013,7,4,05:00,UTC,0,1019.6,-1,85,0,-1,15.4,12.9,32710,122,1.9,1.2
2013,7,4,06:00,UTC,0,1019.7,-1,61,0,-1,17.8,10.3,34170,183,4.3,2
2013,7,4,07:00,UTC,1,1020.1,-1,58,0,-1,16.8,8.5,41550,236,3.8,2
2013,7,4,08:00,UTC,1,1020,-1,50,0,-1,18.8,8.2,42210,196,5.2,2.5
2013,7,4,09:00,UTC,1,1020.1,-1,45,0,-1,19.8,7.6,30950,176,5.4,2.4
2013,7,4,10:00,UTC,0,1020,-1,41,0,-1,20,6.2,35280,253,6.1,2
2013,7,4,11:00,UTC,1,1019.8,-1,41,0,-1,20.5,6.7,34300,189,5.2,2.5
2013,7,4,12:00,UTC,1,1019.7,-1,39,0,-1,20.9,6.4,35540,181,5.9,3.5
2013,7,4,13:00,UTC,5,1019.7,-1,36,0,-1,21.2,5.5,35640,215,4.4,1.9
2013,7,4,14:00,UTC,7,1020,-1,42,0,-1,19.9,6.8,42770,212,4.5,1.6
2013,7,4,15:00,UTC,7,1019.9,-1,48,0,-1,19.4,8.2,36060,203,2.6,1.2
2013,7,4,16:00,UTC,7,1019.8,-1,58,0,-1,19.3,10.9,34760,0,1.1,0
2013,7,4,17:00,UTC,7,1019.7,-1,66,0,-1,18.5,11.9,43660,177,1.2,0.6
2013,7,4,18:00,UTC,7,1019.5,-1,66,0,-1,18.3,11.9,40490,153,1.2,0.7
2013,7,4,19:00,UTC,7,1019.6,-1,68,0,-1,18.2,12.2,31990,160,1.4,0.6
2013,7,4,20:00,UTC,7,1019.6,-1,79,0,-1,16.2,12.6,41170,124,1,0.7
2013,7,4,21:00,UTC,5,1019.8,-1,87,0,-1,14.6,12.4,33330,159,1.1,0.8
2013,7,4,22:00,UTC,7,1019.9,-1,91,0,-1,14.3,12.9,24750,147,0.9,0.7
2013,7,4,23:00,UTC,8,1019.8,-1,91,0,-1,14.6,13.1,32360,0,0.4,0
2013,7,5,00:00,UTC,8,1019.7,-1,93,0,-1,14.4,13.3,24690,167,1.3,0.7
2013,7,5,01:00,UTC,8,1019.5,-1,93,0,-1,14.9,13.8,23070,150,1.1,0.9
2013,7,5,02:00,UTC,7,1019.5,-1,94,0,-1,15,14.1,20480,0,1,0
2013,7,5,03:00,UTC,8,1019.3,-1,94,0,-1,15.4,14.3,20350,125,1,0.8
2013,7,5,04:00,UTC,7,1019.2,-1,91,0,-1,16.5,15.1,25140,142,1.2,0.8
2013,7,5,05:00,UTC,5,1018.6,-1,74,0,-1,19,14.3,30350,159,2.9,1.6
2013,7,5,06:00,UTC,7,1018.6,-1,70,0,-1,19.1,13.6,35600,141,2.8,1.3
2013,7,5,07:00,UTC,5,1018.5,-1,66,0,-1,20.1,13.6,35380,130,4.4,2.3
2013,7,5,08:00,UTC,7,1018.4,-1,58,0,-1,20.8,12.2,35830,163,3.8,1.9
2013,7,5,09:00,UTC,7,1018.5,-1,58,0,-1,21.3,12.7,38120,163,4.1,2
2013,7,5,10:00,UTC,3,1018.1,-1,61,0,-1,22.4,14.5,33280,154,5.7,2.7
2013,7,5,11:00,UTC,5,1017.6,-1,59,0,-1,23.8,15.4,35520,162,5.2,2.7
2013,7,5,12:00,UTC,7,1017.6,0.3,79,1.7,-1,20.9,17.2,22580,218,3.2,2
2013,7,5,13:00,UTC,3,1017.2,1.8,82,0,-1,22,18.7,29720,130,1.7,1.1
2013,7,5,14:00,UTC,3,1016.7,-1,67,0,-1,23.2,16.6,37720,205,4.2,2.3
2013,7,5,15:00,UTC,3,1016.4,-1,58,0,-1,24.9,16.2,30900,151,3.3,1.1
2013,7,5,16:00,UTC,3,1015.8,-1,57,0,-1,24.6,15.6,38440,166,2.9,0.9
2013,7,5,17:00,UTC,7,1016.3,-1,71,0,-1,22.3,16.9,36680,190,4.5,2.4
2013,7,5,18:00,UTC,7,1016.4,-1,80,0,-1,20.4,16.9,39040,259,4.9,2
2013,7,5,19:00,UTC,7,1016.7,-1,89,0,-1,19,17.2,17150,193,4,1.9
2013,7,5,20:00,UTC,7,1016.9,-1,96,0,-1,18,17.4,10420,161,2.1,1.1
2013,7,5,21:00,UTC,7,1016.9,-1,97,0,-1,17,16.5,8630,154,2.5,1
2013,7,5,22:00,UTC,7,1017,-1,99,0,-1,16.6,16.4,1830,0,0.6,0
2013,7,5,23:00,UTC,7,1016.7,-1,99,0,-1,16.6,16.4,4690,157,1.3,0.8
2013,7,6,00:00,UTC,9,1016.7,9.7,99,55.4,-1,16.7,16.5,480,220,3.9,2
2013,7,6,01:00,UTC,9,1016.9,8.4,99,25,-1,16.6,16.4,1470,268,3,1.6
2013,7,6,02:00,UTC,7,1017,3.2,98,0,-1,16.5,16.2,8330,272,4.5,2.4
2013,7,6,03:00,UTC,7,1017.3,3.2,96,5.3,-1,14.8,14.3,4370,296,3.5,2.5
2013,7,6,04:00,UTC,7,1017.6,0.8,98,0,-1,15,14.6,8700,247,2.4,1.2
2013,7,6,05:00,UTC,3,1017.7,-1,92,0,-1,16.3,15.1,15770,257,3.9,1.9
2013,7,6,06:00,UTC,7,1018.1,-1,91,0,-1,16.2,14.7,19480,251,3.3,1.6
2013,7,6,07:00,UTC,8,1018.3,-1,90,0,-1,16.4,14.8,20970,250,4,1.7
2013,7,6,08:00,UTC,7,1018.5,-1,81,0,-1,17.8,14.5,32370,273,3.9,2
2013,7,6,09:00,UTC,8,1019.1,-1,84,0,-1,18.1,15.3,29000,275,4,2.1
2013,7,6,10:00,UTC,8,1019.7,-1,84,0,-1,17.4,14.7,33970,300,7.4,5
2013,7,6,11:00,UTC,7,1019.9,-1,81,0,-1,18.5,15.2,33370,319,7.5,4.8
2013,7,6,12:00,UTC,7,1020.2,-1,75,0,-1,18.7,14.2,39530,315,8.8,6.2
2013,7,6,13:00,UTC,7,1020.5,-1,75,0,-1,18.5,14.1,42710,305,6.3,4.5
2013,7,6,14:00,UTC,7,1020.6,-1,67,0,-1,19.8,13.5,40360,311,9.2,6
2013,7,6,15:00,UTC,7,1020.9,-1,66,0,-1,19.8,13.3,38810,309,9.3,6.9
2013,7,6,16:00,UTC,5,1021.3,-1,66,0,-1,19.4,12.8,44690,307,6.9,4.3
2013,7,6,17:00,UTC,5,1021.5,-1,63,0,-1,19.4,12.2,42020,320,6.6,4.3
2013,7,6,18:00,UTC,3,1021.9,-1,66,0,-1,18.6,12.1,49750,304,6,4.3
2013,7,6,19:00,UTC,5,1022.3,-1,65,0,-1,17.6,11.1,50000,308,5.2,4
2013,7,6,20:00,UTC,0,1022.9,-1,73,0,-1,15.5,10.7,50000,302,4.7,3.6
2013,7,6,21:00,UTC,0,1023.4,-1,74,0,-1,15.4,10.7,50000,295,5.5,4.3
2013,7,6,22:00,UTC,7,1023.8,-1,74,0,-1,15.2,10.6,50000,301,5.6,3.7
2013,7,6,23:00,UTC,0,1024.1,-1,83,0,-1,12.7,9.8,50000,305,3.8,2.7
2013,7,7,00:00,UTC,0,1024.1,-1,84,0,-1,12.6,9.9,50000,303,3,2
2013,7,7,01:00,UTC,0,1024.2,-1,82,0,-1,12.7,9.7,50000,295,4.1,3.2
2013,7,7,02:00,UTC,0,1024.4,-1,85,0,-1,11.6,9.2,50000,308,3.2,2.3
2013,7,7,03:00,UTC,0,1024.3,-1,76,0,-1,13.3,9.2,41350,296,4.6,3.5
2013,7,7,04:00,UTC,0,1024.1,-1,67,0,-1,15.6,9.4,47590,297,4,2.9
2013,7,7,05:00,UTC,0,1024,-1,60,0,-1,17.6,9.6,46980,312,5.1,4
2013,7,7,06:00,UTC,5,1024.2,-1,60,0,-1,18,10.2,38740,312,4.5,3.5
2013,7,7,07:00,UTC,7,1024.2,-1,48,0,-1,19.9,8.5,34870,298,6.2,4.6
2013,7,7,08:00,UTC,0,1024.1,-1,42,0,-1,20.8,7.4,41830,303,6.3,4.3
2013,7,7,09:00,UTC,0,1024,-1,46,0,-1,21.5,9.4,32330,295,5.4,2.2
2013,7,7,10:00,UTC,0,1023.8,-1,42,0,-1,22,8.4,32500,248,4.2,1.9
2013,7,7,11:00,UTC,0,1023.3,-1,37,0,-1,22.1,6.7,35610,333,4.9,1.9
2013,7,7,12:00,UTC,0,1022.8,-1,38,0,-1,23.1,7.8,42230,307,4.4,2.8
2013,7,7,13:00,UTC,0,1022.3,-1,30,0,-1,23.8,5,37810,213,3.6,1.8
2013,7,7,14:00,UTC,0,1021.9,-1,33,0,-1,23.7,6.5,35690,318,5.7,2.5
2013,7,7,15:00,UTC,1,1021.6,-1,38,0,-1,23.5,8.4,44790,315,5.2,3.7
2013,7,7,16:00,UTC,0,1021.4,-1,37,0,-1,23.4,8,43440,264,5.4,2.8
2013,7,7,17:00,UTC,0,1021.3,-1,38,0,-1,22.9,7.8,47500,267,3.8,2.4
2013,7,7,18:00,UTC,0,1021.4,-1,49,0,-1,20.8,9.8,42330,295,2.6,1.5
2013,7,7,19:00,UTC,0,1021.5,-1,59,0,-1,19.1,10.9,50000,236,1.8,1.4
2013,7,7,20:00,UTC,0,1021.7,-1,78,0,-1,15.7,11.9,48300,285,1.7,0.6
2013,7,7,21:00,UTC,0,1021.9,-1,89,0,-1,13.8,12.1,50000,0,0.6,0
2013,7,7,22:00,UTC,0,1022.1,-1,96,0,-1,12.7,12.2,38370,339,1.5,0.8
2013,7,7,23:00,UTC,0,1022.1,-1,96,0,-1,12,11.4,47170,0,0.5,0
2013,7,8,00:00,UTC,5,1021.7,-1,77,0,-1,15.3,11.4,50000,293,4.4,3.3
2013,7,8,01:00,UTC,8,1021.7,-1,74,0,-1,15.4,10.9,48050,293,5.2,3.7
2013,7,8,02:00,UTC,7,1021.9,-1,80,0,-1,14.7,11.4,49540,300,3.9,2.5
2013,7,8,03:00,UTC,1,1022,-1,80,0,-1,14.8,11.4,48920,301,5.5,3.5
2013,7,8,04:00,UTC,7,1022.2,-1,78,0,-1,15.8,12,45440,329,8.4,6.1
2013,7,8,05:00,UTC,7,1022.5,-1,78,0,-1,14.8,11,39460,325,5.9,4.1
2013,7,8,06:00,UTC,7,1023.1,-1,76,0,-1,14.4,10.2,45750,298,4.6,3.5
2013,7,8,07:00,UTC,7,1023.5,-1,76,0,-1,13.3,9.1,25740,302,7.2,4.7
2013,7,8,08:00,UTC,7,1024.1,-1,77,0,-1,13.1,9.1,21360,308,6.9,4.9
2013,7,8,09:00,UTC,7,1024.1,-1,67,0,-1,14.1,8,20800,310,5,3.2
2013,7,8,10:00,UTC,1,1023.6,-1,54,0,-1,16.8,7.3,26030,316,7.7,5.8
2013,7,8,11:00,UTC,3,1023.3,-1,49,0,-1,17.8,7,30660,327,7.3,4.7
2013,7,8,12:00,UTC,3,1022.9,-1,45,0,-1,18.5,6.3,31180,308,7.9,5.3
2013,7,8,13:00,UTC,5,1022.8,-1,43,0,-1,19.1,6,29460,324,8.8,6.7
2013,7,8,14:00,UTC,7,1022.7,-1,45,0,-1,18.2,6.1,35240,328,8.4,5.8
2013,7,8,15:00,UTC,1,1022.8,-1,44,0,-1,17.5,5.2,49610,309,9.8,7.3
2013,7,8,16:00,UTC,1,1023,-1,47,0,-1,17,5.5,48920,318,9.5,6.6
2013,7,8,17:00,UTC,0,1023.2,-1,54,0,-1,15.9,6.5,46230,310,7.2,5.4
2013,7,8,18:00,UTC,1,1023.2,-1,55,0,-1,15.7,6.7,48080,306,7.9,5.7
2013,7,8,19:00,UTC,0,1023.6,-1,60,0,-1,14.3,6.5,50000,297,5.5,3.5
2013,7,8,20:00,UTC,1,1023.6,-1,64,0,-1,13.1,6.3,50000,293,5.2,3.8
2013,7,8,21:00,UTC,0,1023.6,-1,73,0,-1,11.4,6.7,50000,286,3.8,2.4
2013,7,8,22:00,UTC,0,1023.9,-1,87,0,-1,8.5,6.5,50000,303,3.6,1.9
2013,7,8,23:00,UTC,0,1024,-1,91,0,-1,8,6.7,50000,306,2.7,1.4
2013,7,9,00:00,UTC,0,1023.7,-1,92,0,-1,7.4,6.3,50000,307,2.9,2.2
2013,7,9,01:00,UTC,0,1023.5,-1,95,0,-1,7.4,6.5,50000,323,2,1.5
2013,7,9,02:00,UTC,0,1023.5,-1,92,0,-1,7.5,6.3,50000,308,2.3,1.7
2013,7,9,03:00,UTC,0,1023.2,-1,89,0,-1,9.4,7.7,42180,301,3,2.4
2013,7,9,04:00,UTC,0,1022.6,-1,82,0,-1,11.6,8.6,48900,304,3.1,1.9
2013,7,9,05:00,UTC,1,1022,-1,78,0,-1,12.9,9.1,47580,307,3.3,2.3
2013,7,9,06:00,UTC,1,1021.6,-1,66,0,-1,15,8.8,43600,270,3.1,1.7
2013,7,9,07:00,UTC,1,1021.2,-1,58,0,-1,16.4,8.1,44730,288,5.7,3.1
2013,7,9,08:00,UTC,3,1020.8,-1,56,0,-1,16.5,7.7,33040,262,5.9,3.1
2013,7,9,09:00,UTC,3,1020.2,-1,49,0,-1,16.9,6.1,36610,283,5.9,3.8
2013,7,9,10:00,UTC,1,1019.5,-1,49,0,-1,18,7.1,43340,266,5.8,2.8
2013,7,9,11:00,UTC,1,1018.6,-1,48,0,-1,18.9,7.7,40370,263,5.1,2.7
2013,7,9,12:00,UTC,1,1017.6,-1,49,0,-1,19.2,8.1,36410,254,6.1,3
2013,7,9,13:00,UTC,3,1016.6,-1,50,0,-1,19.6,9,44280,244,5.9,2.4
2013,7,9,14:00,UTC,1,1015.8,-1,50,0,-1,19.9,9.2,34930,225,5.8,2.8
2013,7,9,15:00,UTC,3,1015.1,-1,50,0,-1,20.3,9.5,40050,217,5.9,2.9
2013,7,9,16:00,UTC,0,1014.3,-1,47,0,-1,20.7,9,37480,222,4.5,2
2013,7,9,17:00,UTC,3,1013.7,-1,49,0,-1,20.1,9.1,34240,207,4.3,2.2
2013,7,9,18:00,UTC,1,1013.3,-1,53,0,-1,19.4,9.7,45170,203,3.1,1.8
2013,7,9,19:00,UTC,7,1012.9,-1,70,0,-1,16.6,11.1,50000,165,2.3,1.1
2013,7,9,20:00,UTC,5,1012.5,-1,69,0,-1,15.9,10.3,50000,164,2.6,1.2
2013,7,9,21:00,UTC,8,1012.2,-1,73,0,-1,15.3,10.4,50000,150,2.3,1.2
2013,7,9,22:00,UTC,7,1011.8,-1,81,0,-1,14.4,11.2,50000,142,1.9,0.9
2013,7,9,23:00,UTC,8,1011.3,-1,74,0,-1,15.3,10.6,45560,154,2,0.9
2013,7,10,00:00,UTC,8,1010.6,-1,69,0,-1,15.4,9.8,50000,181,2.4,1.3
2013,7,10,01:00,UTC,8,1010.2,-1,74,0,-1,14.2,9.7,50000,150,2,0.9
2013,7,10,02:00,UTC,7,1009.8,-1,88,0,-1,12.3,10.4,50000,149,2.1,1
2013,7,10,03:00,UTC,7,1009.6,-1,84,0,-1,13.1,10.4,50000,192,2.3,1
2013,7,10,04:00,UTC,8,1009.2,-1,86,0,-1,13.3,11,44640,163,3.1,1.2
2013,7,10,05:00,UTC,8,1009,-1,89,0,-1,13.5,11.7,38870,189,4.1,1.8
2013,7,10,06:00,UTC,8,1009,-1,94,0,-1,13.4,12.5,6270,200,3.9,1.6
2013,7,10,07:00,UTC,8,1009,0.3,97,0,-1,13.8,13.4,2430,197,1.9,1
2013,7,10,08:00,UTC,8,1009.2,-1,98,0,-1,14.1,13.7,3970,205,2.1,1.1
2013,7,10,09:00,UTC,8,1009.3,-1,96,0,-1,14.9,14.3,16090,205,1.7,0.9
2013,7,10,10:00,UTC,8,1009.6,-1,95,0,-1,14.6,13.8,15340,327,5,3.7
2013,7,10,11:00,UTC,8,1009.6,-1,89,0,-1,15.8,14,35230,338,3.2,2.1
2013,7,10,12:00,UTC,7,1009.7,-1,81,0,-1,16.9,13.7,36150,357,4.5,3.3
2013,7,10,13:00,UTC,5,1009.5,-1,75,0,-1,18.3,13.8,37140,14,4.1,2.8
2013,7,10,14:00,UTC,7,1009.9,-1,79,0,-1,17.2,13.5,35620,341,5.7,4.1
2013,7,10,15:00,UTC,7,1010.1,-1,73,0,-1,17.8,13,36350,1,3.6,2.7
2013,7,10,16:00,UTC,8,1010.3,-1,78,0,-1,17.3,13.4,38130,321,3.8,2.9
2013,7,10,17:00,UTC,8,1010.5,-1,86,0,-1,16.5,14.2,21750,345,4.3,3
2013,7,10,18:00,UTC,5,1010.5,0.2,80,0,-1,16.6,13.2,35180,339,2.4,1.6
2013,7,10,19:00,UTC,3,1011,-1,87,0,-1,15.3,13.1,30880,291,4.3,2.5
2013,7,10,20:00,UTC,7,1011.5,-1,85,0,-1,15,12.4,46110,333,5.6,4.1
2013,7,10,21:00,UTC,1,1011.9,-1,86,0,-1,13.3,11.1,50000,321,6.6,4.4
2013,7,10,22:00,UTC,3,1012.3,-1,87,0,-1,12.5,10.4,50000,304,5,3.9
2013,7,10,23:00,UTC,3,1012.6,-1,84,0,-1,11.1,8.5,50000,310,5.2,4.2
2013,7,11,00:00,UTC,0,1012.7,-1,88,0,-1,9.9,7.9,50000,305,4.8,3.8
2013,7,11,01:00,UTC,0,1013.1,-1,88,0,-1,9.8,7.9,50000,299,4,3.3
2013,7,11,02:00,UTC,1,1013.2,-1,91,0,-1,9.2,7.8,50000,289,3,2
2013,7,11,03:00,UTC,8,1013.3,-1,87,0,-1,10.5,8.4,50000,287,3.5,2.5
2013,7,11,04:00,UTC,8,1013.4,-1,85,0,-1,11.9,9.5,50000,316,5.2,3.4
2013,7,11,05:00,UTC,1,1013.4,-1,75,0,-1,13.4,9,41810,333,7.1,5.1
2013,7,11,06:00,UTC,0,1013.7,-1,67,0,-1,14.2,8.2,39840,1,6.1,4.5
2013,7,11,07:00,UTC,7,1013.7,-1,59,0,-1,15.4,7.4,38110,6,6.7,4.3
2013,7,11,08:00,UTC,0,1013.7,-1,56,0,-1,16.5,7.7,40190,342,6.6,4.1
2013,7,11,09:00,UTC,3,1013.7,-1,45,0,-1,16.8,4.7,38880,315,6.8,4.1
2013,7,11,10:00,UTC,1,1013.4,-1,42,0,-1,17.6,4.6,33480,355,6.1,3.2
2013,7,11,11:00,UTC,1,1013.2,-1,44,0,-1,17.8,5.4,41080,326,10,4.3
2013,7,11,12:00,UTC,7,1013.2,-1,46,0,-1,18.6,6.8,43580,324,5.9,3.6
2013,7,11,13:00,UTC,3,1013,-1,39,0,-1,19.3,5.1,42010,244,2.6,1.4
2013,7,11,14:00,UTC,5,1012.9,-1,41,0,-1,18.9,5.4,45170,321,5.3,3.7
2013,7,11,15:00,UTC,3,1012.9,-1,42,0,-1,19.2,6.1,50000,316,5.7,3.6
2013,7,11,16:00,UTC,1,1012.9,-1,44,0,-1,18.7,6.1,50000,311,4.7,3.5
2013,7,11,17:00,UTC,0,1013.1,-1,45,0,-1,17.8,5.8,44760,316,6.3,4.8
2013,7,11,18:00,UTC,0,1013.6,-1,57,0,-1,16,7.5,50000,322,6,4.5
2013,7,11,19:00,UTC,0,1014.1,-1,63,0,-1,14.3,7.3,50000,304,5,3.9
2013,7,11,20:00,UTC,0,1014.5,-1,70,0,-1,12.7,7.3,50000,304,3.4,2.8
2013,7,11,21:00,UTC,0,1015.1,-1,77,0,-1,10.7,6.8,50000,310,2.4,2
2013,7,11,22:00,UTC,0,1015.6,-1,90,0,-1,8.1,6.5,50000,309,1.3,1
2013,7,11,23:00,UTC,0,1016.1,-1,93,0,-1,7.5,6.5,50000,312,1.5,1
2013,7,12,00:00,UTC,0,1016.3,-1,96,0,-1,6.7,6.2,50000,294,1.5,0.7
2013,7,12,01:00,UTC,0,1016.6,-1,97,0,-1,6.2,5.8,46300,290,1.9,1.6
2013,7,12,02:00,UTC,0,1016.9,-1,96,0,-1,5.2,4.5,43330,292,1.5,1.2
2013,7,12,03:00,UTC,0,1016.8,-1,93,0,-1,8.5,7.5,50000,298,1.8,1.4
2013,7,12,04:00,UTC,0,1016.8,-1,80,0,-1,11.6,8.4,45620,337,1.3,0.9
2013,7,12,05:00,UTC,0,1016.8,-1,70,0,-1,13.8,8.5,36140,353,2.2,1.3
2013,7,12,06:00,UTC,0,1016.8,-1,64,0,-1,15.1,8.4,34600,351,3.4,1.5
2013,7,12,07:00,UTC,0,1017,-1,54,0,-1,16,6.8,49740,347,3.9,2.2
2013,7,12,08:00,UTC,0,1016.9,-1,50,0,-1,17.3,6.7,41300,74,3.2,1.6
2013,7,12,09:00,UTC,0,1016.9,-1,43,0,-1,18.6,5.6,43420,283,4.1,2.1
2013,7,12,10:00,UTC,0,1016.7,-1,40,0,-1,19.7,5.8,50000,310,5.6,2.7
2013,7,12,11:00,UTC,1,1016.3,-1,40,0,-1,20.5,6.5,30310,327,4.1,2.5
2013,7,12,12:00,UTC,5,1016.1,-1,38,0,-1,21.1,6.2,40280,262,3.9,1.8
2013,7,12,13:00,UTC,7,1015.8,-1,38,0,-1,21.1,6.3,36320,262,5.2,2.8
2013,7,12,14:00,UTC,7,1015.7,-1,42,0,-1,21.1,7.7,44170,5,4.7,3.2
2013,7,12,15:00,UTC,7,1015.6,-1,43,0,-1,21,7.8,48900,308,2.5,1.4
2013,7,12,16:00,UTC,7,1015.6,-1,44,0,-1,20.7,8.2,46850,333,4.3,2.9
2013,7,12,17:00,UTC,0,1015.6,-1,42,0,-1,20.9,7.5,50000,333,6.3,4.5
2013,7,12,18:00,UTC,0,1015.9,-1,53,0,-1,19.5,9.8,47910,335,4.1,3
2013,7,12,19:00,UTC,0,1016.5,-1,63,0,-1,17.3,10.1,50000,312,3.9,3.5
2013,7,12,20:00,UTC,0,1017.3,-1,65,0,-1,14.7,8.3,50000,340,4,3
2013,7,12,21:00,UTC,0,1017.8,-1,57,0,-1,14.4,5.8,50000,335,2.8,2.3
2013,7,12,22:00,UTC,0,1018,-1,58,0,-1,13.5,5.5,50000,318,2.5,2
2013,7,12,23:00,UTC,0,1018.2,-1,68,0,-1,11.8,6.2,50000,307,2.3,1.9
2013,7,13,00:00,UTC,0,1018.5,-1,86,0,-1,8.4,6.2,50000,304,2.1,1.8
2013,7,13,01:00,UTC,0,1018.8,-1,91,0,-1,7.6,6.2,50000,315,1.7,1.4
2013,7,13,02:00,UTC,0,1019,-1,90,0,-1,7.4,5.9,50000,320,1.9,1.7
2013,7,13,03:00,UTC,0,1018.8,-1,88,0,-1,9.1,7.2,48960,306,1.5,1.3
2013,7,13,04:00,UTC,0,1018.5,-1,77,0,-1,11.9,8,37070,310,1.8,1.2
2013,7,13,05:00,UTC,0,1018.2,-1,64,0,-1,14.9,8.2,33880,35,1.9,1.2
2013,7,13,06:00,UTC,0,1018,-1,57,0,-1,16.3,7.7,41130,107,2.5,1.3
2013,7,13,07:00,UTC,0,1017.7,-1,53,0,-1,17.5,7.8,38900,118,2.7,1
2013,7,13,08:00,UTC,1,1017.5,-1,54,0,-1,18.6,9,34800,136,3.5,1.9
2013,7,13,09:00,UTC,3,1017.2,-1,48,0,-1,19.4,8.1,34090,121,2.7,1.7
2013,7,13,10:00,UTC,5,1016.6,-1,44,0,-1,20.7,7.9,41960,309,2.9,1.7
2013,7,13,11:00,UTC,7,1016.1,-1,44,0,-1,20.7,8,38040,128,4.8,2.4
2013,7,13,12:00,UTC,7,1015.8,-1,45,0,-1,21.4,9.1,34650,126,3,1.9
2013,7,13,13:00,UTC,1,1015.1,-1,45,0,-1,22.6,10,28290,138,3,1.6
2013,7,13,14:00,UTC,0,1014.2,-1,43,0,-1,23.5,10,28500,149,4.2,1.4
2013,7,13,15:00,UTC,0,1013.7,-1,41,0,-1,22.9,9.1,33980,138,4.6,2.3
2013,7,13,16:00,UTC,1,1013.2,-1,47,0,-1,22.3,10.5,36100,157,2.7,1.1
2013,7,13,17:00,UTC,3,1012.9,-1,43,0,-1,22.2,9,36480,154,3.8,1.7
2013,7,13,18:00,UTC,3,1012.7,-1,56,0,-1,20.1,10.9,34020,180,2.3,1.2
2013,7,13,19:00,UTC,1,1012.7,-1,70,0,-1,17.2,11.7,38940,174,1.8,1
2013,7,13,20:00,UTC,8,1012.6,-1,73,0,-1,16.1,11.3,38300,159,1.5,0.9
2013,7,13,21:00,UTC,5,1012.4,-1,78,0,-1,15,11.2,40370,153,1.5,1
2013,7,13,22:00,UTC,8,1012.4,-1,83,0,-1,14.1,11.3,41320,172,1.7,0.9
2013,7,13,23:00,UTC,3,1012.1,-1,86,0,-1,13.4,11,44420,125,1,0.9
2013,7,14,00:00,UTC,3,1011.8,-1,91,0,-1,12.4,11,39070,0,1.1,0
2013,7,14,01:00,UTC,0,1011.5,-1,91,0,-1,11,9.6,33350,0,0.3,0
2013,7,14,02:00,UTC,0,1011.5,-1,96,0,-1,10.7,10.1,29540,162,1.4,0.9
2013,7,14,03:00,UTC,0,1010.9,-1,91,0,-1,12.3,10.8,30980,134,1.4,1.1
2013,7,14,04:00,UTC,0,1010.5,-1,79,0,-1,15.3,11.8,39580,132,2.2,1.4
2013,7,14,05:00,UTC,0,1009.8,-1,70,0,-1,18.1,12.7,36560,146,4.5,1.6
2013,7,14,06:00,UTC,0,1009.3,-1,58,0,-1,20.4,11.9,30370,210,4.6,2
2013,7,14,07:00,UTC,3,1009.3,-1,48,0,-1,21.3,9.9,34230,242,7.3,3.2
2013,7,14,08:00,UTC,1,1009.4,-1,49,0,-1,21.1,9.9,40420,239,7.9,3.7
2013,7,14,09:00,UTC,1,1008.8,-1,47,0,-1,22.2,10.4,28950,211,5.5,2.8
2013,7,14,10:00,UTC,3,1008.5,-1,48,0,-1,21.9,10.5,35900,267,6,3.4
2013,7,14,11:00,UTC,5,1008,-1,49,0,-1,22.1,10.8,37450,239,5.3,2.5
2013,7,14,12:00,UTC,3,1007.2,-1,42,0,-1,24.3,10.6,35850,190,5.8,3
2013,7,14,13:00,UTC,7,1007.2,-1,71,0,-1,19.5,14,47330,323,10.7,8
2013,7,14,14:00,UTC,7,1007.4,-1,83,0,-1,17,14.1,35240,342,9,6.6
2013,7,14,15:00,UTC,7,1007.6,0.3,94,1.8,-1,15.8,14.8,24650,330,4.3,3.2
2013,7,14,16:00,UTC,7,1007.3,0.5,95,0.7,-1,14.6,13.7,9290,321,8.1,5.2
2013,7,14,17:00,UTC,7,1007.3,0.7,96,0,-1,14.8,14.1,29950,126,2.5,1.3
2013,7,14,18:00,UTC,7,1007.4,-1,97,0,-1,14.8,14.3,21700,268,1.8,1.2
2013,7,14,19:00,UTC,7,1007.3,-1,96,0,-1,14.6,14,34710,277,2.5,1.2
2013,7,14,20:00,UTC,8,1007.5,-1,96,0,-1,13.7,13,46490,299,4,2.9
2013,7,14,21:00,UTC,7,1008.2,0.2,96,1.1,-1,12.7,12,8500,294,7.5,5
2013,7,14,22:00,UTC,8,1008.5,-1,96,0,-1,11.8,11.1,50000,302,6,4.8
2013,7,14,23:00,UTC,7,1008.8,-1,93,0,-1,11,9.9,48900,300,7,4.2
2013,7,15,00:00,UTC,1,1008.9,-1,95,0,-1,10,9.3,50000,295,3.9,3
2013,7,15,01:00,UTC,0,1009,-1,97,0,-1,8.4,8,33930,321,2.3,1.9
2013,7,15,02:00,UTC,0,1009.2,-1,99,0,-1,8.3,8.1,16430,299,2.9,1.6
2013,7,15,03:00,UTC,0,1008.9,-1,91,0,-1,10.7,9.2,40170,0,0.7,0
2013,7,15,04:00,UTC,1,1009.1,-1,88,0,-1,10.8,8.9,40160,295,3,1.8
2013,7,15,05:00,UTC,0,1008.9,-1,88,0,-1,12.4,10.4,44770,297,3.5,2.3
2013,7,15,06:00,UTC,0,1008.5,-1,75,0,-1,14.2,9.9,37670,296,3.8,1.4
2013,7,15,07:00,UTC,0,1008.6,-1,61,0,-1,15.1,7.7,35640,295,4.1,2.3
2013,7,15,08:00,UTC,1,1008.5,-1,58,0,-1,16.1,7.8,32700,273,4.2,2.3
2013,7,15,09:00,UTC,1,1008.3,-1,54,0,-1,17,7.7,40520,260,3.8,2
2013,7,15,10:00,UTC,1,1008,-1,53,0,-1,17.7,7.9,37820,257,4.1,1.6
2013,7,15,11:00,UTC,5,1007.6,-1,50,0,-1,18.3,7.7,38980,230,3.7,1.8
2013,7,15,12:00,UTC,1,1007,-1,47,0,-1,19.1,7.6,36610,239,3.6,1.7
2013,7,15,13:00,UTC,3,1006.6,-1,53,0,-1,19.1,9.3,40050,181,1.8,0.8
2013,7,15,14:00,UTC,3,1006,-1,50,0,-1,19.2,8.4,45200,235,3.4,1.6
2013,7,15,15:00,UTC,7,1005.5,-1,59,0,-1,18.5,10.2,50000,205,1.2,0.6
2013,7,15,16:00,UTC,7,1004.9,-1,52,0,-1,18.6,8.4,39360,163,3.1,1.7
2013,7,15,17:00,UTC,7,1004.6,-1,60,0,-1,18,10.3,50000,158,3.3,1.4
2013,7,15,18:00,UTC,7,1004.2,-1,66,0,-1,17.4,11.1,50000,161,2.5,1.1
2013,7,15,19:00,UTC,1,1003.9,-1,80,0,-1,14.3,10.9,50000,156,1.9,1
2013,7,15,20:00,UTC,5,1003.7,-1,76,0,-1,14.6,10.3,50000,207,2.4,1.1
2013,7,15,21:00,UTC,8,1003.6,-1,68,0,-1,14.9,8.9,50000,227,3.3,1.1
2013,7,15,22:00,UTC,8,1003,-1,72,0,-1,14.1,9.1,50000,175,2.2,1.1
2013,7,15,23:00,UTC,7,1002.8,-1,74,0,-1,13.8,9.3,50000,177,2.3,1.1
2013,7,16,00:00,UTC,7,1002.8,0.1,90,0,-1,12.1,10.5,29930,275,2.3,1.3
2013,7,16,01:00,UTC,7,1003.3,-1,87,0,-1,11.6,9.5,50000,279,5.6,2.9
2013,7,16,02:00,UTC,0,1004,-1,88,0,-1,10,8,50000,289,5.4,3.7
2013,7,16,03:00,UTC,1,1004.2,-1,86,0,-1,10,7.7,50000,268,6.2,3
2013,7,16,04:00,UTC,3,1004.3,-1,80,0,-1,10.8,7.5,50000,275,8.3,3.4
2013,7,16,05:00,UTC,5,1004.1,-1,77,0,-1,10.8,7,46610,269,7.5,3
2013,7,16,06:00,UTC,5,1004.2,-1,71,0,-1,11.4,6.3,31340,282,7.2,4
2013,7,16,07:00,UTC,5,1004.3,-1,63,0,-1,11.7,4.9,46680,258,7.9,3.9
2013,7,16,08:00,UTC,5,1004.2,-1,51,0,-1,12.9,3.1,50000,266,8.1,4.2
2013,7,16,09:00,UTC,7,1005.2,0.7,87,0.5,-1,9.7,7.7,29790,270,5.6,2.5
2013,7,16,10:00,UTC,1,1004.1,0.1,68,0,-1,12.9,7.1,33500,268,8.5,4.8
2013,7,16,11:00,UTC,7,1004.3,-1,75,0,-1,12.9,8.7,33920,269,6.1,3
2013,7,16,12:00,UTC,7,1004,-1,61,0,-1,13.7,6.4,42050,239,10.5,4.2
2013,7,16,13:00,UTC,7,1004.5,-1,74,0,-1,11.7,7.2,32590,293,8.2,4.7
2013,7,16,14:00,UTC,7,1004.9,-1,79,0,-1,11.1,7.7,15950,295,5.8,3.6
2013,7,16,15:00,UTC,8,1004.4,0.4,84,0,-1,11.5,8.9,42380,224,5,1.7
2013,7,16,16:00,UTC,7,1004.1,-1,66,0,-1,13.3,7,48060,273,9.9,4.5
2013,7,16,17:00,UTC,7,1004.3,-1,69,0,-1,12.9,7.5,33820,285,10.7,6.1
2013,7,16,18:00,UTC,7,1004.7,-1,78,0,-1,12.4,8.6,47450,283,10.1,5.9
2013,7,16,19:00,UTC,7,1005.2,0.3,90,0.3,-1,11.1,9.5,6700,295,5.9,3.8
2013,7,16,20:00,UTC,7,1005.6,4,95,7.6,-1,10.4,9.6,6360,302,8.3,5.8
2013,7,16,21:00,UTC,7,1006,0.5,95,0,-1,10.1,9.3,50000,299,6.6,4.7
2013,7,16,22:00,UTC,8,1006.2,-1,96,0,-1,10.1,9.4,50000,281,6.6,3.3
2013,7,16,23:00,UTC,7,1006.5,-1,95,0,-1,10,9.3,3960,281,5.1,2.7
2013,7,17,00:00,UTC,7,1006.1,-1,95,0,-1,10.4,9.7,50000,282,5.5,3
2013,7,17,01:00,UTC,7,1006,-1,95,0,-1,10.7,9.8,13730,288,5.4,3.4
2013,7,17,02:00,UTC,7,1006.2,-1,93,0,-1,11.1,9.9,50000,288,7.8,4.6
2013,7,17,03:00,UTC,7,1006.3,-1,92,0,-1,11.3,10,28300,289,7.9,4.5
2013,7,17,04:00,UTC,7,1006.2,-1,86,0,-1,11.3,9.1,50000,293,9.2,6.3
2013,7,17,05:00,UTC,7,1006,-1,80,0,-1,12.2,8.9,45170,291,14,7.7
2013,7,17,06:00,UTC,7,1006.6,-1,77,0,-1,12.5,8.6,50000,296,13.8,8.3
2013,7,17,07:00,UTC,7,1006.9,-1,77,0,-1,13,9.1,47050,301,13.6,8.3
2013,7,17,08:00,UTC,7,1007.3,-1,75,0,-1,13.2,8.8,41370,299,13.7,8.4
2013,7,17,09:00,UTC,7,1008.1,-1,73,0,-1,13.7,9.1,44480,302,12.6,8.3
2013,7,17,10:00,UTC,7,1008.5,-1,71,0,-1,14.3,9.1,45750,311,12.4,8.9
2013,7,17,11:00,UTC,7,1009.2,-1,71,0,-1,14.1,9,50000,302,12,7.5
2013,7,17,12:00,UTC,7,1009.8,-1,70,0,-1,14.8,9.4,43560,305,11.9,8.8
2013,7,17,13:00,UTC,7,1010,-1,65,0,-1,15.1,8.6,40830,306,12.2,8.8
2013,7,17,14:00,UTC,5,1010.4,-1,65,0,-1,14.8,8.3,35540,313,11.2,8.1
2013,7,17,15:00,UTC,5,1010.4,-1,64,0,-1,15.3,8.5,36280,325,9,6.8
2013,7,17,16:00,UTC,3,1010.7,-1,55,0,-1,15.7,6.6,43400,306,9.5,7.1
2013,7,17,17:00,UTC,0,1011,-1,50,0,-1,15,4.7,49190,304,12.3,8.2
2013,7,17,18:00,UTC,0,1011.2,-1,56,0,-1,14.2,5.4,50000,305,7.6,5.3
2013,7,17,19:00,UTC,0,1011.5,-1,63,0,-1,13.1,6.3,50000,293,5.2,3.7
2013,7,17,20:00,UTC,0,1011.8,-1,75,0,-1,11.3,6.9,50000,287,4.3,2.9
2013,7,17,21:00,UTC,0,1012.2,-1,80,0,-1,10.4,7,50000,284,5.1,2.8
2013,7,17,22:00,UTC,0,1012.3,-1,81,0,-1,9.8,6.7,50000,292,4.1,2.9
2013,7,17,23:00,UTC,5,1012.4,-1,89,0,-1,8,6.3,50000,319,2.3,1.6
2013,7,18,00:00,UTC,5,1012.3,-1,93,0,-1,7.1,6.1,50000,336,2,1.5
2013,7,18,01:00,UTC,7,1012.2,-1,93,0,-1,7.1,6,50000,320,1.1,0.9
2013,7,18,02:00,UTC,7,1012.1,-1,95,0,-1,7.7,6.9,50000,180,1.4,1.1
2013,7,18,03:00,UTC,7,1012.3,-1,94,0,-1,7.9,7,49210,109,1.5,1
2013,7,18,04:00,UTC,7,1011.8,-1,90,0,-1,9.5,8,50000,150,1.9,1.3
2013,7,18,05:00,UTC,7,1011.6,-1,89,0,-1,10.2,8.4,45740,151,1.9,1.2
2013,7,18,06:00,UTC,7,1011.3,0.1,93,0,-1,10.6,9.5,42690,163,1.6,0.9
2013,7,18,07:00,UTC,7,1010.6,-1,91,0,-1,12.2,10.8,42120,167,3.9,1.6
2013,7,18,08:00,UTC,8,1010.5,-1,90,0,-1,12.9,11.3,42110,218,3.5,2
2013,7,18,09:00,UTC,7,1010.3,-1,87,0,-1,14.1,12,49160,198,3.8,1.8
2013,7,18,10:00,UTC,7,1009.7,-1,85,0,-1,15.2,12.6,42250,182,4,2.3
2013,7,18,11:00,UTC,7,1009.3,-1,77,0,-1,15.9,11.9,50000,237,6.4,2.8
2013,7,18,12:00,UTC,7,1009,-1,72,0,-1,15.9,10.8,50000,252,7.6,3.6
2013,7,18,13:00,UTC,7,1008.7,0.3,89,1.6,-1,14.3,12.5,21700,235,4.5,1.8
2013,7,18,14:00,UTC,7,1008.2,2.1,94,0.8,-1,13.4,12.4,20860,247,5.6,2.5
2013,7,18,15:00,UTC,7,1007.7,2.2,94,1.4,-1,12.4,11.5,12480,257,3.3,1.7
2013,7,18,16:00,UTC,7,1007.3,0.3,93,0,-1,12.9,11.7,41800,273,4.5,2.1
2013,7,18,17:00,UTC,7,1006.9,-1,90,0,-1,11.9,10.3,37200,294,5.9,4.2
2013,7,18,18:00,UTC,8,1006.8,-1,92,0,-1,10.8,9.7,7790,298,6.8,5
2013,7,18,19:00,UTC,8,1006.2,-1,95,0,-1,10.6,9.8,30780,261,2.9,1.4
2013,7,18,20:00,UTC,8,1005.8,-1,96,0,-1,10.7,10.1,25140,240,1.8,1
2013,7,18,21:00,UTC,7,1005.5,-1,95,0,-1,11,10.3,34950,278,2.4,1.3
2013,7,18,22:00,UTC,5,1005.1,-1,94,0,-1,10.5,9.6,42040,263,2.6,1.3
2013,7,18,23:00,UTC,0,1004.6,-1,94,0,-1,9.8,8.9,44580,266,4,2.1
2013,7,19,00:00,UTC,1,1004,-1,96,0,-1,9.4,8.8,45110,256,4.5,2.2
2013,7,19,01:00,UTC,7,1003.7,-1,97,0,-1,9.5,9,34770,245,4.7,2.7
2013,7,19,02:00,UTC,7,1003.2,-1,96,0,-1,9.8,9.2,41980,268,3.2,1.6
2013,7,19,03:00,UTC,7,1002.8,-1,96,0,-1,10.2,9.6,40910,271,4.3,2.3
2013,7,19,04:00,UTC,7,1002.7,-1,94,0,-1,11.1,10.2,49370,278,5.5,2.8
2013,7,19,05:00,UTC,5,1002.4,-1,85,0,-1,12.3,9.8,46510,301,5.7,4
2013,7,19,06:00,UTC,7,1002.2,-1,85,0,-1,12.2,9.8,31030,304,5.9,3.7
2013,7,19,07:00,UTC,7,1002.2,1.7,93,0.5,-1,11.6,10.5,48420,283,4.3,2.5
2013,7,19,08:00,UTC,7,1002.2,-1,88,0,-1,12.6,10.6,42830,300,6.6,4.7
2013,7,19,09:00,UTC,7,1002.8,0.5,91,0.5,-1,11.5,10.1,27280,334,7.8,5
2013,7,19,10:00,UTC,7,1003.3,-1,88,0,-1,11.8,9.9,18280,337,13.1,8.4
2013,7,19,11:00,UTC,7,1003.3,-1,85,0,-1,13,10.5,19840,328,10.1,6.6
2013,7,19,12:00,UTC,8,1003.5,-1,76,0,-1,13.2,9,40200,336,9.4,6.2
2013,7,19,13:00,UTC,7,1004,-1,78,0,-1,13.4,9.6,39390,332,10.3,6.7
2013,7,19,14:00,UTC,7,1004.8,-1,89,0,-1,12.1,10.4,6690,343,9.8,6.7
2013,7,19,15:00,UTC,7,1005.2,0.3,84,0,-1,13.3,10.7,47730,328,8.3,5.8
2013,7,19,16:00,UTC,8,1006.3,-1,87,0,-1,12.6,10.5,8880,355,9.9,5.9
2013,7,19,17:00,UTC,7,1006.6,2.9,87,0,-1,12.2,10,21720,331,11.2,6.3
2013,7,19,18:00,UTC,7,1007.1,-1,86,0,-1,12,9.8,50000,331,9.7,6.3
2013,7,19,19:00,UTC,7,1007.6,-1,82,0,-1,12.1,9.1,50000,328,8.3,5.5
2013,7,19,20:00,UTC,5,1008.1,-1,89,0,-1,10.3,8.6,49800,326,4.6,3.5
2013,7,19,21:00,UTC,5,1008.4,-1,90,0,-1,11.1,9.4,40100,318,6.9,4.8
2013,7,19,22:00,UTC,8,1008.4,-1,89,0,-1,11.5,9.7,38980,322,7.7,5.1
2013,7,19,23:00,UTC,5,1008.5,-1,89,0,-1,10.9,9.2,40770,318,6.8,5
2013,7,20,00:00,UTC,5,1008.7,-1,90,0,-1,10.9,9.3,50000,315,8.8,6.1
2013,7,20,01:00,UTC,3,1009.1,-1,93,0,-1,10,9,46920,316,6.8,5.2
2013,7,20,02:00,UTC,7,1009.2,-1,94,0,-1,10.4,9.5,44980,328,7,5
2013,7,20,03:00,UTC,7,1009.5,-1,93,0,-1,10.5,9.4,35370,322,7,4.8
2013,7,20,04:00,UTC,1,1009.8,-1,91,0,-1,10.6,9.2,49850,327,7.9,5.6
2013,7,20,05:00,UTC,1,1009.7,-1,81,0,-1,12.8,9.6,50000,326,9.3,6.2
2013,7,20,06:00,UTC,1,1009.6,-1,72,0,-1,14.4,9.4,45080,339,7.5,5.4
2013,7,20,07:00,UTC,3,1009.9,-1,69,0,-1,14.8,9.2,32470,347,10.5,7.1
2013,7,20,08:00,UTC,1,1010.1,-1,64,0,-1,15.3,8.5,40140,349,9.2,6.4
2013,7,20,09:00,UTC,3,1010.3,-1,57,0,-1,16.4,7.9,35200,335,9.3,6.6
2013,7,20,10:00,UTC,3,1010.6,-1,54,0,-1,16.9,7.6,35840,331,11.8,7.7
2013,7,20,11:00,UTC,1,1010.6,-1,50,0,-1,17,6.5,36170,350,9.8,7.1
2013,7,20,12:00,UTC,3,1010.5,-1,53,0,-1,17.7,8.1,36520,313,9.3,7
2013,7,20,13:00,UTC,5,1010.7,-1,57,0,-1,16.2,7.7,40300,312,10.8,7.9
2013,7,20,14:00,UTC,7,1011,-1,62,0,-1,15.9,8.6,45350,304,4.7,3.5
2013,7,20,15:00,UTC,7,1010.8,-1,58,0,-1,16.1,7.9,48480,307,5.8,4
2013,7,20,16:00,UTC,3,1011,-1,58,0,-1,15.3,7.1,50000,309,7.8,5.9
2013,7,20,17:00,UTC,7,1010.7,-1,52,0,-1,17.1,7.1,39450,317,8.3,5.9
2013,7,20,18:00,UTC,7,1010.9,-1,59,0,-1,14.7,6.8,50000,303,8.2,6
2013,7,20,19:00,UTC,0,1011.1,-1,68,0,-1,12.2,6.5,50000,304,5.4,4.5
2013,7,20,20:00,UTC,0,1011.3,-1,78,0,-1,10,6.3,50000,309,4.6,3.5
2013,7,20,21:00,UTC,0,1011.6,-1,83,0,-1,9.5,6.7,50000,312,3.6,3.1
2013,7,20,22:00,UTC,3,1011.4,-1,80,0,-1,9.9,6.6,46940,296,4.7,3.9
2013,7,20,23:00,UTC,0,1011.6,-1,93,0,-1,7.1,6,50000,321,1.8,1.5
2013,7,21,00:00,UTC,7,1011.6,-1,95,0,-1,7.5,6.7,50000,268,1.7,1.2
2013,7,21,01:00,UTC,7,1010.9,-1,94,0,-1,8.2,7.3,50000,297,4,2
2013,7,21,02:00,UTC,7,1010.6,-1,90,0,-1,9.8,8.3,50000,300,4.9,3.6
2013,7,21,03:00,UTC,8,1010.8,-1,93,0,-1,10.1,9,50000,351,1.7,1.1
2013,7,21,04:00,UTC,8,1010.5,-1,91,0,-1,11,9.5,50000,317,3.4,2.2
2013,7,21,05:00,UTC,7,1010.3,-1,93,0,-1,10.9,9.8,33320,297,4.5,3.2
2013,7,21,06:00,UTC,8,1010.1,-1,93,0,-1,11.3,10.1,21640,286,2.6,1.5
2013,7,21,07:00,UTC,8,1010,-1,93,0,-1,11.6,10.5,5290,281,2,1.1
2013,7,21,08:00,UTC,8,1010.1,-1,93,0,-1,12.3,11.2,3650,279,1.3,0.7
2013,7,21,09:00,UTC,8,1010.2,0.3,95,0,-1,12.7,11.9,4290,357,2.9,2
2013,7,21,10:00,UTC,7,1010.4,1.1,95,0,-1,13.4,12.7,10160,328,4.8,3.5
2013,7,21,11:00,UTC,7,1010.3,-1,89,0,-1,14,12.3,48950,354,5,2.9
2013,7,21,12:00,UTC,7,1010.8,1.5,93,0.7,-1,13.8,12.6,29840,326,5.4,3.9
2013,7,21,13:00,UTC,7,1011.1,0.9,94,0.8,-1,13.4,12.5,6660,318,8.3,5.2
2013,7,21,14:00,UTC,7,1011,0.4,94,0,-1,13.9,13,11490,331,6.2,4.6
2013,7,21,15:00,UTC,7,1011,-1,87,0,-1,14.9,12.8,48180,318,7.7,5.4
2013,7,21,16:00,UTC,7,1011.3,-1,81,0,-1,15,11.8,43750,309,6.7,5.1
2013,7,21,17:00,UTC,7,1011.6,-1,79,0,-1,14.7,11.1,49850,311,6.3,4.8
2013,7,21,18:00,UTC,5,1011.6,-1,72,0,-1,14.5,9.6,50000,308,6.9,5.1
2013,7,21,19:00,UTC,1,1011.9,-1,73,0,-1,13.1,8.3,50000,302,7.8,5.5
2013,7,21,20:00,UTC,0,1012.4,-1,78,0,-1,11.6,7.9,50000,307,6.9,5.2
2013,7,21,21:00,UTC,0,1012.5,-1,81,0,-1,11.2,8.1,50000,307,5.8,4.9
2013,7,21,22:00,UTC,7,1012.5,-1,81,0,-1,11.4,8.3,50000,314,5.9,4.3
2013,7,21,23:00,UTC,0,1012.7,-1,90,0,-1,9.4,7.8,50000,325,4.1,3.5
2013,7,22,00:00,UTC,0,1012.5,-1,90,0,-1,9.9,8.4,50000,312,6.3,5
2013,7,22,01:00,UTC,5,1012.6,-1,93,0,-1,10,8.8,50000,319,6.6,5
2013,7,22,02:00,UTC,8,1012.9,-1,93,0,-1,10.4,9.4,50000,319,6.1,4.8
2013,7,22,03:00,UTC,7,1012.7,-1,93,0,-1,11,10,50000,318,7.5,5.5
2013,7,22,04:00,UTC,8,1012.6,-1,91,0,-1,12.1,10.6,50000,330,9.6,6.6
2013,7,22,05:00,UTC,1,1011.8,-1,83,0,-1,13.5,10.7,43830,331,11.2,7.5
2013,7,22,06:00,UTC,5,1012.1,-1,82,0,-1,14.1,11,43630,330,10.2,7.5
2013,7,22,07:00,UTC,8,1012.3,-1,79,0,-1,14.1,10.5,50000,333,11.7,8.5
2013,7,22,08:00,UTC,8,1012.5,-1,82,0,-1,14.2,11.2,49740,333,9.5,6.5
2013,7,22,09:00,UTC,8,1012.7,-1,88,0,-1,13.5,11.5,21770,342,11.6,7.2
2013,7,22,10:00,UTC,7,1012.7,0.3,92,0,-1,13.1,11.7,28460,335,10.9,8.1
2013,7,22,11:00,UTC,7,1012.7,-1,87,0,-1,13.6,11.5,42270,340,10.8,7.6
2013,7,22,12:00,UTC,7,1012.6,0.4,89,0.4,-1,13.6,11.8,46400,338,10.3,6.9
2013,7,22,13:00,UTC,7,1012.5,0.7,89,4.3,-1,13.9,12.1,8830,344,9.9,6.8
2013,7,22,14:00,UTC,7,1012.5,0.1,84,0,-1,14.8,12.1,42600,335,10,7.1
2013,7,22,15:00,UTC,7,1012.7,-1,81,0,-1,15.3,12,42130,340,12.3,7.7
2013,7,22,16:00,UTC,7,1013.2,-1,88,0,-1,14.4,12.4,39190,345,10.8,7.5
2013,7,22,17:00,UTC,7,1012.8,-1,84,0,-1,14.8,12.1,40170,338,10.1,7.3
2013,7,22,18:00,UTC,7,1013.1,-1,85,0,-1,14.7,12.2,37010,338,10.8,7.2
2013,7,22,19:00,UTC,7,1013.3,-1,86,0,-1,14.5,12.1,36100,340,9.9,7.1
2013,7,22,20:00,UTC,7,1013.4,-1,86,0,-1,14.4,12.1,41640,343,10.2,6.7
2013,7,22,21:00,UTC,7,1013.4,-1,87,0,-1,14.4,12.3,44970,345,8.8,5.8
2013,7,22,22:00,UTC,7,1013.5,-1,90,0,-1,14.3,12.7,16240,343,9.7,6.2
2013,7,22,23:00,UTC,7,1013.1,0.2,92,0,-1,14.1,12.8,35060,338,9,6.5
2013,7,23,00:00,UTC,7,1013.2,-1,90,0,-1,14.4,12.8,38460,345,9.6,6.5
2013,7,23,01:00,UTC,7,1012.8,-1,89,0,-1,14.3,12.6,43790,337,8.9,6.7
2013,7,23,02:00,UTC,7,1013,-1,89,0,-1,14.2,12.5,47570,344,8.9,6.5
2013,7,23,03:00,UTC,7,1013.2,-1,90,0,-1,14.2,12.5,34220,351,9.8,6
2013,7,23,04:00,UTC,7,1013.6,-1,89,0,-1,14.2,12.5,30660,348,9.2,6.1
2013,7,23,05:00,UTC,7,1013.8,-1,90,0,-1,14.4,12.8,21500,352,10,5.8
2013,7,23,06:00,UTC,7,1013.6,-1,88,0,-1,15,13,18170,353,8.4,5.5
2013,7,23,07:00,UTC,7,1014,-1,86,0,-1,15.2,13,22040,358,9.8,6.5
2013,7,23,08:00,UTC,7,1014.3,-1,84,0,-1,16.2,13.5,21560,5,8.4,6
2013,7,23,09:00,UTC,7,1014.4,-1,80,0,-1,17.2,13.7,22110,14,10.5,5.1
2013,7,23,10:00,UTC,7,1014.4,-1,79,0,-1,17.6,14,19860,357,8.9,5.8
2013,7,23,11:00,UTC,7,1014.8,-1,79,0,-1,17.3,13.6,26020,357,9.6,6.6
2013,7,23,12:00,UTC,7,1014.7,-1,76,0,-1,17.8,13.6,29740,355,10,7.5
2013,7,23,13:00,UTC,5,1014.5,-1,75,0,-1,18.4,13.8,33630,13,8.5,6.4
2013,7,23,14:00,UTC,7,1014.6,-1,74,0,-1,18.9,14.2,33870,19,8.4,5.3
2013,7,23,15:00,UTC,7,1014.5,-1,73,0,-1,19.2,14.3,40910,28,8.7,6
2013,7,23,16:00,UTC,1,1014.5,-1,73,0,-1,19.4,14.4,27930,16,9.5,6.2
2013,7,23,17:00,UTC,0,1014.7,-1,74,0,-1,19.2,14.6,29870,3,9.2,4.9
2013,7,23,18:00,UTC,0,1014.7,-1,77,0,-1,18.5,14.4,36090,353,6.7,4.8
2013,7,23,19:00,UTC,0,1014.9,-1,81,0,-1,17.3,14.1,29990,338,5.7,3.7
2013,7,23,20:00,UTC,0,1015.2,-1,86,0,-1,16.3,14,23590,341,4.9,3.7
2013,7,23,21:00,UTC,0,1015.2,-1,90,0,-1,15.3,13.6,25650,321,5.1,3.9
2013,7,23,22:00,UTC,0,1015.2,-1,91,0,-1,15.2,13.7,21900,330,5.1,4.1
2013,7,23,23:00,UTC,0,1015.4,-1,89,0,-1,14.8,13.1,30560,336,5.1,3.1
2013,7,24,00:00,UTC,0,1015.4,-1,91,0,-1,14.5,13,29980,356,5.3,3.5
2013,7,24,01:00,UTC,3,1015.5,-1,91,0,-1,14.3,12.9,32880,1,4.4,3
2013,7,24,02:00,UTC,7,1015,-1,89,0,-1,14.6,12.9,33950,357,6.4,3.9
2013,7,24,03:00,UTC,8,1015.3,-1,87,0,-1,14.7,12.6,26440,23,6.8,4.7
2013,7,24,04:00,UTC,8,1015.4,-1,87,0,-1,14.6,12.4,19710,26,7.4,5.1
2013,7,24,05:00,UTC,8,1015.5,-1,86,0,-1,14.7,12.5,21440,3,6.1,4.3
2013,7,24,06:00,UTC,8,1015.5,-1,84,0,-1,15.2,12.5,17840,1,7,4.9
2013,7,24,07:00,UTC,7,1016.3,-1,84,0,-1,15.3,12.5,15080,50,7.6,5.3
2013,7,24,08:00,UTC,8,1016.6,-1,85,0,-1,15.1,12.6,9920,30,6.6,3.8
2013,7,24,09:00,UTC,8,1016.5,-1,83,0,-1,16,13,9950,31,5.5,4
2013,7,24,10:00,UTC,8,1016.3,-1,80,0,-1,16.5,13.1,10220,28,6.2,4.5
2013,7,24,11:00,UTC,8,1016,-1,79,0,-1,17.4,13.7,12110,15,6.5,4.3
2013,7,24,12:00,UTC,7,1015.6,-1,75,0,-1,18.7,14.2,12970,3,7.1,5.2
2013,7,24,13:00,UTC,3,1015.3,-1,71,0,-1,20.1,14.7,15480,357,7.1,5.1
2013,7,24,14:00,UTC,0,1015.2,-1,66,0,-1,21.4,14.8,15760,28,6.5,4.6
2013,7,24,15:00,UTC,0,1015.1,-1,68,0,-1,20.8,14.7,16740,18,6.3,4.2
2013,7,24,16:00,UTC,0,1015,-1,66,0,-1,21.4,14.8,15490,26,6.6,4.8
2013,7,24,17:00,UTC,0,1015.1,-1,70,0,-1,20.8,15.2,13630,34,5.1,3.5
2013,7,24,18:00,UTC,0,1015.4,-1,76,0,-1,19.8,15.5,12060,39,3,2
2013,7,24,19:00,UTC,0,1015.8,-1,81,0,-1,18.1,14.8,13690,21,3,1.8
2013,7,24,20:00,UTC,0,1016.1,-1,85,0,-1,16.9,14.4,11790,21,2.3,1.6
2013,7,24,21:00,UTC,0,1016.3,-1,87,0,-1,16.3,14.1,10110,43,2.9,2.2
2013,7,24,22:00,UTC,0,1016.5,-1,95,0,-1,14.1,13.2,5470,327,1,0.6
2013,7,24,23:00,UTC,1,1016.6,-1,98,0,-1,13,12.6,3090,295,1.8,1.5
2013,7,25,00:00,UTC,3,1016.7,-1,99,0,-1,12.4,12.2,2990,327,2,1.5
2013,7,25,01:00,UTC,0,1016.6,-1,98,0,-1,11.2,10.9,2190,316,2.1,1.6
2013,7,25,02:00,UTC,0,1016.7,-1,99,0,-1,12.6,12.4,3200,325,2.5,1.8
2013,7,25,03:00,UTC,0,1017,-1,99,0,-1,12.9,12.7,4850,335,2.6,2.1
2013,7,25,04:00,UTC,0,1016.8,-1,93,0,-1,14.7,13.5,13600,347,2.5,2
2013,7,25,05:00,UTC,0,1016.6,-1,79,0,-1,16.4,12.9,33210,57,3.4,2.4
2013,7,25,06:00,UTC,0,1016.3,-1,75,0,-1,17.4,12.9,32930,31,4,2.5
2013,7,25,07:00,UTC,0,1015.9,-1,69,0,-1,18.5,12.7,33650,31,4.2,2.4
2013,7,25,08:00,UTC,0,1015.5,-1,62,0,-1,19.9,12.4,30880,23,6.1,3.4
2013,7,25,09:00,UTC,0,1015.3,-1,62,0,-1,20.6,13.1,30890,336,5.6,3.2
2013,7,25,10:00,UTC,0,1015.2,-1,60,0,-1,21.4,13.2,33090,332,5.6,4
2013,7,25,11:00,UTC,0,1014.8,-1,58,0,-1,22.2,13.4,33510,339,5.4,3.4
2013,7,25,12:00,UTC,0,1014.4,-1,53,0,-1,22.7,12.7,37290,342,5.5,3.3
2013,7,25,13:00,UTC,0,1014.2,-1,53,0,-1,23.2,13.1,38490,339,5.5,3.6
2013,7,25,14:00,UTC,0,1013.9,-1,49,0,-1,23.6,12.3,33570,352,5,3.1
2013,7,25,15:00,UTC,0,1013.7,-1,52,0,-1,23.6,13.2,34140,31,3.9,2.9
2013,7,25,16:00,UTC,0,1013.4,-1,51,0,-1,23.2,12.4,43960,60,4.3,2.5
2013,7,25,17:00,UTC,0,1013.3,-1,54,0,-1,22.9,13.2,44770,356,3.7,2.8
2013,7,25,18:00,UTC,0,1013.3,-1,62,0,-1,22,14.5,46210,14,2,1.3
2013,7,25,19:00,UTC,0,1013.5,-1,75,0,-1,19,14.4,50000,51,2.1,1.6
2013,7,25,20:00,UTC,0,1013.7,-1,85,0,-1,15.3,12.9,49260,312,1.8,1.5
2013,7,25,21:00,UTC,0,1013.8,-1,91,0,-1,13.4,12,46260,306,1.7,1.5
2013,7,25,22:00,UTC,0,1014,-1,91,0,-1,12.3,10.9,47700,321,2.3,2.1
2013,7,25,23:00,UTC,0,1014.2,-1,93,0,-1,11.1,10,45620,308,2,1.7
2013,7,26,00:00,UTC,0,1014.3,-1,94,0,-1,8.8,7.9,27220,311,2,1.7
2013,7,26,01:00,UTC,0,1014.1,-1,98,0,-1,8.5,8.1,29750,319,2.4,2.1
2013,7,26,02:00,UTC,0,1014.1,-1,96,0,-1,7.8,7.3,26100,318,2.3,2
2013,7,26,03:00,UTC,0,1013.8,-1,91,0,-1,10,8.7,39610,306,1.5,1.3
2013,7,26,04:00,UTC,0,1013.5,-1,88,0,-1,13.3,11.3,33630,313,1.4,1
2013,7,26,05:00,UTC,0,1013.1,-1,67,0,-1,16.6,10.3,34400,338,2,1.6
2013,7,26,06:00,UTC,0,1013.1,-1,58,0,-1,18.8,10.5,42600,348,2.8,1.5
2013,7,26,07:00,UTC,0,1012.9,-1,45,0,-1,20.7,8.3,42880,54,3.6,2.3
2013,7,26,08:00,UTC,0,1012.9,-1,36,0,-1,22.2,6.5,44450,77,4.9,3
2013,7,26,09:00,UTC,0,1012.8,-1,39,0,-1,22.4,7.7,41120,55,6.7,3.2
2013,7,26,10:00,UTC,0,1012.4,-1,34,0,-1,23.2,6.6,35140,330,5.6,3
2013,7,26,11:00,UTC,0,1012.2,-1,32,0,-1,23.7,6.1,33190,13,6.3,3.8
2013,7,26,12:00,UTC,0,1011.9,-1,30,0,-1,24.1,5.6,28360,334,6.5,4
2013,7,26,13:00,UTC,0,1011.6,-1,30,0,-1,24.6,6,48290,328,4.7,3.3
2013,7,26,14:00,UTC,0,1011.5,-1,30,0,-1,24.4,5.8,36050,21,7.4,2.6
2013,7,26,15:00,UTC,0,1011.2,-1,32,0,-1,24.5,6.7,41160,48,5.9,3.4
2013,7,26,16:00,UTC,0,1011.3,-1,32,0,-1,24.2,6.5,47380,17,3.5,2.2
2013,7,26,17:00,UTC,0,1011.4,-1,33,0,-1,23.8,6.5,50000,23,3,1.8
2013,7,26,18:00,UTC,0,1011.3,-1,51,0,-1,20.5,10,49570,0,1.1,0
2013,7,26,19:00,UTC,0,1011.4,-1,70,0,-1,17.1,11.6,50000,307,0.8,0.6
2013,7,26,20:00,UTC,0,1011.8,-1,80,0,-1,14.5,11.1,50000,297,2,1.5
2013,7,26,21:00,UTC,0,1012,-1,87,0,-1,12.5,10.3,48600,300,1.3,1.1
2013,7,26,22:00,UTC,0,1012.2,-1,94,0,-1,11,10,37510,301,1.3,0.8
2013,7,26,23:00,UTC,0,1012.5,-1,96,0,-1,10.2,9.5,38800,303,1.1,0.9
2013,7,27,00:00,UTC,0,1012.6,-1,96,0,-1,9.7,9.1,29250,311,1.3,1
2013,7,27,01:00,UTC,0,1012.6,-1,96,0,-1,9.4,8.8,30690,314,2,1.6
2013,7,27,02:00,UTC,0,1012.6,-1,97,0,-1,8.6,8.1,23810,308,2,1.7
2013,7,27,03:00,UTC,0,1012.4,-1,93,0,-1,11,9.8,27330,316,1.6,1.3
2013,7,27,04:00,UTC,0,1012.3,-1,85,0,-1,13.9,11.5,34810,0,0.7,0
2013,7,27,05:00,UTC,0,1012.2,-1,74,0,-1,18.1,13.4,40800,332,1.7,1.1
2013,7,27,06:00,UTC,0,1012.1,-1,59,0,-1,21.4,13,34750,82,1.5,0.8
2013,7,27,07:00,UTC,0,1012.1,-1,40,0,-1,22.5,8.2,32590,68,2.1,1.1
2013,7,27,08:00,UTC,0,1012.3,-1,35,0,-1,23.5,7.1,31490,60,4,2.5
2013,7,27,09:00,UTC,0,1012.3,-1,35,0,-1,24.2,7.9,40880,81,5,2.8
2013,7,27,10:00,UTC,1,1012.3,-1,35,0,-1,24,7.7,37850,62,4.9,2.3
2013,7,27,11:00,UTC,0,1012.3,-1,34,0,-1,24.7,7.9,37090,44,5.8,3.4
2013,7,27,12:00,UTC,0,1012.1,-1,34,0,-1,24.7,7.8,30930,78,6.2,2.9
2013,7,27,13:00,UTC,0,1012.1,-1,36,0,-1,24.8,8.8,32760,80,5.7,3.1
2013,7,27,14:00,UTC,0,1011.9,-1,37,0,-1,24.9,9.1,30680,58,3.7,1.7
2013,7,27,15:00,UTC,0,1011.9,-1,37,0,-1,24.6,8.7,31520,99,4,2.8
2013,7,27,16:00,UTC,0,1011.8,-1,33,0,-1,24.3,7.1,39070,65,4.8,3.5
2013,7,27,17:00,UTC,0,1012,-1,31,0,-1,23.6,5.6,44450,81,3.3,2.5
2013,7,27,18:00,UTC,0,1012.2,-1,37,0,-1,21.8,6.4,43870,58,2.5,2
2013,7,27,19:00,UTC,0,1013,-1,58,0,-1,17.6,9.1,50000,321,1.4,0.9
2013,7,27,20:00,UTC,0,1013.6,-1,73,0,-1,14.8,10,49380,332,1.2,0.8
2013,7,27,21:00,UTC,0,1014.1,-1,83,0,-1,13,10.1,50000,0,0.7,0
2013,7,27,22:00,UTC,0,1014.1,-1,86,0,-1,12.2,9.9,39370,155,1.3,0.6
2013,7,27,23:00,UTC,0,1014.5,-1,93,0,-1,11.7,10.5,43030,0,0.5,0
2013,7,28,00:00,UTC,0,1014.7,-1,93,0,-1,10.7,9.5,41170,293,1,0.7
2013,7,28,01:00,UTC,1,1015,-1,94,0,-1,10.6,9.6,41410,294,1.6,1.2
2013,7,28,02:00,UTC,3,1015.3,-1,96,0,-1,10.6,10.1,28450,8,1.2,0.7
2013,7,28,03:00,UTC,1,1015.6,-1,90,0,-1,12.5,10.9,41150,312,1.8,1.3
2013,7,28,04:00,UTC,0,1015.8,-1,85,0,-1,14.6,12.1,33080,0,0.8,0
2013,7,28,05:00,UTC,0,1016,-1,80,0,-1,16.6,13,37220,0,1.1,0
2013,7,28,06:00,UTC,5,1016.1,-1,76,0,-1,18.6,14.1,37820,121,2.9,1.6
2013,7,28,07:00,UTC,1,1016.3,-1,66,0,-1,21,14.3,41870,144,2.4,1.1
2013,7,28,08:00,UTC,0,1016.4,-1,60,0,-1,21.6,13.6,34880,134,3.3,1.8
2013,7,28,09:00,UTC,5,1016.4,-1,55,0,-1,23.2,13.5,36100,103,4.3,2.4
2013,7,28,10:00,UTC,3,1016.3,-1,49,0,-1,23.6,12.4,28580,109,5.5,3.6
2013,7,28,11:00,UTC,0,1016.3,-1,43,0,-1,24.6,11.1,41020,129,4.4,2.5
2013,7,28,12:00,UTC,0,1016.2,-1,40,0,-1,24.5,9.9,39890,148,4.6,2
2013,7,28,13:00,UTC,0,1016.2,-1,41,0,-1,23.3,9.3,45570,129,2.8,1.9
2013,7,28,14:00,UTC,0,1016.1,-1,50,0,-1,22.8,11.8,36820,114,3.5,2.1
2013,7,28,15:00,UTC,0,1016.4,-1,65,0,-1,20.4,13.6,44670,168,1.9,1.2
2013,7,28,16:00,UTC,1,1016.6,-1,61,0,-1,21.4,13.7,40410,247,3.9,2.6
2013,7,28,17:00,UTC,1,1016.8,-1,65,0,-1,20.8,14,45820,0,0.8,0
2013,7,28,18:00,UTC,0,1017.2,-1,71,0,-1,20.2,14.7,39370,133,1.9,1.1
2013,7,28,19:00,UTC,1,1017.4,-1,78,0,-1,17.6,13.7,40210,121,1.6,1.1
2013,7,28,20:00,UTC,0,1017.5,-1,81,0,-1,16,12.6,38660,0,0.9,0
2013,7,28,21:00,UTC,0,1018,-1,93,0,-1,13.9,12.8,23490,344,0.7,0.6
2013,7,28,22:00,UTC,0,1018.6,-1,95,0,-1,13,12.3,20490,342,1.1,0.8
2013,7,28,23:00,UTC,0,1018.9,-1,95,0,-1,11.8,11,18320,283,0.9,0.6
2013,7,29,00:00,UTC,0,1019.2,-1,96,0,-1,11,10.5,14540,157,1.3,0.8
2013,7,29,01:00,UTC,0,1019.2,-1,97,0,-1,10.4,9.9,8890,305,1.1,0.9
2013,7,29,02:00,UTC,0,1019,-1,98,0,-1,10.6,10.3,17100,0,0.5,0
2013,7,29,03:00,UTC,0,1019.1,-1,94,0,-1,12,11,18550,0,0.8,0
2013,7,29,04:00,UTC,0,1018.6,-1,78,0,-1,16.4,12.4,33490,130,1.7,1
2013,7,29,05:00,UTC,0,1018.3,-1,73,0,-1,18.3,13.3,33750,125,3,1.8
2013,7,29,06:00,UTC,0,1018.3,-1,61,0,-1,20.6,12.7,31180,133,4.5,2.8
2013,7,29,07:00,UTC,0,1018.2,-1,57,0,-1,21.7,12.7,32550,156,6.1,2.8
2013,7,29,08:00,UTC,0,1018.1,-1,54,0,-1,22.8,13,26170,125,5.1,3.2
2013,7,29,09:00,UTC,1,1017.8,-1,53,0,-1,23.5,13.4,29470,133,5.6,3.5
2013,7,29,10:00,UTC,0,1017.7,-1,47,0,-1,24.1,12.1,31510,169,6.4,3.7
2013,7,29,11:00,UTC,3,1017.7,-1,48,0,-1,23.9,12.2,38570,179,7.3,3.9
2013,7,29,12:00,UTC,7,1017.4,-1,50,0,-1,23.3,12.4,32810,159,5.4,2.8
2013,7,29,13:00,UTC,7,1017.1,-1,56,0,-1,22.9,13.7,43790,151,4,2
2013,7,29,14:00,UTC,7,1016.9,-1,57,0,-1,22.7,13.8,39810,137,4.3,2.4
2013,7,29,15:00,UTC,7,1016.7,-1,61,0,-1,21.8,13.8,38180,141,3.6,1.8
2013,7,29,16:00,UTC,7,1016.5,-1,65,0,-1,21.4,14.6,32490,146,2.3,1.3
2013,7,29,17:00,UTC,8,1016.2,-1,72,0,-1,20.5,15.3,35850,144,2.2,1.2
2013,7,29,18:00,UTC,7,1016.3,-1,73,0,-1,19.8,14.7,39230,160,1.2,0.8
2013,7,29,19:00,UTC,8,1016.5,-1,78,0,-1,18.8,14.8,23390,200,1.9,1.1
2013,7,29,20:00,UTC,7,1016.6,-1,95,0,-1,16.9,16,12110,315,1.5,1.1
2013,7,29,21:00,UTC,7,1016.7,0.3,96,0,-1,16.8,16.2,11590,299,1,0.8
2013,7,29,22:00,UTC,8,1016.9,-1,97,0,-1,16.5,16,8780,0,0.6,0
2013,7,29,23:00,UTC,8,1017,0.2,98,0,-1,16.4,16.1,6510,360,0.9,0.7
2013,7,30,00:00,UTC,8,1016.7,-1,99,0,-1,16.1,15.9,6930,120,1.3,1
2013,7,30,01:00,UTC,8,1016.5,-1,99,0,-1,16,15.8,5530,0,0.7,0
2013,7,30,02:00,UTC,8,1016.3,-1,99,0,-1,16,15.8,4650,0,0.6,0
2013,7,30,03:00,UTC,8,1015.8,-1,99,0,-1,15.9,15.8,7860,0,0.8,0
2013,7,30,04:00,UTC,8,1015.6,-1,95,0,-1,16.3,15.5,16770,105,1.3,0.7
2013,7,30,05:00,UTC,7,1015.4,-1,93,0,-1,16.7,15.5,21010,129,1.6,1
2013,7,30,06:00,UTC,7,1015.2,-1,88,0,-1,17,15,22840,122,2.7,1.7
2013,7,30,07:00,UTC,7,1015,-1,81,0,-1,17.7,14.3,32290,126,3.2,1.6
2013,7,30,08:00,UTC,8,1014.9,-1,80,0,-1,17.6,14,28670,121,3.1,2
2013,7,30,09:00,UTC,7,1014.4,-1,74,0,-1,18.5,13.8,33580,119,4.5,2.6
2013,7,30,10:00,UTC,7,1014,-1,72,0,-1,18.9,13.7,35670,113,4.5,3
2013,7,30,11:00,UTC,7,1013.4,-1,70,0,-1,19.9,14.3,29440,114,6,3.8
2013,7,30,12:00,UTC,7,1013,-1,67,0,-1,20.6,14.2,32830,118,7,4.2
2013,7,30,13:00,UTC,7,1013,-1,67,0,-1,19.7,13.4,39720,125,6.4,3.7
2013,7,30,14:00,UTC,7,1013,-1,70,0,-1,20,14.3,32950,131,4,2.3
2013,7,30,15:00,UTC,7,1012.2,-1,65,0,-1,21.3,14.4,35970,103,5.7,3.8
2013,7,30,16:00,UTC,7,1011.8,-1,67,0,-1,20.8,14.4,29610,113,5.3,3.4
2013,7,30,17:00,UTC,7,1011.1,-1,69,0,-1,20.7,14.8,33570,119,7.8,4.2
2013,7,30,18:00,UTC,7,1010.6,-1,71,0,-1,19.6,14.2,39610,117,6.5,3.7
2013,7,30,19:00,UTC,7,1010.3,-1,69,0,-1,19.1,13.3,40800,123,5.7,3.3
2013,7,30,20:00,UTC,7,1009.9,-1,59,0,-1,18.9,10.8,50000,128,5.6,2.9
2013,7,30,21:00,UTC,7,1009.8,-1,56,0,-1,18.7,9.6,39420,131,4.7,2.9
2013,7,30,22:00,UTC,7,1009.7,-1,60,0,-1,17.9,10.1,50000,127,4.3,2.6
2013,7,30,23:00,UTC,7,1009.2,-1,59,0,-1,17.8,9.7,50000,130,3.7,2
2013,7,31,00:00,UTC,8,1008.6,-1,58,0,-1,17.9,9.6,50000,124,6.2,3.8
2013,7,31,01:00,UTC,8,1008.4,-1,70,0,-1,17.2,11.6,38940,130,6.3,3.4
2013,7,31,02:00,UTC,8,1007.9,-1,72,0,-1,17.1,11.9,47480,131,5.7,3.1
2013,7,31,03:00,UTC,7,1007.5,-1,72,0,-1,17.4,12.3,48500,133,6,3.1
2013,7,31,04:00,UTC,7,1006.9,0.8,93,0.4,-1,15.6,14.5,24960,119,5.5,3.9
2013,7,31,05:00,UTC,7,1007.1,-1,90,0,-1,16.9,15.4,25390,133,4.2,2.3
2013,7,31,06:00,UTC,5,1006.9,-1,85,0,-1,18.8,16.1,32290,129,6.2,3.4
2013,7,31,07:00,UTC,7,1006.8,-1,84,0,-1,18.9,16,27740,137,5.2,2.9
2013,7,31,08:00,UTC,8,1007,-1,84,0,-1,18.8,15.9,26890,149,6,2.5
2013,7,31,09:00,UTC,8,1007.3,-1,86,0,-1,18.5,16.2,25020,147,5.3,2.6
2013,7,31,10:00,UTC,8,1007.6,-1,90,0,-1,18.5,16.8,15480,144,5.4,3
2013,7,31,11:00,UTC,7,1007.8,-1,97,0,-1,18.2,17.7,3390,145,3.6,2.1
2013,7,31,12:00,UTC,7,1007.9,0.9,94,0,-1,18.6,17.6,23140,184,2.8,1.3
2013,7,31,13:00,UTC,7,1008,-1,85,0,-1,19.5,16.8,39840,223,3.3,1.6
2013,7,31,14:00,UTC,7,1008,-1,80,0,-1,19.7,16.1,45850,206,3.2,1.2
2013,7,31,15:00,UTC,7,1008.3,-1,81,0,-1,19.6,16.2,45340,230,2.5,1.4
2013,7,31,16:00,UTC,7,1008,-1,86,0,-1,18.9,16.5,49580,229,1.3,0.8
2013,7,31,17:00,UTC,7,1007.9,-1,89,0,-1,18.2,16.4,48270,233,2,1.3
2013,7,31,18:00,UTC,7,1008.4,-1,93,0,-1,17.4,16.2,50000,142,1.6,1.1
2013,7,31,19:00,UTC,7,1008.2,-1,95,0,-1,17,16.1,36060,168,1.3,0.8
2013,7,31,20:00,UTC,7,1008.3,-1,97,0,-1,16.2,15.8,20840,148,0.9,0.8
2013,7,31,21:00,UTC,7,1008.3,-1,98,0,-1,15.7,15.4,11500,166,1.1,0.8
2013,7,31,22:00,UTC,8,1008.3,-1,98,0,-1,15.4,15.1,11070,204,1.1,0.6
2013,7,31,23:00,UTC,7,1008.2,-1,99,0,-1,15.2,15,7390,0,1,0
2013,8,1,00:00,UTC,7,1008,-1,99,0,-1,15.1,14.9,610,0,0.5,0
2013,8,1,01:00,UTC,7,1008,-1,99,0,-1,14.8,14.7,7300,157,1.4,0.9
2013,8,1,02:00,UTC,8,1007.9,-1,99,0,-1,14.7,14.6,7330,257,0.9,0.6
2013,8,1,03:00,UTC,7,1007.8,-1,99,0,-1,14.7,14.5,9800,0,0.5,0
2013,8,1,04:00,UTC,7,1007.8,-1,99,0,-1,15.1,15,12000,0,0.6,0
2013,8,1,05:00,UTC,1,1007.7,-1,99,0,-1,16.7,16.6,12660,0,0.8,0
2013,8,1,06:00,UTC,7,1007.5,-1,85,0,-1,18.4,15.8,32200,70,1.8,0.9
2013,8,1,07:00,UTC,3,1007.3,-1,76,0,-1,20.2,15.8,32490,13,4.4,1.5
2013,8,1,08:00,UTC,3,1007.3,-1,75,0,-1,20,15.5,37790,143,1.6,1.1
2013,8,1,09:00,UTC,7,1007.3,-1,81,0,-1,19.2,16,28590,118,2,1.3
2013,8,1,10:00,UTC,7,1007.1,0.2,70,0,-1,20.6,15,34570,99,1.9,1.1
2013,8,1,11:00,UTC,7,1007.1,-1,63,0,-1,20.7,13.3,48670,120,2.3,1.4
2013,8,1,12:00,UTC,7,1007.6,-1,79,0,-1,17.8,14.1,49300,16,2.3,1.4
2013,8,1,13:00,UTC,7,1007.7,-1,79,0,-1,17.6,13.9,41970,359,3.3,2.4
2013,8,1,14:00,UTC,7,1008,-1,84,0,-1,16.7,13.9,36510,49,2,1.2
2013,8,1,15:00,UTC,7,1008.1,0.6,95,0.3,-1,15.9,15.1,18160,260,1.5,1.1
2013,8,1,16:00,UTC,7,1008.2,0.7,91,0.7,-1,16.4,14.9,21720,357,1.9,1.4
2013,8,1,17:00,UTC,7,1008.1,0.4,95,0.4,-1,15.9,15.2,16630,93,1.3,0.9
2013,8,1,18:00,UTC,7,1008.4,0.6,98,0,-1,15.4,15,7620,234,1,0.6
2013,8,1,19:00,UTC,7,1008.4,1.4,98,1.8,-1,15.8,15.5,7020,292,2.9,2
2013,8,1,20:00,UTC,8,1008.2,1.6,98,0.8,-1,15.4,15.1,10990,293,3.9,2.7
2013,8,1,21:00,UTC,8,1008.3,0.6,98,0,-1,15.1,14.8,11040,313,3.8,3
2013,8,1,22:00,UTC,7,1008.1,0.2,98,0,-1,15.1,14.8,15620,287,4.1,2.9
2013,8,1,23:00,UTC,7,1008,-1,97,0,-1,15.1,14.7,17160,291,4.9,3.4
2013,8,2,00:00,UTC,7,1007.8,-1,97,0,-1,14.9,14.5,3380,313,7.7,6
2013,8,2,01:00,UTC,7,1007.8,0.5,98,0.7,-1,14.8,14.5,4040,324,6.9,4.7
2013,8,2,02:00,UTC,7,1007.9,0.6,98,0,-1,15,14.7,3080,328,6.5,5.2
2013,8,2,03:00,UTC,7,1008.4,-1,98,0,-1,15.1,14.9,4900,333,6.7,4.9
2013,8,2,04:00,UTC,7,1008.8,-1,99,0,-1,15.3,15.1,9660,337,7,4.4
2013,8,2,05:00,UTC,7,1009,-1,99,0,-1,15.6,15.4,6570,335,5.8,4.2
2013,8,2,06:00,UTC,7,1009.4,0.3,99,0,-1,15.9,15.8,4930,337,6.5,4.8
2013,8,2,07:00,UTC,7,1010,-1,98,0,-1,16,15.8,5340,337,5.6,3.9
2013,8,2,08:00,UTC,7,1010.5,-1,96,0,-1,16.8,16.1,14080,336,5.4,4.1
2013,8,2,09:00,UTC,7,1010.9,-1,91,0,-1,18.1,16.6,28200,335,6.1,4.3
2013,8,2,10:00,UTC,1,1010.9,-1,81,0,-1,19.8,16.4,29630,338,6.3,4.9
2013,8,2,11:00,UTC,3,1011.2,-1,76,0,-1,21.1,16.8,32860,353,6.1,4.5
2013,8,2,12:00,UTC,1,1011.3,-1,71,0,-1,21.6,16,25530,314,7.3,4.9
2013,8,2,13:00,UTC,1,1011.6,-1,66,0,-1,21.6,15,26920,331,5.8,4.1
2013,8,2,14:00,UTC,3,1011.8,-1,69,0,-1,20.6,14.8,37700,358,6.4,4.4
2013,8,2,15:00,UTC,1,1011.8,-1,64,0,-1,22.2,15.1,36870,335,6.5,4.5
2013,8,2,16:00,UTC,0,1012,-1,65,0,-1,21.4,14.5,30300,326,4.5,3.2
2013,8,2,17:00,UTC,0,1012.6,-1,76,0,-1,19.5,15.3,34150,302,5.1,3.7
2013,8,2,18:00,UTC,0,1013.3,-1,85,0,-1,17.8,15.3,30590,317,5.8,4.2
2013,8,2,19:00,UTC,0,1013.7,-1,91,0,-1,16.6,15.1,26590,303,3.6,3
2013,8,2,20:00,UTC,1,1014.3,-1,94,0,-1,15.7,14.6,20420,312,2.9,2.5
2013,8,2,21:00,UTC,0,1014.8,-1,94,0,-1,14.9,14,14970,309,4,2.5
2013,8,2,22:00,UTC,0,1014.9,-1,96,0,-1,15.3,14.7,14320,302,3.4,2.9
2013,8,2,23:00,UTC,0,1015.2,-1,98,0,-1,14.8,14.4,7840,292,3.1,2.4
2013,8,3,00:00,UTC,0,1015.5,-1,98,0,-1,14.4,14.1,8630,293,3.6,2.8
2013,8,3,01:00,UTC,0,1015.7,-1,98,0,-1,12.7,12.4,2110,311,2.7,2.3
2013,8,3,02:00,UTC,9,1015.9,-1,99,0,-1,14,13.9,480,316,3.4,2.5
2013,8,3,03:00,UTC,9,1016.1,-1,99,0,-1,14,13.9,560,324,4.7,3.4
2013,8,3,04:00,UTC,9,1016.7,-1,99,0,-1,14.2,14.1,660,321,5,3.9
2013,8,3,05:00,UTC,8,1016.8,-1,100,0,-1,14.8,14.7,2650,351,3.6,2.3
2013,8,3,06:00,UTC,8,1017,-1,99,0,-1,15.1,15,8520,316,3.8,2.4
2013,8,3,07:00,UTC,7,1017.8,-1,95,0,-1,16.3,15.4,18890,318,4.3,3
2013,8,3,08:00,UTC,3,1017.8,-1,85,0,-1,18.2,15.6,20380,292,4.7,2.5
2013,8,3,09:00,UTC,0,1017.6,-1,75,0,-1,20,15.5,27740,292,3.4,1.7
2013,8,3,10:00,UTC,0,1017.3,-1,65,0,-1,21.7,14.9,26310,321,4.1,1.7
2013,8,3,11:00,UTC,3,1017.3,-1,55,0,-1,22.7,13.2,28750,255,2.4,0.7
2013,8,3,12:00,UTC,1,1017,-1,54,0,-1,23,13.4,27010,308,4,2
2013,8,3,13:00,UTC,0,1017,-1,54,0,-1,24,14.1,30700,226,3.4,1.5
2013,8,3,14:00,UTC,0,1017.1,-1,65,0,-1,21.2,14.3,32880,311,1.7,0.8
2013,8,3,15:00,UTC,0,1016.8,-1,46,0,-1,23.8,11.5,33090,301,2.9,1.7
2013,8,3,16:00,UTC,0,1017,-1,56,0,-1,22.6,13.2,37990,343,3.8,2.2
2013,8,3,17:00,UTC,0,1017.1,-1,62,0,-1,20.4,12.9,41480,293,1.6,0.7
2013,8,3,18:00,UTC,0,1017.2,-1,70,0,-1,19.4,13.7,35350,0,0.7,0
2013,8,3,19:00,UTC,0,1017.5,-1,88,0,-1,16.6,14.6,29670,306,0.9,0.8
2013,8,3,20:00,UTC,0,1017.9,-1,95,0,-1,15,14.2,15410,277,0.9,0.6
2013,8,3,21:00,UTC,0,1018.3,-1,98,0,-1,13.3,12.9,6210,265,1.1,0.8
2013,8,3,22:00,UTC,0,1018.3,-1,99,0,-1,12.9,12.6,820,0,0.5,0
2013,8,3,23:00,UTC,0,1018.6,-1,99,0,-1,12.6,12.5,3580,0,0.5,0
2013,8,4,00:00,UTC,0,1018.4,-1,99,0,-1,11.5,11.3,3560,0,0.8,0
2013,8,4,01:00,UTC,0,1018.6,-1,99,0,-1,10.2,10,10130,0,0.8,0
2013,8,4,02:00,UTC,0,1018.5,-1,99,0,-1,10.1,10,280,0,0.5,0
2013,8,4,03:00,UTC,1,1018.3,-1,99,0,-1,11.2,11.1,5780,0,0.4,0
2013,8,4,04:00,UTC,0,1018.2,-1,97,0,-1,14.3,13.8,14950,73,1.4,0.6
2013,8,4,05:00,UTC,0,1018.1,-1,88,0,-1,16.7,14.7,17220,135,2.2,1
2013,8,4,06:00,UTC,0,1018,-1,77,0,-1,19.7,15.6,24890,132,3,1.9
2013,8,4,07:00,UTC,0,1017.9,-1,72,0,-1,22,16.7,24770,116,3,1.9
2013,8,4,08:00,UTC,1,1017.9,-1,63,0,-1,23.4,15.9,30370,130,4.5,2.5
2013,8,4,09:00,UTC,3,1017.7,-1,50,0,-1,24.4,13.4,30100,160,5,2.7
2013,8,4,10:00,UTC,1,1017.5,-1,49,0,-1,24.3,12.8,27660,154,8.3,3.2
2013,8,4,11:00,UTC,1,1017.3,-1,51,0,-1,25.1,14.1,21710,140,7.3,3.2
2013,8,4,12:00,UTC,1,1017.1,-1,46,0,-1,25.8,13.2,31210,166,4.6,2
2013,8,4,13:00,UTC,3,1016.6,-1,44,0,-1,25.9,12.7,32580,158,6,3
2013,8,4,14:00,UTC,1,1016.6,-1,48,0,-1,24.9,13,40640,193,4.8,2.6
2013,8,4,15:00,UTC,1,1016.4,-1,48,0,-1,25.6,13.6,29170,153,4.4,2.3
2013,8,4,16:00,UTC,1,1016.2,-1,47,0,-1,25.2,13.1,32310,170,4,2.2
2013,8,4,17:00,UTC,0,1016.3,-1,58,0,-1,23.3,14.6,35930,146,2.4,1.1
2013,8,4,18:00,UTC,0,1016.6,-1,73,0,-1,20.3,15.2,38050,159,1.6,1.1
2013,8,4,19:00,UTC,0,1016.8,-1,83,0,-1,18,15.1,30640,175,1.2,0.8
2013,8,4,20:00,UTC,0,1017.2,-1,90,0,-1,16.3,14.6,19880,0,1.7,0
2013,8,4,21:00,UTC,0,1017.3,-1,94,0,-1,15.5,14.6,17370,0,0.6,0
2013,8,4,22:00,UTC,3,1017.2,-1,96,0,-1,14.7,14,15590,158,1.3,0.9
2013,8,4,23:00,UTC,7,1017.4,-1,97,0,-1,14.8,14.4,15420,0,0.5,0
2013,8,5,00:00,UTC,7,1017.5,-1,97,0,-1,14.9,14.4,14330,149,1.1,0.6
2013,8,5,01:00,UTC,8,1017.9,-1,93,0,-1,15.8,14.7,26800,224,1.9,0.9
2013,8,5,02:00,UTC,7,1017.9,-1,90,0,-1,15.9,14.3,34530,285,2.9,1.5
2013,8,5,03:00,UTC,7,1018.1,0.8,96,1.4,-1,15.1,14.4,8150,284,1.5,0.9
2013,8,5,04:00,UTC,7,1018.1,0.9,98,0,-1,14.9,14.6,9130,149,2,1
2013,8,5,05:00,UTC,7,1017.9,0.2,99,0,-1,15.1,14.9,9580,154,1.3,0.9
2013,8,5,06:00,UTC,7,1017.5,0.2,97,0.2,-1,16,15.5,22720,138,2.2,1.4
2013,8,5,07:00,UTC,7,1017.8,-1,95,0,-1,17.2,16.4,26610,161,2,0.9
2013,8,5,08:00,UTC,7,1018,-1,92,0,-1,17.7,16.4,32810,162,3.4,1.5
2013,8,5,09:00,UTC,7,1018.1,-1,91,0,-1,18.6,17,36970,159,2.3,1.3
2013,8,5,10:00,UTC,7,1018,-1,83,0,-1,19.9,17,39470,145,3.3,1.7
2013,8,5,11:00,UTC,5,1017.8,-1,79,0,-1,20.7,16.8,31210,126,4.4,2.7
2013,8,5,12:00,UTC,7,1017.7,-1,75,0,-1,20.8,16.2,37100,142,3.9,2.1
2013,8,5,13:00,UTC,7,1017.6,-1,76,0,-1,21.2,16.7,33100,140,4.6,3
2013,8,5,14:00,UTC,7,1017.5,-1,75,0,-1,20.9,16.3,40020,150,5.1,2.7
2013,8,5,15:00,UTC,1,1017.4,-1,76,0,-1,20.9,16.6,34000,136,4.5,2.3
2013,8,5,16:00,UTC,1,1017.4,-1,74,0,-1,21,16.3,30710,142,4.2,2.1
2013,8,5,17:00,UTC,1,1017.5,-1,77,0,-1,20.5,16.3,44970,141,3.9,2
2013,8,5,18:00,UTC,0,1017.8,-1,90,0,-1,18.5,16.7,43290,149,1.6,1.1
2013,8,5,19:00,UTC,1,1018.1,-1,96,0,-1,17.1,16.4,20380,194,1.3,0.7
2013,8,5,20:00,UTC,0,1018.4,-1,97,0,-1,16.2,15.7,13260,243,2.4,1.1
2013,8,5,21:00,UTC,0,1019.2,-1,98,0,-1,14.2,13.9,1190,278,2.5,1.4
2013,8,5,22:00,UTC,0,1019.6,-1,98,0,-1,12.9,12.6,15570,0,1,0
2013,8,5,23:00,UTC,0,1019.9,-1,98,0,-1,11.8,11.4,14410,7,0.8,0.6
2013,8,6,00:00,UTC,0,1020.2,-1,99,0,-1,10.3,10.1,10370,131,1.2,0.6
2013,8,6,01:00,UTC,0,1020.3,-1,99,0,-1,9.3,9.1,9740,0,0.7,0
2013,8,6,02:00,UTC,0,1020.5,-1,99,0,-1,8.7,8.6,16390,0,0.8,0
2013,8,6,03:00,UTC,0,1020.6,-1,99,0,-1,8.9,8.7,2280,156,1,0.7
2013,8,6,04:00,UTC,0,1020.4,-1,96,0,-1,11.9,11.3,32840,107,0.9,0.6
2013,8,6,05:00,UTC,0,1020.2,-1,86,0,-1,14.5,12.3,39680,125,1.8,1.3
2013,8,6,06:00,UTC,0,1019.9,-1,77,0,-1,17.4,13.4,31530,130,2.3,1.5
2013,8,6,07:00,UTC,0,1019.8,-1,62,0,-1,20.2,12.7,41180,187,4.5,2.3
2013,8,6,08:00,UTC,0,1019.6,-1,56,0,-1,21.7,12.4,38460,160,4.9,2.1
2013,8,6,09:00,UTC,0,1019.5,-1,47,0,-1,23,11,36530,198,2.9,1.6
2013,8,6,10:00,UTC,1,1019.1,-1,46,0,-1,23.6,11.2,31700,200,3.9,2
2013,8,6,11:00,UTC,7,1018.9,-1,47,0,-1,23.7,11.8,34430,244,4,1.3
2013,8,6,12:00,UTC,1,1018.6,-1,40,0,-1,24.1,9.8,29490,165,4.1,2.2
2013,8,6,13:00,UTC,1,1018.4,-1,37,0,-1,24,8.4,45420,201,6,2.2
2013,8,6,14:00,UTC,3,1018.2,-1,40,0,-1,23.9,9.5,35580,210,3.8,2
2013,8,6,15:00,UTC,3,1017.8,-1,38,0,-1,24.2,8.9,41830,208,3.8,2
2013,8,6,16:00,UTC,0,1017.5,-1,40,0,-1,24.4,9.7,40030,225,1.7,0.9
2013,8,6,17:00,UTC,0,1017.5,-1,52,0,-1,20.8,10.7,48450,199,1.4,0.9
2013,8,6,18:00,UTC,0,1017.6,-1,65,0,-1,19.2,12.6,49620,156,0.9,0.8
2013,8,6,19:00,UTC,3,1017.6,-1,76,0,-1,16.9,12.7,50000,139,1.2,0.7
2013,8,6,20:00,UTC,5,1017.7,-1,89,0,-1,14.6,12.7,48310,0,0.4,0
2013,8,6,21:00,UTC,1,1018,-1,92,0,-1,13.7,12.5,33780,0,0.7,0
2013,8,6,22:00,UTC,1,1018.1,-1,96,0,-1,13.5,12.8,30020,0,0.4,0
2013,8,6,23:00,UTC,0,1018,-1,97,0,-1,12.2,11.8,9650,0,0.2,0
2013,8,7,00:00,UTC,0,1018,-1,99,0,-1,11.6,11.4,5620,314,1.4,1.1
2013,8,7,01:00,UTC,0,1017.8,-1,98,0,-1,10.9,10.6,8800,302,1,0.9
2013,8,7,02:00,UTC,0,1017.6,-1,99,0,-1,10.4,10.2,6100,0,0.5,0
2013,8,7,03:00,UTC,0,1017.8,-1,99,0,-1,10.9,10.7,12890,0,0.7,0
2013,8,7,04:00,UTC,0,1017.7,-1,95,0,-1,12.9,12.1,22840,144,1.8,0.9
2013,8,7,05:00,UTC,0,1017.4,-1,89,0,-1,16.1,14.3,34610,143,2.6,1.4
2013,8,7,06:00,UTC,0,1017,-1,81,0,-1,18.8,15.4,32500,120,3.3,2.1
2013,8,7,07:00,UTC,0,1016.8,-1,60,0,-1,21.5,13.4,32260,143,4,2
2013,8,7,08:00,UTC,0,1016.4,-1,49,0,-1,22.4,11.2,37280,150,4.8,2.6
2013,8,7,09:00,UTC,1,1016.4,-1,52,0,-1,22.6,12.2,40420,142,6.1,3.4
2013,8,7,10:00,UTC,1,1016,-1,44,0,-1,23.9,11.1,32470,145,5.7,2.7
2013,8,7,11:00,UTC,1,1015.6,-1,43,0,-1,24.1,10.6,34400,144,6.2,3.2
2013,8,7,12:00,UTC,1,1015.2,-1,40,0,-1,24.5,9.9,37780,144,8.9,4.4
2013,8,7,13:00,UTC,7,1014.6,-1,47,0,-1,24,12.1,36880,140,4.9,2.5
2013,8,7,14:00,UTC,3,1014.6,-1,47,0,-1,23.9,12.1,43260,160,5.6,3
2013,8,7,15:00,UTC,7,1015,-1,62,0,-1,21.9,14.3,48480,175,4.1,2
2013,8,7,16:00,UTC,7,1015.6,-1,79,0,-1,19.7,15.9,16470,208,7.1,3.1
2013,8,7,17:00,UTC,7,1015,0.8,94,0.8,-1,18,17,19490,121,2.9,1.6
2013,8,7,18:00,UTC,7,1015.1,0.1,97,0,-1,17.6,17.1,11230,173,2.8,1.3
2013,8,7,19:00,UTC,7,1014.5,0.9,98,0.8,-1,17.2,16.9,8170,143,3.6,1.6
2013,8,7,20:00,UTC,7,1014.9,-1,98,0,-1,17.4,17.1,11790,164,2.9,1.3
2013,8,7,21:00,UTC,7,1015.2,-1,97,0,-1,17.5,17,13770,203,2.8,1.6
2013,8,7,22:00,UTC,7,1015.3,-1,98,0,-1,17.1,16.9,8010,140,1.7,0.9
2013,8,7,23:00,UTC,7,1015.2,-1,99,0,-1,17,16.9,6120,154,1.1,0.7
2013,8,8,00:00,UTC,7,1014.9,-1,99,0,-1,17,16.9,6530,162,1.9,0.9
2013,8,8,01:00,UTC,7,1014.9,-1,99,0,-1,16.9,16.7,5550,0,0.6,0
2013,8,8,02:00,UTC,7,1014.8,-1,99,0,-1,16.8,16.7,5510,141,1.3,0.6
2013,8,8,03:00,UTC,1,1014.7,-1,99,0,-1,16.3,16.2,1020,297,1.2,0.9
2013,8,8,04:00,UTC,1,1014.6,-1,99,0,-1,17.2,17.1,380,0,0.7,0
2013,8,8,05:00,UTC,1,1014.6,-1,95,0,-1,17.6,16.8,19380,252,1.8,0.9
2013,8,8,06:00,UTC,1,1014.6,-1,89,0,-1,18.3,16.5,28780,302,2,1.3
2013,8,8,07:00,UTC,5,1014.6,-1,89,0,-1,18.4,16.6,30660,321,2.5,1.9
2013,8,8,08:00,UTC,5,1014.2,-1,82,0,-1,19.7,16.7,30020,119,2.7,1.4
2013,8,8,09:00,UTC,3,1014.1,-1,83,0,-1,20.2,17.2,36540,121,3.5,2.2
2013,8,8,10:00,UTC,7,1014,-1,77,0,-1,20.8,16.5,28800,115,2.8,1.4
2013,8,8,11:00,UTC,5,1013.7,-1,79,0,-1,20.7,17,31420,130,3.2,1.8
2013,8,8,12:00,UTC,7,1013.8,-1,82,0,-1,20.7,17.5,28940,160,2.3,1.3
2013,8,8,13:00,UTC,5,1013.5,-1,81,0,-1,21.4,17.9,29660,100,3.6,2.6
2013,8,8,14:00,UTC,7,1013.5,-1,80,0,-1,21.3,17.7,33210,125,1.8,0.9
2013,8,8,15:00,UTC,7,1013.5,-1,91,0,-1,19.9,18.4,11160,168,1.9,0.9
2013,8,8,16:00,UTC,8,1013.4,-1,91,0,-1,19.6,18.2,23140,199,1.3,0.6
2013,8,8,17:00,UTC,8,1013.3,-1,94,0,-1,19.3,18.4,18970,0,0.5,0
2013,8,8,18:00,UTC,3,1013,-1,95,0,-1,19,18.1,15260,150,1.7,0.9
2013,8,8,19:00,UTC,8,1013,-1,98,0,-1,18,17.6,6760,121,1.1,0.9
2013,8,8,20:00,UTC,7,1012.9,-1,99,0,-1,17.9,17.7,5460,148,1.2,0.9
2013,8,8,21:00,UTC,5,1012.5,-1,99,0,-1,17.4,17.2,1630,0,0.7,0
2013,8,8,22:00,UTC,7,1012,-1,99,0,-1,17.1,16.9,3130,313,1.3,1
2013,8,8,23:00,UTC,7,1011.3,-1,99,0,-1,17,16.9,2320,351,1.7,1.3
2013,8,9,00:00,UTC,7,1010.9,,99,0,-1,17,16.9,6000,0,0.9,0
2013,8,9,01:00,UTC,7,1010.4,,99,0,-1,16.9,16.8,3660,119,2.6,1.8
2013,8,9,02:00,UTC,7,1009.3,-1,99,0,-1,17.3,17.1,8810,116,4,2.4
2013,8,9,03:00,UTC,7,1008.4,,99,1.5,-1,17.5,17.3,10290,101,4.9,2.9
2013,8,9,04:00,UTC,7,1007.4,,99,11.2,-1,17.3,17.2,2270,36,3.7,2.3
2013,8,9,05:00,UTC,7,1007.1,11.5,99,9.8,-1,17.4,17.2,2300,255,3.5,1.9
2013,8,9,06:00,UTC,7,1006.3,1.8,99,0.4,-1,17.7,17.5,8430,84,1.6,1.1
2013,8,9,07:00,UTC,7,1006,-1,98,0,-1,19.1,18.8,12820,215,2.4,1.4
2013,8,9,08:00,UTC,7,1006,-1,94,0,-1,19.5,18.6,27000,263,2.1,0.9
2013,8,9,09:00,UTC,7,1006.1,-1,96,0,-1,18.5,17.9,32270,1,3.3,1.9
2013,8,9,10:00,UTC,7,1006.5,1.1,98,1.1,-1,18,17.6,7610,321,3,2.2
2013,8,9,11:00,UTC,7,1006.7,0.3,95,0,-1,18.6,17.8,22230,187,2,1.1
2013,8,9,12:00,UTC,7,1006.7,-1,96,0,-1,18.6,17.9,14100,249,2.1,1.3
2013,8,9,13:00,UTC,7,1006.6,-1,95,0,-1,19.1,18.3,7650,222,3.9,1.6
2013,8,9,14:00,UTC,7,1006.5,0.6,95,0.4,-1,19.2,18.4,22140,208,2.9,1.3
2013,8,9,15:00,UTC,7,1006.7,0.7,96,0.6,-1,18.8,18.2,16880,265,1.6,1
2013,8,9,16:00,UTC,8,1006.8,-1,95,0,-1,18.5,17.6,24790,259,2.2,1.2
2013,8,9,17:00,UTC,7,1006.9,-1,95,0,-1,18.8,17.9,24760,281,2.9,1.3
2013,8,9,18:00,UTC,7,1007.3,-1,94,0,-1,18.3,17.3,34940,301,3,2
2013,8,9,19:00,UTC,8,1007.3,-1,97,0,-1,17.5,17.1,13030,295,2.4,1.6
2013,8,9,20:00,UTC,7,1007.8,-1,96,0,-1,17,16.4,22870,318,5,3.8
2013,8,9,21:00,UTC,8,1008.5,-1,99,0,-1,15.4,15.2,4490,345,6.9,4.9
2013,8,9,22:00,UTC,8,1008.8,-1,98,0,-1,14.7,14.5,9920,339,4.6,3.5
2013,8,9,23:00,UTC,8,1009.4,-1,98,0,-1,14.3,14,14740,330,4.5,3.4
2013,8,10,00:00,UTC,8,1009.5,-1,99,0,-1,13.9,13.6,13960,330,5,3.9
2013,8,10,01:00,UTC,8,1009.9,-1,99,0,-1,13.6,13.4,12850,331,4,3.2
2013,8,10,02:00,UTC,8,1010.3,-1,98,0,-1,13.4,13.2,15640,328,4,2.7
2013,8,10,03:00,UTC,8,1010.9,-1,97,0,-1,13.4,12.9,35830,316,3.7,2.6
2013,8,10,04:00,UTC,8,1010.8,-1,96,0,-1,13.6,13,33240,340,5,3.6
2013,8,10,05:00,UTC,8,1011.3,-1,95,0,-1,13.8,13,24650,330,3.5,2.7
2013,8,10,06:00,UTC,8,1011.3,-1,96,0,-1,13.8,13.2,7580,331,4.4,3.1
2013,8,10,07:00,UTC,8,1011.7,-1,97,0,-1,14.1,13.6,2300,331,3.2,2.1
2013,8,10,08:00,UTC,7,1012.1,0.4,98,1,-1,14.6,14.3,5070,344,2.9,1.6
2013,8,10,09:00,UTC,7,1012.3,0.1,93,0,-1,15.7,14.7,30090,324,3.9,2.8
2013,8,10,10:00,UTC,8,1012.4,-1,92,0,-1,15.4,14,18620,337,3.7,2.4
2013,8,10,11:00,UTC,8,1012.7,-1,95,0,-1,15,14.2,9290,351,4.3,3
2013,8,10,12:00,UTC,7,1012.9,0.2,94,0,-1,15.5,14.5,5470,21,2,1
2013,8,10,13:00,UTC,8,1012.8,-1,89,0,-1,16.2,14.4,22260,5,4.4,3
2013,8,10,14:00,UTC,8,1012.9,-1,93,0,-1,15.7,14.6,18840,339,4,3.1
2013,8,10,15:00,UTC,8,1012.7,-1,91,0,-1,15.9,14.3,40620,339,3.8,3
2013,8,10,16:00,UTC,8,1012.6,-1,90,0,-1,15.9,14.3,32810,340,2.8,2.1
2013,8,10,17:00,UTC,8,1012.5,-1,93,0,-1,15.3,14.2,44220,31,2.3,1.6
2013,8,10,18:00,UTC,7,1012.5,-1,94,0,-1,15.4,14.4,39110,12,2.5,1.8
2013,8,10,19:00,UTC,8,1012.1,-1,94,0,-1,14.9,13.9,40080,357,2.4,1.7
2013,8,10,20:00,UTC,7,1011.6,-1,97,0,-1,14.6,14,45020,327,2.8,1.9
2013,8,10,21:00,UTC,8,1011.5,-1,97,0,-1,14.6,14.2,48080,356,1.7,1.3
2013,8,10,22:00,UTC,8,1011.4,-1,98,0,-1,14.3,14,17330,48,1.6,1
2013,8,10,23:00,UTC,7,1011,-1,99,0,-1,13.9,13.7,40700,306,2,1.6
2013,8,11,00:00,UTC,8,1010.4,-1,99,0,-1,14.3,14.1,49530,9,2,1.6
2013,8,11,01:00,UTC,8,1010.1,-1,99,0,-1,14.1,13.9,8160,1,3,2
2013,8,11,02:00,UTC,8,1009.8,-1,99,0,-1,13.9,13.8,15540,2,2.5,1.8
2013,8,11,03:00,UTC,8,1009.4,-1,99,0,-1,13.6,13.5,1200,329,3,2.3
2013,8,11,04:00,UTC,8,1008.8,-1,99,0,-1,13.5,13.4,3880,327,4,3.1
2013,8,11,05:00,UTC,8,1008.5,-1,99,0,-1,13.7,13.5,43000,338,4.3,3.2
2013,8,11,06:00,UTC,8,1008.2,-1,95,0,-1,14.1,13.3,50000,338,3.1,2.2
2013,8,11,07:00,UTC,8,1008.1,-1,95,0,-1,14.1,13.2,26630,330,3.7,2.5
2013,8,11,08:00,UTC,8,1008,-1,91,0,-1,14.4,12.9,14400,308,4.2,2.8
2013,8,11,09:00,UTC,8,1007.7,-1,91,0,-1,15,13.5,10870,336,3.9,2.8
2013,8,11,10:00,UTC,8,1007.2,-1,83,0,-1,16.2,13.2,39770,306,4.1,3
2013,8,11,11:00,UTC,5,1006.7,-1,73,0,-1,17.7,12.9,35610,302,7.2,2.5
2013,8,11,12:00,UTC,7,1006.2,-1,78,0,-1,17.4,13.5,28070,354,4,2.8
2013,8,11,13:00,UTC,8,1005.8,-1,76,0,-1,17.5,13.2,49910,291,4.9,3.1
2013,8,11,14:00,UTC,5,1005.5,-1,81,0,-1,17.5,14.1,47260,264,3.3,1.7
2013,8,11,15:00,UTC,7,1005.3,-1,89,0,-1,16.6,14.7,20630,334,2.5,1.9
2013,8,11,16:00,UTC,7,1005.1,-1,86,0,-1,16.6,14.3,50000,301,3.5,2.5
2013,8,11,17:00,UTC,7,1004.7,-1,88,0,-1,16.4,14.3,50000,350,3.3,2.5
2013,8,11,18:00,UTC,1,1004.8,-1,94,0,-1,14.7,13.7,50000,296,2.1,1.1
2013,8,11,19:00,UTC,1,1005,-1,98,0,-1,13.1,12.8,24890,311,1,0.7
2013,8,11,20:00,UTC,0,1004.9,-1,99,0,-1,11.8,11.6,14910,298,1.5,0.9
2013,8,11,21:00,UTC,1,1004.8,-1,99,0,-1,10.6,10.4,5510,278,1.5,1.1
2013,8,11,22:00,UTC,5,1004.8,-1,99,0,-1,10,9.9,440,344,1.8,1.1
2013,8,11,23:00,UTC,9,1004.4,-1,99,0,-1,10.9,10.8,540,283,1.5,0.9
2013,8,12,00:00,UTC,9,1004.4,-1,99,0,-1,10.3,10.2,190,0,0.5,0
2013,8,12,01:00,UTC,9,1004.4,-1,99,0,-1,9.5,9.4,240,299,1.7,1.3
2013,8,12,02:00,UTC,9,1004.4,-1,99,0,-1,9.1,9,210,0,0.7,0
2013,8,12,03:00,UTC,9,1004.2,-1,99,0,-1,9.6,9.5,470,181,1.3,0.9
2013,8,12,04:00,UTC,8,1004.1,-1,99,0,-1,11,10.9,490,0,0.9,0
2013,8,12,05:00,UTC,9,1003.9,-1,99,0,-1,12.3,12.3,360,356,2.2,1.2
2013,8,12,06:00,UTC,8,1004,-1,100,0,-1,12.9,12.8,1230,164,1.7,0.7
2013,8,12,07:00,UTC,7,1003.8,-1,99,0,-1,15.2,15,40190,73,2.6,1
2013,8,12,08:00,UTC,7,1003.3,-1,82,0,-1,16.3,13.1,37360,20,2,1.1
2013,8,12,09:00,UTC,0,1003.1,-1,65,0,-1,17.8,11.1,43350,334,2.3,1.2
2013,8,12,10:00,UTC,0,1002.8,-1,54,0,-1,19.2,9.8,50000,281,1.6,0.9
2013,8,12,11:00,UTC,5,1002.8,-1,68,0,-1,18.2,12.2,50000,100,4.4,3
2013,8,12,12:00,UTC,7,1003.3,0.7,90,2,-1,14.8,13.2,7500,145,2,1.1
2013,8,12,13:00,UTC,5,1002.9,0.2,82,0,-1,16,12.9,50000,91,5.3,2.4
2013,8,12,14:00,UTC,7,1003.3,9.9,98,1.3,-1,14,13.7,11120,159,2.9,1.2
2013,8,12,15:00,UTC,7,1003.3,0.3,97,0,-1,14.6,14.1,33250,152,1.7,0.9
2013,8,12,16:00,UTC,7,1003.4,-1,93,0,-1,14.7,13.6,46100,176,5.3,2.8
2013,8,12,17:00,UTC,7,1003.6,1.2,97,0,-1,13.5,13.1,11980,151,3.2,1.5
2013,8,12,18:00,UTC,7,1003.6,0.9,98,0,-1,13.7,13.4,16990,150,3.5,1.6
2013,8,12,19:00,UTC,7,1003.9,-1,99,0,-1,13.2,13,10730,150,1.9,0.9
2013,8,12,20:00,UTC,7,1004.2,-1,99,0,-1,12.9,12.7,13370,154,2,1
2013,8,12,21:00,UTC,7,1004.5,-1,99,0,-1,11.8,11.6,1780,143,2,1.1
2013,8,12,22:00,UTC,5,1004.7,-1,99,0,-1,11,10.8,700,145,2,1.2
2013,8,12,23:00,UTC,1,1004.8,-1,99,0,-1,10.8,10.7,3450,159,2.2,1
2013,8,13,00:00,UTC,0,1005.1,-1,99,0,-1,9.8,9.7,1040,105,1.3,0.8
2013,8,13,01:00,UTC,1,1005.2,-1,99,0,-1,9.6,9.5,2560,138,1.6,1.1
2013,8,13,02:00,UTC,5,1005.3,-1,99,0,-1,9.6,9.6,3100,144,2.1,1.5
2013,8,13,03:00,UTC,7,1005.5,-1,99,0,-1,10.9,10.8,8830,134,1.6,1
2013,8,13,04:00,UTC,7,1005.8,-1,99,0,-1,11.5,11.4,11080,145,1.9,1
2013,8,13,05:00,UTC,7,1006.1,-1,99,0,-1,12.1,11.9,20970,195,4.4,2.4
2013,8,13,06:00,UTC,7,1006.3,-1,97,0,-1,12.9,12.4,36270,172,3.8,1.6
2013,8,13,07:00,UTC,7,1006.4,-1,91,0,-1,14.2,12.7,33600,209,3.5,1.7
2013,8,13,08:00,UTC,1,1006.6,-1,78,0,-1,16,12.2,33390,186,5.5,2.8
2013,8,13,09:00,UTC,1,1006.6,-1,68,0,-1,17.7,11.7,36550,176,6.8,2.7
2013,8,13,10:00,UTC,7,1006.6,-1,61,0,-1,18.6,10.9,37370,187,4.9,2.5
2013,8,13,11:00,UTC,1,1006.6,-1,60,0,-1,18.8,10.9,35030,223,2.4,1
2013,8,13,12:00,UTC,3,1006.5,-1,58,0,-1,19.1,10.6,46500,187,2.8,1.6
2013,8,13,13:00,UTC,7,1007.1,0.8,83,4.6,-1,16.5,13.6,8310,188,4.4,2
2013,8,13,14:00,UTC,5,1007.4,-1,90,0,-1,14.9,13.2,47220,186,1.9,1.1
2013,8,13,15:00,UTC,7,1007.9,0.9,91,5.1,-1,13.9,12.4,4970,262,5.1,1.8
2013,8,13,16:00,UTC,3,1007.6,1.5,92,0,-1,14.9,13.6,42130,124,3.5,2.3
2013,8,13,17:00,UTC,0,1007.7,-1,87,0,-1,14.3,12.1,50000,131,4,2.4
2013,8,13,18:00,UTC,7,1008,-1,90,0,-1,13.4,11.8,50000,160,2.3,1.1
2013,8,13,19:00,UTC,1,1008.3,-1,97,0,-1,11.5,11.1,28970,143,2.4,1.6
2013,8,13,20:00,UTC,0,1008.3,-1,98,0,-1,10.6,10.3,5540,0,0.9,0
2013,8,13,21:00,UTC,0,1008.2,-1,99,0,-1,9.3,9.1,570,0,0.4,0
2013,8,13,22:00,UTC,1,1008.1,-1,99,0,-1,8.3,8.2,630,314,1.5,1.3
2013,8,13,23:00,UTC,5,1007.7,-1,99,0,-1,7.7,7.6,2490,313,1.1,0.8
2013,8,14,00:00,UTC,5,1007.5,-1,99,0,-1,8.2,8.1,5540,318,1.9,1.6
2013,8,14,01:00,UTC,5,1006.9,-1,99,0,-1,9.4,9.3,12280,313,2,1.5
2013,8,14,02:00,UTC,5,1006.6,-1,99,0,-1,10,9.9,12780,329,2.2,1.8
2013,8,14,03:00,UTC,9,1005.8,-1,99,0,-1,10.6,10.5,5830,313,2.1,1.4
2013,8,14,04:00,UTC,8,1005.2,0.2,99,1.4,-1,11.4,11.3,8270,342,4.2,3
2013,8,14,05:00,UTC,7,1004.7,0.5,99,0,-1,12.4,12.3,15000,31,3.7,2.5
2013,8,14,06:00,UTC,7,1004.1,,99,0.5,-1,13.1,13,12040,36,4.1,2.7
2013,8,14,07:00,UTC,7,1003.6,,98,0.8,-1,13.3,13,12690,359,5.4,3.5
2013,8,14,08:00,UTC,7,1003,,97,1.3,-1,13.6,13.2,11180,354,5.7,4.2
2013,8,14,09:00,UTC,7,1002.4,,96,3.2,-1,13.6,12.9,9480,10,7.1,4.3
2013,8,14,10:00,UTC,7,1002,,97,3.2,-1,13.2,12.7,10320,353,7.6,5.6
2013,8,14,11:00,UTC,7,1001.3,,97,1.6,-1,13.1,12.6,13020,334,8,6
2013,8,14,12:00,UTC,7,1000.7,,97,4.5,-1,13,12.4,8660,332,9.5,6.8
2013,8,14,13:00,UTC,7,1000,,96,3.8,-1,13.1,12.5,10770,331,10.8,6.9
2013,8,14,14:00,UTC,8,999.2,,95,4.1,-1,13.1,12.2,7120,316,10.6,7.4
2013,8,14,15:00,UTC,7,998.6,,95,0,-1,13.2,12.4,17150,322,11.1,7.9
2013,8,14,16:00,UTC,7,998.2,-1,96,0,-1,12.8,12.1,6180,328,10.6,6.8
2013,8,14,17:00,UTC,7,998.2,,98,2.5,-1,12.7,12.4,7200,337,9.1,6.5
2013,8,14,18:00,UTC,8,998.8,-1,98,0,-1,12.8,12.5,34570,340,9.2,6.1
2013,8,14,19:00,UTC,8,999.1,-1,97,0,-1,12.7,12.2,11970,330,9,6.6
2013,8,14,20:00,UTC,8,999.3,-1,97,0,-1,12.7,12.2,42170,325,8.8,6.1
2013,8,14,21:00,UTC,8,999.3,-1,98,0,-1,12.6,12.3,5500,311,6.7,4.4
2013,8,14,22:00,UTC,8,999.3,-1,98,0,-1,12.6,12.3,4380,305,6.2,4.8
2013,8,14,23:00,UTC,8,999.3,-1,97,0,-1,12.6,12.2,14780,309,7.5,5.4
2013,8,15,00:00,UTC,7,999.4,1.4,98,2.5,-1,12.3,12,6060,296,5.8,3.7
2013,8,15,01:00,UTC,7,999.5,0.4,98,0,-1,12.1,11.9,4290,305,6,4.6
2013,8,15,02:00,UTC,8,999.9,0.2,98,0,-1,12.1,11.9,4980,303,7.1,5
2013,8,15,03:00,UTC,8,1000.2,-1,99,0,-1,12.2,12,4600,295,5.6,4.1
2013,8,15,04:00,UTC,8,1000.5,-1,99,0,-1,12.3,12.1,7980,293,6.7,4.5
2013,8,15,05:00,UTC,8,1000.9,1.1,98,0.3,-1,12.5,12.3,5530,293,6,4.1
2013,8,15,06:00,UTC,8,1001.3,1.5,98,1.1,-1,12.8,12.5,9070,294,6.4,4.5
2013,8,15,07:00,UTC,8,1001.7,1,97,1,-1,13.2,12.8,6610,292,6,4.1
2013,8,15,08:00,UTC,8,1002.3,0.6,96,0.5,-1,13.4,12.8,16600,295,7.5,4.7
2013,8,15,09:00,UTC,7,1002.9,0.7,96,0.4,-1,13.7,13.1,24350,294,7.4,4.7
2013,8,15,10:00,UTC,8,1003.4,0.3,95,0.4,-1,14.3,13.5,22860,300,7.6,5.1
2013,8,15,11:00,UTC,7,1003.8,-1,88,0,-1,15.7,13.7,40690,305,8.8,5.5
2013,8,15,12:00,UTC,5,1004.3,-1,84,0,-1,16.4,13.7,32520,295,8.8,5.8
2013,8,15,13:00,UTC,7,1005,-1,87,0,-1,15.7,13.5,41820,294,8.8,5.5
2013,8,15,14:00,UTC,5,1005.6,-1,81,0,-1,15.9,12.6,35100,291,10.2,6.6
2013,8,15,15:00,UTC,7,1006.3,-1,88,0,-1,15.6,13.6,50000,295,10.8,6.8
2013,8,15,16:00,UTC,5,1007.1,-1,86,0,-1,15.2,12.8,46310,293,10.3,6.8
2013,8,15,17:00,UTC,7,1007.8,-1,89,0,-1,14.6,12.8,40840,295,9.1,6.1
2013,8,15,18:00,UTC,7,1008.6,-1,90,0,-1,14.4,12.8,49170,294,9.1,5.3
2013,8,15,19:00,UTC,5,1009.2,-1,90,0,-1,14,12.5,45550,293,7.7,4.9
2013,8,15,20:00,UTC,7,1009.8,-1,92,0,-1,13.4,12.1,44980,294,8.1,4.6
2013,8,15,21:00,UTC,7,1010.1,-1,91,0,-1,13.7,12.1,44480,290,7.6,4.8
2013,8,15,22:00,UTC,8,1010.8,-1,91,0,-1,13.7,12.1,45000,297,6.5,4.8
2013,8,15,23:00,UTC,7,1011.2,-1,91,0,-1,13.6,12.2,38160,295,6.6,4.7
2013,8,16,00:00,UTC,8,1011.7,-1,92,0,-1,13.4,12,45140,294,8,5
2013,8,16,01:00,UTC,7,1011.9,-1,92,0,-1,13,11.7,40200,289,5.9,4.3
2013,8,16,02:00,UTC,7,1012.5,-1,92,0,-1,12.7,11.5,36730,278,5.2,3
2013,8,16,03:00,UTC,7,1013,-1,93,0,-1,12.6,11.4,29870,288,5.9,3.1
2013,8,16,04:00,UTC,7,1013.4,-1,91,0,-1,12.7,11.3,36040,288,4.9,3.2
2013,8,16,05:00,UTC,7,1014.1,-1,93,0,-1,12.6,11.5,26410,272,4.3,2.4
2013,8,16,06:00,UTC,7,1014.5,-1,91,0,-1,13.1,11.7,26400,253,3.9,1.6
2013,8,16,07:00,UTC,8,1014.7,-1,87,0,-1,14.6,12.4,29180,285,3.5,2
2013,8,16,08:00,UTC,5,1014.6,-1,76,0,-1,16.3,12.1,36780,228,5.3,2.5
2013,8,16,09:00,UTC,3,1015.1,-1,79,0,-1,15.7,12.1,40410,269,6.4,3.5
2013,8,16,10:00,UTC,3,1014.7,-1,72,0,-1,18.2,13.1,32960,285,7.2,3.5
2013,8,16,11:00,UTC,1,1014.6,-1,62,0,-1,18.8,11.5,37260,272,4.9,2.4
2013,8,16,12:00,UTC,5,1014.5,-1,52,0,-1,20.4,10.3,27130,236,6.7,3.1
2013,8,16,13:00,UTC,7,1014.6,-1,43,0,-1,21,7.9,37020,253,8.7,3.5
2013,8,16,14:00,UTC,1,1014.8,-1,37,0,-1,20.6,5.5,38380,258,4.9,2.8
2013,8,16,15:00,UTC,0,1014.9,-1,38,0,-1,20.6,5.7,45040,274,5.8,2.8
2013,8,16,16:00,UTC,1,1015.1,-1,45,0,-1,19.7,7.5,50000,248,3.6,1.6
2013,8,16,17:00,UTC,1,1015.4,-1,60,0,-1,17.4,9.7,50000,219,2.3,1.1
2013,8,16,18:00,UTC,0,1015.7,-1,73,0,-1,15.5,10.7,50000,219,1.9,0.9
2013,8,16,19:00,UTC,5,1016.3,-1,66,0,-1,16.3,10,48270,244,5.9,2.4
2013,8,16,20:00,UTC,0,1016.8,-1,73,0,-1,14.1,9.4,50000,244,2.6,1.1
2013,8,16,21:00,UTC,0,1017,-1,88,0,-1,11.7,9.7,50000,216,2.6,1.6
2013,8,16,22:00,UTC,0,1017.3,-1,93,0,-1,10.2,9.2,41820,213,2,1.1
2013,8,16,23:00,UTC,1,1017.5,-1,97,0,-1,8.3,7.8,5400,185,1.7,0.9
2013,8,17,00:00,UTC,1,1017.6,-1,98,0,-1,8.4,8.1,15490,170,1.8,1.4
2013,8,17,01:00,UTC,0,1017.4,-1,98,0,-1,7.4,7.2,16270,158,1.5,1.2
2013,8,17,02:00,UTC,1,1017.3,-1,99,0,-1,7.6,7.4,10000,150,1.1,0.8
2013,8,17,03:00,UTC,0,1017,-1,99,0,-1,7.4,7.2,10510,157,1.7,1
2013,8,17,04:00,UTC,0,1016.6,-1,97,0,-1,9.3,8.9,18480,143,2,1.1
2013,8,17,05:00,UTC,1,1016,-1,92,0,-1,13.4,12.2,31850,139,3.1,1.8
2013,8,17,06:00,UTC,0,1015.6,-1,83,0,-1,15.1,12.3,38840,151,5.3,2.7
2013,8,17,07:00,UTC,1,1015.1,-1,79,0,-1,16,12.4,33300,146,5.9,3
2013,8,17,08:00,UTC,7,1014.7,-1,69,0,-1,16.6,10.9,42560,168,8.1,3.9
2013,8,17,09:00,UTC,7,1014.4,-1,72,0,-1,16,11.1,46130,156,6.6,2.9
2013,8,17,10:00,UTC,7,1013.6,-1,71,0,-1,16.9,11.7,38220,150,8.1,3.6
2013,8,17,11:00,UTC,5,1013.1,-1,72,0,-1,17.7,12.5,29150,158,9.9,4.5
2013,8,17,12:00,UTC,7,1012.9,-1,85,0,-1,16.4,13.9,11650,162,6.7,3.2
2013,8,17,13:00,UTC,7,1012.4,1.5,95,1.4,-1,14.9,14.2,7470,150,9.9,4.6
2013,8,17,14:00,UTC,7,1011.9,1.4,97,3.1,-1,14.7,14.3,5430,156,7.6,3.3
2013,8,17,15:00,UTC,7,1011.7,1.1,98,1.4,-1,15,14.6,4580,163,6,3.2
2013,8,17,16:00,UTC,7,1011.6,0.4,98,0,-1,15.6,15.2,16920,171,3.9,1.7
2013,8,17,17:00,UTC,7,1011.6,-1,97,0,-1,15.8,15.4,17580,171,4.7,2.4
2013,8,17,18:00,UTC,7,1011.7,-1,97,0,-1,15.9,15.5,11210,172,4.9,2
2013,8,17,19:00,UTC,7,1012,-1,98,0,-1,16,15.6,14640,168,4.5,2.1
2013,8,17,20:00,UTC,7,1012.1,-1,96,0,-1,16,15.4,34760,192,6.2,2.5
2013,8,17,21:00,UTC,7,1012.3,-1,96,0,-1,15.9,15.4,24320,179,4.3,2.3
2013,8,17,22:00,UTC,7,1012.3,-1,96,0,-1,15.9,15.2,11290,186,5.3,2.3
2013,8,17,23:00,UTC,7,1012.4,-1,96,0,-1,15.6,14.9,12290,185,4.9,2.3
2013,8,18,00:00,UTC,7,1012.5,0.3,97,0,-1,15.2,14.8,8830,162,3.5,1.7
2013,8,18,01:00,UTC,7,1012.4,-1,97,0,-1,15.3,14.8,8640,158,3.9,1.6
2013,8,18,02:00,UTC,7,1012.4,-1,97,0,-1,14.9,14.5,9010,158,4.4,1.8
2013,8,18,03:00,UTC,7,1012.6,-1,96,0,-1,14.8,14.2,10720,167,3.9,1.9
2013,8,18,04:00,UTC,7,1012.8,-1,97,0,-1,14.6,14.1,9290,163,3.7,1.8
2013,8,18,05:00,UTC,7,1012.7,-1,96,0,-1,14.8,14.1,12590,164,2.9,1.5
2013,8,18,06:00,UTC,7,1012.4,-1,94,0,-1,15.5,14.4,16380,164,4.6,2
2013,8,18,07:00,UTC,7,1012.5,0.4,96,0,-1,15.3,14.6,13560,155,4.3,2
2013,8,18,08:00,UTC,7,1012.3,-1,95,0,-1,15.9,15,16410,144,4.5,1.8
2013,8,18,09:00,UTC,7,1012.1,-1,91,0,-1,16.6,15.1,21670,149,5.1,2.5
2013,8,18,10:00,UTC,7,1011.7,-1,83,0,-1,18.6,15.6,32780,165,5.2,2.3
2013,8,18,11:00,UTC,7,1011.5,-1,76,0,-1,19.7,15.3,36700,185,8.2,2.9
2013,8,18,12:00,UTC,7,1011.6,-1,76,0,-1,19.7,15.4,31650,156,4.8,2.2
2013,8,18,13:00,UTC,3,1011.3,-1,76,0,-1,20.5,16.1,39330,173,5.5,2.1
2013,8,18,14:00,UTC,3,1011,-1,72,0,-1,20.8,15.5,37290,175,6.2,2.8
2013,8,18,15:00,UTC,0,1010.9,-1,70,0,-1,20.9,15.3,31080,169,6.6,2.5
2013,8,18,16:00,UTC,0,1010.7,-1,70,0,-1,21,15.3,34490,169,5.9,3.1
2013,8,18,17:00,UTC,3,1010.6,-1,73,0,-1,20,15,31630,160,5.6,2.6
2013,8,18,18:00,UTC,0,1010.7,-1,79,0,-1,18.5,14.8,28650,167,4.6,2.2
2013,8,18,19:00,UTC,3,1010.8,-1,76,0,-1,18.2,13.8,43520,165,4.8,2.3
2013,8,18,20:00,UTC,3,1010.8,-1,77,0,-1,17.5,13.5,38630,171,5.2,2.3
2013,8,18,21:00,UTC,1,1010.9,-1,94,0,-1,14.1,13.1,15100,142,2.1,1.1
2013,8,18,22:00,UTC,7,1010.7,-1,94,0,-1,14.4,13.5,16420,140,2.5,1.4
2013,8,18,23:00,UTC,7,1010.2,-1,87,0,-1,15.2,13,34100,143,3.6,2
2013,8,19,00:00,UTC,7,1009.8,-1,84,0,-1,15.7,12.9,42120,144,3.8,2
2013,8,19,01:00,UTC,7,1009.3,-1,83,0,-1,16,13.1,44120,141,4.6,2.4
2013,8,19,02:00,UTC,7,1008.8,-1,79,0,-1,16.6,12.9,48530,150,5.7,2.4
2013,8,19,03:00,UTC,8,1008.6,-1,80,0,-1,16.6,13.1,48340,155,4.2,1.9
2013,8,19,04:00,UTC,7,1008.7,-1,83,0,-1,16.4,13.4,39330,166,2.9,1.5
2013,8,19,05:00,UTC,7,1008.6,-1,84,0,-1,16.5,13.9,28580,148,4.9,1.9
2013,8,19,06:00,UTC,7,1008.5,-1,85,0,-1,17,14.4,28400,146,3.3,1.9
2013,8,19,07:00,UTC,7,1008.5,3,96,8,-1,15.5,14.9,3400,157,4.2,2.3
2013,8,19,08:00,UTC,7,1008.5,0.9,97,0,-1,16,15.6,10490,155,4.7,2.6
2013,8,19,09:00,UTC,7,1008.6,0.4,97,0,-1,16.3,15.8,8590,151,6.1,2.9
2013,8,19,10:00,UTC,8,1008.7,0.4,97,0.2,-1,16.2,15.7,9730,160,5.7,2.4
2013,8,19,11:00,UTC,7,1008.9,0.1,95,0,-1,17,16.2,19520,161,5.5,2.6
2013,8,19,12:00,UTC,7,1008.5,-1,89,0,-1,18.3,16.5,27060,178,6.3,2.6
2013,8,19,13:00,UTC,1,1008.5,-1,81,0,-1,19.4,16.1,28150,162,7.5,4
2013,8,19,14:00,UTC,5,1008.9,-1,75,0,-1,20.1,15.5,37370,213,6,2.3
2013,8,19,15:00,UTC,3,1009.6,-1,66,0,-1,19.9,13.5,40960,230,6,2.5
2013,8,19,16:00,UTC,0,1010.3,-1,58,0,-1,19.3,10.9,46620,237,4.9,1.8
2013,8,19,17:00,UTC,0,1011,-1,68,0,-1,17.4,11.4,41430,231,2.8,1.3
2013,8,19,18:00,UTC,0,1012.1,-1,72,0,-1,15.9,10.9,39370,255,3.6,1.6
2013,8,19,19:00,UTC,0,1013,-1,92,0,-1,12.2,11,26160,258,1.4,0.8
2013,8,19,20:00,UTC,0,1013.6,-1,93,0,-1,11.2,10.2,31540,244,2.7,1
2013,8,19,21:00,UTC,0,1014.4,-1,96,0,-1,10.2,9.6,22720,163,1.3,0.9
2013,8,19,22:00,UTC,0,1015,-1,98,0,-1,10,9.7,15020,180,1.8,1.3
2013,8,19,23:00,UTC,0,1015.5,-1,98,0,-1,8.9,8.6,18400,169,2.4,1.8
2013,8,20,00:00,UTC,0,1015.7,-1,98,0,-1,8.4,8.1,15080,164,1.8,1.3
2013,8,20,01:00,UTC,0,1016.2,-1,99,0,-1,7.9,7.7,14040,176,3.2,2
2013,8,20,02:00,UTC,0,1016.6,-1,99,0,-1,7,6.8,1090,168,1.9,1.1
2013,8,20,03:00,UTC,0,1017.1,-1,99,0,-1,6.7,6.5,21480,140,1.2,0.8
2013,8,20,04:00,UTC,0,1017.4,-1,99,0,-1,7.8,7.7,9370,128,1.8,1.5
2013,8,20,05:00,UTC,0,1017.3,-1,97,0,-1,11.9,11.5,15870,134,1.9,1.1
2013,8,20,06:00,UTC,0,1017.4,-1,83,0,-1,15.4,12.5,24400,155,2.8,1.1
2013,8,20,07:00,UTC,0,1017.4,-1,78,0,-1,17.2,13.4,28720,179,3.6,1.6
2013,8,20,08:00,UTC,0,1017.4,-1,73,0,-1,18.6,13.6,32640,167,5.2,2.2
2013,8,20,09:00,UTC,1,1017.6,-1,63,0,-1,19.9,12.7,31270,241,5.2,2.3
2013,8,20,10:00,UTC,1,1017.7,-1,60,0,-1,20.5,12.5,30090,216,5,2.5
2013,8,20,11:00,UTC,3,1017.9,-1,57,0,-1,20.4,11.5,36050,230,4.5,2.3
2013,8,20,12:00,UTC,0,1017.6,-1,48,0,-1,21.4,9.8,37550,220,5.3,2.5
2013,8,20,13:00,UTC,1,1017.8,-1,54,0,-1,21.5,11.8,41880,204,4.7,2.3
2013,8,20,14:00,UTC,1,1017.6,-1,49,0,-1,21.3,10.3,31820,184,5.2,2.8
2013,8,20,15:00,UTC,1,1017.7,-1,63,0,-1,20,12.6,37160,189,4.8,1.8
2013,8,20,16:00,UTC,0,1017.7,-1,70,0,-1,18.8,13.2,48620,166,3.3,1.5
2013,8,20,17:00,UTC,0,1017.7,-1,76,0,-1,17.5,13.2,44020,169,2.1,0.8
2013,8,20,18:00,UTC,0,1018.2,-1,88,0,-1,14.9,12.9,43840,140,1.6,1.1
2013,8,20,19:00,UTC,0,1018.2,-1,95,0,-1,13.2,12.4,31910,0,0.4,0
2013,8,20,20:00,UTC,0,1018.1,-1,97,0,-1,11.8,11.4,1440,0,0.5,0
2013,8,20,21:00,UTC,1,1018.1,-1,98,0,-1,11.3,11.1,12000,0,0.7,0
2013,8,20,22:00,UTC,7,1018.2,-1,99,0,-1,9.9,9.7,26800,303,1.2,0.9
2013,8,20,23:00,UTC,7,1018.3,-1,99,0,-1,9.4,9.3,7200,306,1.3,1
2013,8,21,00:00,UTC,7,1018.2,-1,99,0,-1,9.2,9,4010,316,0.8,0.6
2013,8,21,01:00,UTC,7,1018.2,-1,99,0,-1,8.9,8.8,19650,0,0.3,0
2013,8,21,02:00,UTC,7,1018.1,-1,99,0,-1,9.3,9.2,8140,0,0.5,0
2013,8,21,03:00,UTC,7,1017.8,-1,99,0,-1,9.1,9,8780,272,0.9,0.6
2013,8,21,04:00,UTC,1,1017.9,-1,99,0,-1,8.9,8.7,8730,0,0.5,0
2013,8,21,05:00,UTC,7,1017.7,-1,99,0,-1,11.5,11.4,31680,301,2.1,1.6
2013,8,21,06:00,UTC,1,1017.5,-1,80,0,-1,15.4,12,36500,301,3.7,2.4
2013,8,21,07:00,UTC,0,1017.2,-1,77,0,-1,16,12,29240,303,3,1.8
2013,8,21,08:00,UTC,0,1017,-1,60,0,-1,18.5,10.6,35890,276,2.6,1.1
2013,8,21,09:00,UTC,1,1016.9,-1,59,0,-1,18.1,9.9,30010,201,4.9,2.6
2013,8,21,10:00,UTC,1,1016.7,-1,45,0,-1,19.1,6.8,31860,208,4.7,2.4
2013,8,21,11:00,UTC,0,1016.5,-1,53,0,-1,19.9,10.1,31990,223,4.9,1.5
2013,8,21,12:00,UTC,1,1016.7,-1,52,0,-1,19.6,9.4,33510,254,4.3,2.2
2013,8,21,13:00,UTC,3,1016.5,-1,51,0,-1,19.8,9.3,34270,292,3.5,2
2013,8,21,14:00,UTC,1,1016.3,-1,47,0,-1,20.6,8.8,38650,236,4.7,2.3
2013,8,21,15:00,UTC,1,1016.2,-1,50,0,-1,20.2,9.3,41800,222,3.3,1.8
2013,8,21,16:00,UTC,0,1016.1,-1,62,0,-1,19.4,12,50000,202,2.3,1.2
2013,8,21,17:00,UTC,1,1016,-1,77,0,-1,16.6,12.5,40040,174,1.6,1.1
2013,8,21,18:00,UTC,1,1015.8,-1,86,0,-1,14.8,12.4,47370,164,2,1.1
2013,8,21,19:00,UTC,3,1015.9,-1,94,0,-1,13.2,12.3,35820,149,1.3,0.9
2013,8,21,20:00,UTC,7,1015.8,-1,97,0,-1,12.4,11.9,18940,148,1.1,1
2013,8,21,21:00,UTC,7,1015.8,-1,98,0,-1,12.1,11.7,19830,215,2.3,0.8
2013,8,21,22:00,UTC,7,1015.6,-1,84,0,-1,14.6,11.9,50000,271,3.6,1.8
2013,8,21,23:00,UTC,7,1015.7,-1,84,0,-1,14.3,11.7,50000,261,3.8,1.6
2013,8,22,00:00,UTC,7,1015.8,-1,95,0,-1,12.4,11.6,47840,244,1.7,0.8
2013,8,22,01:00,UTC,7,1015.8,-1,95,0,-1,12.8,12,50000,259,2.5,1
2013,8,22,02:00,UTC,7,1015.9,-1,96,0,-1,12,11.4,48480,0,1.4,0
2013,8,22,03:00,UTC,7,1015.5,-1,93,0,-1,12.8,11.6,50000,291,2.2,1.1
2013,8,22,04:00,UTC,8,1015.1,-1,94,0,-1,12.8,12,31040,306,3.3,2.4
2013,8,22,05:00,UTC,7,1015.2,-1,95,0,-1,13.4,12.6,42560,0,1,0
2013,8,22,06:00,UTC,7,1015.3,-1,91,0,-1,13.8,12.3,50000,299,3.1,2
2013,8,22,07:00,UTC,7,1015.5,-1,81,0,-1,15.1,12,37120,291,3.2,1.7
2013,8,22,08:00,UTC,7,1015.7,-1,75,0,-1,15.4,11,42140,269,2.8,1.7
2013,8,22,09:00,UTC,7,1015.6,-1,63,0,-1,16.2,9.2,41370,292,3.8,2.4
2013,8,22,10:00,UTC,3,1015.7,-1,66,0,-1,17.1,10.8,34150,291,5.5,2.4
2013,8,22,11:00,UTC,1,1015.8,-1,55,0,-1,18,8.8,34290,304,7.8,4.7
2013,8,22,12:00,UTC,1,1016,-1,51,0,-1,17.5,7.2,44610,306,9.5,6
2013,8,22,13:00,UTC,1,1016.5,-1,48,0,-1,17.9,6.8,42860,327,8.8,6.1
2013,8,22,14:00,UTC,1,1016.8,-1,53,0,-1,16.2,6.6,50000,328,9.4,7
2013,8,22,15:00,UTC,1,1016.9,-1,48,0,-1,17.1,6.1,40160,309,10.4,6
2013,8,22,16:00,UTC,0,1017.3,-1,48,0,-1,16.1,5.2,50000,312,8.8,5.3
2013,8,22,17:00,UTC,0,1018.1,-1,54,0,-1,14.2,4.9,50000,309,8.3,6.1
2013,8,22,18:00,UTC,0,1018.9,-1,67,0,-1,11.6,5.6,50000,307,6,4.4
2013,8,22,19:00,UTC,0,1019.6,-1,71,0,-1,11,5.8,50000,296,4.4,3.2
2013,8,22,20:00,UTC,0,1020.4,-1,83,0,-1,6.7,4,50000,299,3.7,2.3
2013,8,22,21:00,UTC,0,1021,-1,90,0,-1,6.7,5.2,50000,340,1.6,1.3
2013,8,22,22:00,UTC,0,1021.1,-1,90,0,-1,6.9,5.5,50000,297,3.6,2.6
2013,8,22,23:00,UTC,0,1021.3,-1,95,0,-1,5.3,4.5,50000,294,2.3,1.8
2013,8,23,00:00,UTC,0,1021.4,-1,94,0,-1,6.3,5.4,50000,319,1.3,0.9
2013,8,23,01:00,UTC,0,1021.7,-1,97,0,-1,5.6,5.1,50000,303,1.3,1.1
2013,8,23,02:00,UTC,0,1022,-1,91,0,-1,4.5,3.2,50000,294,3,2.3
2013,8,23,03:00,UTC,0,1022.2,-1,96,0,-1,6.8,6.1,50000,290,3.6,2.6
2013,8,23,04:00,UTC,0,1022.5,-1,91,0,-1,7.9,6.5,48070,296,3.1,2.4
2013,8,23,05:00,UTC,0,1022.7,-1,86,0,-1,9.8,7.6,38350,299,2.6,2.1
2013,8,23,06:00,UTC,0,1022.8,-1,81,0,-1,12.4,9.2,44590,343,3.1,1.7
2013,8,23,07:00,UTC,0,1023,-1,66,0,-1,14.2,7.8,36920,352,4.7,2.8
2013,8,23,08:00,UTC,0,1023,-1,55,0,-1,15.3,6.4,37620,348,5.2,2.6
2013,8,23,09:00,UTC,1,1022.9,-1,47,0,-1,15.6,4.4,44330,305,7.8,4.8
2013,8,23,10:00,UTC,1,1022.8,-1,47,0,-1,15.9,4.6,36470,317,8.4,5.5
2013,8,23,11:00,UTC,3,1022.8,-1,49,0,-1,17,6.3,45100,309,8.9,6
2013,8,23,12:00,UTC,1,1022.8,-1,45,0,-1,17.1,4.9,43890,328,7.9,4.7
2013,8,23,13:00,UTC,1,1023,-1,42,0,-1,16.9,4,48170,336,8.8,6.4
2013,8,23,14:00,UTC,0,1023.1,-1,41,0,-1,16.6,3.3,36950,333,8.8,6.4
2013,8,23,15:00,UTC,0,1023.2,-1,43,0,-1,16.2,3.7,47570,343,7.9,5.5
2013,8,23,16:00,UTC,0,1023.3,-1,50,0,-1,15.3,4.8,50000,331,6,4.6
2013,8,23,17:00,UTC,0,1023.8,-1,66,0,-1,12.4,6.2,50000,332,3.5,2.9
2013,8,23,18:00,UTC,0,1024.3,-1,73,0,-1,11,6.4,50000,304,3.1,2.2
2013,8,23,19:00,UTC,0,1024.9,-1,92,0,-1,7.4,6.2,50000,306,2.1,1.8
2013,8,23,20:00,UTC,0,1025.2,-1,93,0,-1,7.1,5.9,50000,304,2.4,2
2013,8,23,21:00,UTC,0,1025.3,-1,89,0,-1,8,6.2,50000,322,2,1.8
2013,8,23,22:00,UTC,0,1025.9,-1,91,0,-1,5,3.7,42210,297,2.2,1.6
2013,8,23,23:00,UTC,0,1026.1,-1,97,0,-1,4.6,4.3,41920,301,1.7,1.4
2013,8,24,00:00,UTC,0,1026.2,-1,98,0,-1,5.3,4.9,48140,316,1.8,1.6
2013,8,24,01:00,UTC,0,1026.6,-1,98,0,-1,3.6,3.3,50000,294,1.9,1.5
2013,8,24,02:00,UTC,0,1026.8,-1,98,0,-1,4.1,3.9,35890,320,2.2,2
2013,8,24,03:00,UTC,0,1026.9,-1,98,0,-1,3.1,2.9,50000,310,1.7,1.6
2013,8,24,04:00,UTC,0,1026.8,-1,99,0,-1,5.5,5.3,40060,282,1.6,1.1
2013,8,24,05:00,UTC,1,1026.8,-1,93,0,-1,9.1,7.9,44490,333,1.8,1.3
2013,8,24,06:00,UTC,0,1026.4,-1,81,0,-1,11.8,8.8,37700,339,1.7,0.9
2013,8,24,07:00,UTC,0,1026.3,-1,69,0,-1,13.2,7.7,32570,358,2.5,1.5
2013,8,24,08:00,UTC,0,1026.1,-1,60,0,-1,14.5,6.8,33180,310,2.8,1.3
2013,8,24,09:00,UTC,0,1025.9,-1,56,0,-1,15.4,6.7,33880,358,3.1,1.7
2013,8,24,10:00,UTC,1,1025.8,-1,52,0,-1,16,6.1,43150,57,3.9,1.3
2013,8,24,11:00,UTC,1,1025.5,-1,55,0,-1,16.4,7.3,34010,42,3.9,2.4
2013,8,24,12:00,UTC,1,1025,-1,46,0,-1,17,5.2,35330,322,4.8,3.2
2013,8,24,13:00,UTC,0,1024.7,-1,51,0,-1,17.4,7.3,33540,11,3.9,2
2013,8,24,14:00,UTC,0,1024.2,-1,48,0,-1,17.9,6.7,48260,334,3.7,1.9
2013,8,24,15:00,UTC,0,1023.9,-1,51,0,-1,17.3,6.9,40940,346,4.3,2.9
2013,8,24,16:00,UTC,0,1023.6,-1,52,0,-1,16.8,7,50000,336,3,2.4
2013,8,24,17:00,UTC,0,1023.6,-1,73,0,-1,13.6,8.9,50000,290,1.6,1.1
2013,8,24,18:00,UTC,1,1023.7,-1,85,0,-1,11.1,8.6,50000,0,0.6,0
2013,8,24,19:00,UTC,0,1023.8,-1,95,0,-1,9,8.2,50000,0,0.5,0
2013,8,24,20:00,UTC,0,1023.8,-1,97,0,-1,7.6,7.2,50000,0,0.7,0
2013,8,24,21:00,UTC,0,1024,-1,98,0,-1,7.2,7,27460,307,1.2,0.7
2013,8,24,22:00,UTC,0,1024.3,-1,99,0,-1,6,5.8,1510,0,0.3,0
2013,8,24,23:00,UTC,0,1024.3,-1,99,0,-1,5.8,5.6,9450,0,0.7,0
2013,8,25,00:00,UTC,0,1024.3,-1,99,0,-1,4.6,4.4,37510,314,1.2,1
2013,8,25,01:00,UTC,0,1024.5,-1,99,0,-1,4.1,3.9,2760,0,0.6,0
2013,8,25,02:00,UTC,0,1024.6,-1,99,0,-1,3.4,3.2,18930,294,1.1,0.7
2013,8,25,03:00,UTC,0,1024.7,-1,99,0,-1,3.9,3.7,40360,326,1.1,0.8
2013,8,25,04:00,UTC,0,1024.5,-1,99,0,-1,5.5,5.4,47970,0,0.5,0
2013,8,25,05:00,UTC,0,1024.3,-1,92,0,-1,9.2,7.9,50000,323,1.3,0.8
2013,8,25,06:00,UTC,0,1023.9,-1,79,0,-1,13.2,9.6,46310,295,3.7,2.9
2013,8,25,07:00,UTC,0,1023.7,-1,58,0,-1,15.8,7.6,39480,299,4.4,2.8
2013,8,25,08:00,UTC,0,1023.7,-1,54,0,-1,17,7.5,46790,277,4.1,2.2
2013,8,25,09:00,UTC,0,1023.4,-1,48,0,-1,18.2,7.1,41990,327,4.5,2.8
2013,8,25,10:00,UTC,0,1023.1,-1,45,0,-1,19.4,7.1,38670,271,4.2,1.9
2013,8,25,11:00,UTC,0,1023,-1,45,0,-1,20.1,7.7,36510,320,4.6,2.9
2013,8,25,12:00,UTC,0,1022.7,-1,45,0,-1,21.2,9,39350,294,5.2,2.7
2013,8,25,13:00,UTC,0,1022.5,-1,48,0,-1,21.1,9.6,44520,4,4.6,2.5
2013,8,25,14:00,UTC,0,1022.5,-1,48,0,-1,20.7,9.3,37250,348,,
2013,8,25,15:00,UTC,1,1022.4,-1,49,0,-1,21,9.7,42280,37,3.3,1.5
2013,8,25,16:00,UTC,0,1022.3,-1,65,0,-1,18.7,11.9,50000,317,1.7,0.9
2013,8,25,17:00,UTC,0,1022.4,-1,71,0,-1,17.3,12,49790,249,1,0.7
2013,8,25,18:00,UTC,0,1022.6,-1,90,0,-1,14.5,12.8,49890,0,0.8,0
2013,8,25,19:00,UTC,0,1022.8,-1,96,0,-1,11.8,11.1,37990,0,0.5,0
2013,8,25,20:00,UTC,0,1022.9,-1,98,0,-1,11.2,10.9,9310,0,0.8,0
2013,8,25,21:00,UTC,0,1023,-1,99,0,-1,10.3,10.1,990,0,0.8,0
2013,8,25,22:00,UTC,0,1023.5,-1,99,0,-1,9.6,9.5,9720,0,0.8,0
2013,8,25,23:00,UTC,1,1023.5,-1,99,0,-1,9.4,9.2,5100,274,1.2,0.8
2013,8,26,00:00,UTC,1,1023.4,-1,99,0,-1,9.3,9.1,29910,284,1.8,1.3
2013,8,26,01:00,UTC,1,1023.3,-1,99,0,-1,8.9,8.7,25210,305,2.3,1.9
2013,8,26,02:00,UTC,3,1023.4,-1,99,0,-1,9.2,9,25930,336,1.3,1
2013,8,26,03:00,UTC,0,1023.5,-1,99,0,-1,9.2,9.1,8250,288,1.7,1.3
2013,8,26,04:00,UTC,0,1023.5,-1,99,0,-1,10.1,10,17420,300,1.6,1.2
2013,8,26,05:00,UTC,0,1023.4,-1,94,0,-1,13.1,12.1,33210,304,2.5,2
2013,8,26,06:00,UTC,0,1023.1,-1,84,0,-1,16,13.2,50000,294,2.4,1.5
2013,8,26,07:00,UTC,0,1023,-1,74,0,-1,18,13.2,38390,306,3.1,1.8
2013,8,26,08:00,UTC,0,1022.9,-1,60,0,-1,19.4,11.4,34470,324,3.9,2.9
2013,8,26,09:00,UTC,0,1022.8,-1,57,0,-1,19.7,10.8,32750,303,4.2,2.6
2013,8,26,10:00,UTC,0,1022.5,-1,57,0,-1,20.2,11.3,37150,245,3.2,1.9
2013,8,26,11:00,UTC,0,1022.3,-1,45,0,-1,21.5,9.2,40810,243,4.6,2.5
2013,8,26,12:00,UTC,0,1022,-1,50,0,-1,21,10.1,45220,240,3.4,1.9
2013,8,26,13:00,UTC,0,1021.4,-1,44,0,-1,21.9,9.1,41850,225,4.4,2.2
2013,8,26,14:00,UTC,0,1021.2,-1,44,0,-1,22,9.3,40000,247,3.3,1.5
2013,8,26,15:00,UTC,0,1021.1,-1,46,0,-1,21.7,9.6,36300,229,4.3,2
2013,8,26,16:00,UTC,0,1021.1,-1,49,0,-1,20,9,50000,222,2.9,1.7
2013,8,26,17:00,UTC,0,1021.2,-1,67,0,-1,16.5,10.4,50000,210,1.9,1.1
2013,8,26,18:00,UTC,0,1021.2,-1,68,0,-1,15.2,9.3,50000,228,3,1.7
2013,8,26,19:00,UTC,0,1021.6,-1,88,0,-1,11.4,9.5,50000,0,1,0
2013,8,26,20:00,UTC,0,1021.5,-1,94,0,-1,10,9.1,45570,0,0.5,0
2013,8,26,21:00,UTC,0,1021.7,-1,97,0,-1,9,8.5,50000,71,0.7,0.6
2013,8,26,22:00,UTC,0,1022,-1,97,0,-1,8.4,7.9,32630,0,0.7,0
2013,8,26,23:00,UTC,0,1022.1,-1,98,0,-1,7.9,7.6,41790,147,1.4,1
2013,8,27,00:00,UTC,0,1022.1,-1,98,0,-1,6.9,6.7,16850,129,1,0.7
2013,8,27,01:00,UTC,0,1022,-1,98,0,-1,5.8,5.6,1070,0,0.8,0
2013,8,27,02:00,UTC,0,1021.9,-1,98,0,-1,4.8,4.6,18850,180,2.3,1.6
2013,8,27,03:00,UTC,0,1021.7,-1,99,0,-1,5.4,5.2,22720,149,1.2,0.9
2013,8,27,04:00,UTC,3,1021.7,-1,99,0,-1,5.6,5.4,39950,156,2.2,1.7
2013,8,27,05:00,UTC,0,1021.2,-1,93,0,-1,10.1,9.1,35460,134,1.4,1
2013,8,27,06:00,UTC,0,1021,-1,80,0,-1,13.5,10.1,43990,127,2.8,1.8
2013,8,27,07:00,UTC,0,1020.3,-1,60,0,-1,17.8,9.9,41550,216,3.8,2.1
2013,8,27,08:00,UTC,0,1019.9,-1,52,0,-1,19.4,9.2,33610,219,5.1,2.5
2013,8,27,09:00,UTC,0,1019.7,-1,47,0,-1,21.1,9.4,34220,235,5.9,2.5
2013,8,27,10:00,UTC,0,1019.5,-1,51,0,-1,20.7,10,39100,218,6.4,3.3
2013,8,27,11:00,UTC,0,1019.2,-1,42,0,-1,22.1,8.6,40270,221,6.7,2.5
2013,8,27,12:00,UTC,0,1018.7,-1,43,0,-1,22.2,9.2,43040,229,7.5,3.1
2013,8,27,13:00,UTC,1,1018.2,-1,46,0,-1,22.5,10.3,39940,199,5.1,2.3
2013,8,27,14:00,UTC,0,1018,-1,42,0,-1,22,8.6,44380,210,6.7,3
2013,8,27,15:00,UTC,0,1017.7,-1,46,0,-1,21.6,9.4,42700,220,5.5,2.5
2013,8,27,16:00,UTC,0,1017.5,-1,55,0,-1,20.2,10.8,50000,198,3.3,1.8
2013,8,27,17:00,UTC,0,1017.4,-1,72,0,-1,16.8,11.8,50000,169,2.2,1.2
2013,8,27,18:00,UTC,0,1017.5,-1,81,0,-1,15,11.8,50000,167,2.9,1.4
2013,8,27,19:00,UTC,0,1017.6,-1,89,0,-1,13.3,11.5,50000,184,2.4,1.3
2013,8,27,20:00,UTC,0,1017.6,-1,92,0,-1,12.3,11,50000,183,2.4,1.3
2013,8,27,21:00,UTC,0,1017.9,-1,93,0,-1,10.8,9.7,48460,197,1.8,1.1
2013,8,27,22:00,UTC,0,1018,-1,97,0,-1,9.1,8.7,2210,186,2.3,1.3
2013,8,27,23:00,UTC,0,1017.8,-1,98,0,-1,8.4,8.1,35140,144,1.8,1.6
2013,8,28,00:00,UTC,0,1017.4,-1,98,0,-1,8.6,8.3,15610,152,1.8,1.5
2013,8,28,01:00,UTC,0,1017,-1,99,0,-1,7.9,7.7,9840,130,1.9,1.5
2013,8,28,02:00,UTC,0,1016.5,-1,99,0,-1,7.3,7.1,4290,127,1.5,1.2
2013,8,28,03:00,UTC,0,1016.1,-1,99,0,-1,7.1,6.9,6720,159,1.9,1.1
2013,8,28,04:00,UTC,0,1015.9,-1,99,0,-1,9.6,9.5,9870,143,1.8,1.1
2013,8,28,05:00,UTC,0,1015.6,-1,91,0,-1,12.2,10.8,36960,116,2.4,1.4
2013,8,28,06:00,UTC,0,1015.3,-1,83,0,-1,13.8,10.8,34760,197,5.4,2.8
2013,8,28,07:00,UTC,1,1015.2,-1,80,0,-1,14.6,11.2,39160,212,6.8,3.5
2013,8,28,08:00,UTC,1,1014.8,-1,76,0,-1,16,11.8,35990,181,8.1,4.3
2013,8,28,09:00,UTC,0,1014.1,-1,68,0,-1,18.2,12.2,30290,189,7.1,3.5
2013,8,28,10:00,UTC,1,1013.4,-1,60,0,-1,19.3,11.2,42690,200,9.4,5.1
2013,8,28,11:00,UTC,1,1013.1,-1,53,0,-1,20.8,10.8,36280,208,9.4,5
2013,8,28,12:00,UTC,3,1012.7,-1,56,0,-1,21.2,12,35240,203,9.2,4.8
2013,8,28,13:00,UTC,5,1012.2,-1,54,0,-1,21.8,12.2,37030,207,5.7,2.3
2013,8,28,14:00,UTC,3,1011.9,-1,49,0,-1,21.9,10.6,32430,218,8.1,3.4
2013,8,28,15:00,UTC,3,1011.6,-1,50,0,-1,21,10.3,45640,222,5.7,2.9
2013,8,28,16:00,UTC,1,1011.5,-1,54,0,-1,20.2,10.6,50000,202,4.3,1.8
2013,8,28,17:00,UTC,1,1011.6,-1,52,0,-1,19.3,9,50000,246,5.8,2.1
2013,8,28,18:00,UTC,0,1012.2,-1,63,0,-1,16,8.9,50000,259,2.8,1.1
2013,8,28,19:00,UTC,0,1012.7,-1,73,0,-1,15.4,10.5,50000,288,4.4,2.5
2013,8,28,20:00,UTC,1,1012.9,-1,79,0,-1,14.5,10.8,50000,287,5.2,3.3
2013,8,28,21:00,UTC,1,1013.1,-1,86,0,-1,13,10.7,50000,301,4.4,2.9
2013,8,28,22:00,UTC,7,1013.5,-1,86,0,-1,13.2,10.9,50000,284,3.4,2.1
2013,8,28,23:00,UTC,7,1013.6,-1,86,0,-1,12.8,10.6,50000,299,4.2,3
2013,8,29,00:00,UTC,1,1013.8,-1,89,0,-1,11.6,9.8,50000,291,4,2.5
2013,8,29,01:00,UTC,0,1014.2,-1,93,0,-1,8.4,7.4,47340,302,2.8,2
2013,8,29,02:00,UTC,0,1014.3,-1,97,0,-1,8.9,8.4,37410,315,2.9,2.4
2013,8,29,03:00,UTC,0,1014.5,-1,98,0,-1,8,7.6,24820,307,2.5,2.2
2013,8,29,04:00,UTC,0,1014.6,-1,98,0,-1,8,7.8,40980,306,2.8,2.3
2013,8,29,05:00,UTC,0,1014.7,-1,90,0,-1,10.4,8.8,36000,299,3,2.3
2013,8,29,06:00,UTC,0,1014.7,-1,81,0,-1,12.7,9.5,39420,309,2.2,1.2
2013,8,29,07:00,UTC,0,1014.8,-1,70,0,-1,14.5,9.2,39940,246,2.5,1.1
2013,8,29,08:00,UTC,0,1014.9,-1,58,0,-1,15.7,7.5,31570,292,5.4,3.2
2013,8,29,09:00,UTC,1,1014.6,-1,41,0,-1,16.8,3.5,40690,275,5.1,2.7
2013,8,29,10:00,UTC,1,1014.8,-1,44,0,-1,16.1,4,37880,290,6.4,4
2013,8,29,11:00,UTC,1,1014.8,-1,45,0,-1,16.7,4.8,42890,247,5.7,3
2013,8,29,12:00,UTC,3,1014.7,-1,44,0,-1,16.4,3.9,40820,288,5.9,3.7
2013,8,29,13:00,UTC,5,1014.6,-1,46,0,-1,16.3,4.5,42580,294,5.7,3.5
2013,8,29,14:00,UTC,7,1014.4,-1,44,0,-1,16.3,4,41100,298,7.1,4.5
2013,8,29,15:00,UTC,3,1014.4,-1,41,0,-1,16.3,3,35530,268,6.3,2.9
2013,8,29,16:00,UTC,0,1014.4,-1,48,0,-1,15,4.2,49670,250,3.7,1.6
2013,8,29,17:00,UTC,0,1014.8,-1,66,0,-1,12.7,6.4,39260,281,3,1.4
2013,8,29,18:00,UTC,0,1015.2,-1,86,0,-1,9.1,6.9,41050,274,1.6,0.9
2013,8,29,19:00,UTC,0,1015.7,-1,90,0,-1,7.6,6.2,33650,258,2.2,0.9
2013,8,29,20:00,UTC,0,1015.7,-1,79,0,-1,9.4,6,38120,280,4.4,2.7
2013,8,29,21:00,UTC,0,1016.2,-1,82,0,-1,7.9,5.1,45020,294,3.4,2.4
2013,8,29,22:00,UTC,0,1016.4,-1,92,0,-1,6.1,5,34560,295,1.2,0.7
2013,8,29,23:00,UTC,5,1016.6,-1,97,0,-1,5.3,4.8,27660,0,0.5,0
2013,8,30,00:00,UTC,7,1016.8,-1,97,0,-1,4.3,3.9,34070,164,0.8,0.7
2013,8,30,01:00,UTC,7,1017,-1,98,0,-1,4.1,3.7,18460,103,1,0.7
2013,8,30,02:00,UTC,7,1016.9,-1,98,0,-1,4.9,4.6,32120,0,0.7,0
2013,8,30,03:00,UTC,7,1016.7,-1,98,0,-1,5.3,5,28370,300,1.2,0.9
2013,8,30,04:00,UTC,7,1016.8,-1,97,0,-1,5.4,5,25550,260,0.9,0.7
2013,8,30,05:00,UTC,1,1017,-1,96,0,-1,7.1,6.5,35630,0,1,0
2013,8,30,06:00,UTC,7,1017.2,-1,87,0,-1,10,7.9,24180,0,1.1,0
2013,8,30,07:00,UTC,7,1017.1,-1,70,0,-1,13,7.7,33470,318,3,1.3
2013,8,30,08:00,UTC,3,1017.1,-1,68,0,-1,13.8,8.1,28860,332,1.4,0.7
2013,8,30,09:00,UTC,3,1017.2,-1,60,0,-1,14.1,6.4,28320,305,4.5,3
2013,8,30,10:00,UTC,1,1017.2,-1,59,0,-1,15.3,7.3,33630,294,3.6,1.7
2013,8,30,11:00,UTC,1,1017.2,-1,51,0,-1,16,6,24900,283,4.6,1.5
2013,8,30,12:00,UTC,0,1017.3,-1,53,0,-1,15.4,5.7,39510,309,5.5,3.1
2013,8,30,13:00,UTC,5,1017.2,-1,52,0,-1,15.7,5.9,41520,6,3.2,2.1
2013,8,30,14:00,UTC,5,1017,-1,48,0,-1,16.2,5.1,46400,209,2.5,1.1
2013,8,30,15:00,UTC,8,1017.1,-1,58,0,-1,15.7,7.4,40290,291,2.7,1.8
2013,8,30,16:00,UTC,7,1017.1,-1,58,0,-1,15.6,7.3,43830,269,2.1,1.3
2013,8,30,17:00,UTC,8,1017.2,-1,68,0,-1,14.2,8.5,47130,264,1.6,1
2013,8,30,18:00,UTC,1,1017.6,-1,85,0,-1,11.6,9.2,42600,91,1.4,0.9
2013,8,30,19:00,UTC,0,1017.9,-1,96,0,-1,8.8,8.1,26400,0,0.6,0
2013,8,30,20:00,UTC,0,1018.2,-1,98,0,-1,6.9,6.5,1400,157,0.8,0.6
2013,8,30,21:00,UTC,0,1018.2,-1,99,0,-1,6.5,6.3,1750,0,0.8,0
2013,8,30,22:00,UTC,0,1018.3,-1,98,0,-1,4.2,3.9,18680,0,1,0
2013,8,30,23:00,UTC,0,1018.3,-1,99,0,-1,4.2,4,1450,321,0.8,0.6
2013,8,31,00:00,UTC,0,1018.2,-1,99,0,-1,3.5,3.3,26080,294,0.9,0.8
2013,8,31,01:00,UTC,3,1018,-1,99,0,-1,3.6,3.5,2070,320,1,0.9
2013,8,31,02:00,UTC,7,1017.9,-1,99,0,-1,3.1,3,650,305,0.9,0.8
2013,8,31,03:00,UTC,5,1017.6,-1,99,0,-1,2.5,2.3,480,302,1.4,1.3
2013,8,31,04:00,UTC,5,1017.4,-1,99,0,-1,2.9,2.8,2930,0,0.3,0
2013,8,31,05:00,UTC,0,1017,-1,99,0,-1,6.3,6.2,32610,0,0.7,0
2013,8,31,06:00,UTC,0,1016.5,-1,89,0,-1,10.7,9,34860,135,1.4,0.7
2013,8,31,07:00,UTC,0,1016.2,-1,75,0,-1,13.5,9.2,27500,144,2.2,1.3
2013,8,31,08:00,UTC,0,1015.9,-1,68,0,-1,15.3,9.5,33790,138,4,2.2
2013,8,31,09:00,UTC,0,1015.6,-1,63,0,-1,16.4,9.3,30460,150,5,2.7
2013,8,31,10:00,UTC,1,1015,-1,56,0,-1,17.3,8.5,31350,149,5.2,2.7
2013,8,31,11:00,UTC,1,1014.6,-1,52,0,-1,17.5,7.6,29880,141,4.4,2.5
2013,8,31,12:00,UTC,1,1014.1,-1,53,0,-1,18.3,8.6,34800,155,4.1,2.1
2013,8,31,13:00,UTC,0,1013.6,-1,54,0,-1,17.6,8.1,28840,112,4.3,2.7
2013,8,31,14:00,UTC,0,1013.2,-1,55,0,-1,17.1,7.9,43080,108,5.1,3.4
2013,8,31,15:00,UTC,1,1012.8,-1,59,0,-1,17,8.8,38870,126,3.6,2.2
2013,8,31,16:00,UTC,3,1012.7,-1,68,0,-1,15.3,9.6,45340,129,2.5,1.5
2013,8,31,17:00,UTC,1,1012.5,-1,82,0,-1,12.7,9.8,46390,124,1.6,1.1
2013,8,31,18:00,UTC,7,1012.5,-1,90,0,-1,11.3,9.7,45870,138,1.1,0.6
2013,8,31,19:00,UTC,8,1012.2,-1,90,0,-1,11.2,9.7,47250,0,0.9,0
2013,8,31,20:00,UTC,7,1012,-1,92,0,-1,10.8,9.5,48740,0,0.6,0
2013,8,31,21:00,UTC,3,1011.7,-1,97,0,-1,8.9,8.4,41140,311,1.1,0.9
2013,8,31,22:00,UTC,1,1011.4,-1,98,0,-1,7.9,7.7,22350,313,1.3,1
2013,8,31,23:00,UTC,0,1010.9,-1,99,0,-1,7,6.8,1680,322,1.3,1
2013,9,1,00:00,UTC,5,1010.6,-1,99,0,-1,5.9,5.7,24130,314,1,0.6
2013,9,1,01:00,UTC,5,1010,-1,97,0,-1,7.3,6.9,38100,312,1.3,0.9
2013,9,1,02:00,UTC,8,1009.2,-1,96,0,-1,8.1,7.5,50000,308,1.2,1
2013,9,1,03:00,UTC,7,1008.5,-1,97,0,-1,8.7,8.4,35270,0,1.2,0
2013,9,1,04:00,UTC,7,1008.1,-1,98,0,-1,8.4,8.2,16940,357,1.2,0.8
2013,9,1,05:00,UTC,1,1007.5,-1,96,0,-1,9.8,9.2,38050,86,2.1,0.8
2013,9,1,06:00,UTC,3,1006.9,-1,90,0,-1,11.5,9.8,40350,83,2.5,1.5
2013,9,1,07:00,UTC,7,1006.3,-1,85,0,-1,12.8,10.3,45390,114,3.1,2
2013,9,1,08:00,UTC,5,1005.5,-1,78,0,-1,14.9,11.2,36830,99,7,4.7
2013,9,1,09:00,UTC,7,1005.4,0.3,92,2,-1,12.7,11.3,6820,117,5.2,3.1
2013,9,1,10:00,UTC,8,1004.9,0.9,92,0.3,-1,12.8,11.6,26170,23,2.4,1.3
2013,9,1,11:00,UTC,7,1004.1,2.8,96,1,-1,13.3,12.7,18250,31,3.6,2.4
2013,9,1,12:00,UTC,7,1003.7,0.4,94,0.4,-1,14.2,13.2,21140,103,5.8,3.8
2013,9,1,13:00,UTC,7,1003.1,-1,93,0,-1,14,13,14980,116,6.2,4.1
2013,9,1,14:00,UTC,7,1002.6,0.1,94,0,-1,13.6,12.8,9030,111,7.8,4.4
2013,9,1,15:00,UTC,7,1001.9,0.1,96,0,-1,13.8,13.1,28620,117,4.1,2.8
2013,9,1,16:00,UTC,8,1001.3,-1,95,0,-1,13.8,13.1,21040,106,5.2,3.3
2013,9,1,17:00,UTC,7,1000.8,3,98,7.6,-1,13.4,13.1,4290,97,4.4,2.8
2013,9,1,18:00,UTC,7,1000.5,2,98,0,-1,13.3,12.9,23750,127,2.7,1.4
2013,9,1,19:00,UTC,7,1000.5,-1,99,0,-1,13.1,12.9,8710,158,2.9,1.1
2013,9,1,20:00,UTC,7,1000.8,0.6,97,3.9,-1,12.7,12.2,10430,253,6.2,2.5
2013,9,1,21:00,UTC,8,1001.3,-1,95,0,-1,11.4,10.7,50000,266,4.3,1.8
2013,9,1,22:00,UTC,5,1001.4,-1,96,0,-1,10.5,9.9,50000,247,2.6,1.2
2013,9,1,23:00,UTC,3,1001.7,-1,99,0,-1,8.7,8.5,1320,172,2.1,1.4
2013,9,2,00:00,UTC,0,1002,-1,99,0,-1,8.3,8.1,11850,203,2.7,1.3
2013,9,2,01:00,UTC,5,1002,-1,99,0,-1,7.6,7.5,6330,211,2.5,1.3
2013,9,2,02:00,UTC,5,1002.1,-1,99,0,-1,6.4,6.2,680,115,1.1,0.8
2013,9,2,03:00,UTC,7,1002,-1,99,0,-1,5.9,5.7,2680,0,0.9,0
2013,9,2,04:00,UTC,1,1001.8,-1,99,0,-1,5.9,5.8,670,0,0.8,0
2013,9,2,05:00,UTC,1,1001.7,-1,99,0,-1,6.2,6.1,1020,179,1.1,0.8
2013,9,2,06:00,UTC,5,1001.7,-1,99,0,-1,7.8,7.7,13720,0,0.8,0
2013,9,2,07:00,UTC,3,1001.7,-1,98,0,-1,10.6,10.3,38570,291,2.4,1.6
2013,9,2,08:00,UTC,0,1001.9,-1,76,0,-1,13.1,8.9,43050,290,2,1
2013,9,2,09:00,UTC,1,1002.2,-1,68,0,-1,14.3,8.4,28710,16,4.5,2.4
2013,9,2,10:00,UTC,1,1002.5,-1,59,0,-1,14.8,6.8,36290,344,6,3
2013,9,2,11:00,UTC,0,1002.9,-1,60,0,-1,13.4,5.7,49000,347,5.5,4.3
2013,9,2,12:00,UTC,1,1002.8,-1,56,0,-1,15.3,6.5,45050,11,4.4,2.3
2013,9,2,13:00,UTC,1,1003,-1,53,0,-1,15.2,5.7,43490,350,7.1,4.2
2013,9,2,14:00,UTC,5,1003.6,-1,60,0,-1,14.6,6.8,44000,29,3.5,2.5
2013,9,2,15:00,UTC,1,1004,-1,65,0,-1,14.5,7.9,50000,12,3.8,2.5
2013,9,2,16:00,UTC,0,1004.4,-1,67,0,-1,13.5,7.5,50000,17,5,3.6
2013,9,2,17:00,UTC,1,1005,-1,77,0,-1,12.6,8.7,50000,16,4.6,3.1
2013,9,2,18:00,UTC,5,1005.8,-1,90,0,-1,11,9.4,50000,339,3.1,2.3
2013,9,2,19:00,UTC,1,1006.3,-1,95,0,-1,9.2,8.4,50000,341,3,2.3
2013,9,2,20:00,UTC,0,1006.9,-1,96,0,-1,9.2,8.7,45840,314,3.3,2.8
2013,9,2,21:00,UTC,1,1007.4,-1,97,0,-1,9,8.5,41930,304,2.5,2
2013,9,2,22:00,UTC,0,1007.8,-1,97,0,-1,7.6,7.1,42130,320,3.8,3.3
2013,9,2,23:00,UTC,1,1008.3,-1,99,0,-1,7.9,7.7,31520,311,3.5,2.7
2013,9,3,00:00,UTC,7,1008.8,-1,99,0,-1,8.9,8.7,42000,291,2.7,2.3
2013,9,3,01:00,UTC,7,1009.1,-1,98,0,-1,9.7,9.4,41360,294,2.8,2.4
2013,9,3,02:00,UTC,7,1009.6,-1,98,0,-1,10.2,9.9,25000,298,2.4,1.8
2013,9,3,03:00,UTC,7,1010.3,-1,98,0,-1,10.5,10.2,23420,310,2.8,2.3
2013,9,3,04:00,UTC,7,1011.1,-1,99,0,-1,11.4,11.2,14050,335,3.1,2.5
2013,9,3,05:00,UTC,7,1011.7,-1,99,0,-1,11.8,11.6,12860,350,3,2
2013,9,3,06:00,UTC,5,1012.5,-1,93,0,-1,12.6,11.5,20570,329,4.1,3.3
2013,9,3,07:00,UTC,3,1013,-1,85,0,-1,14.4,11.8,35390,4,3.7,2.7
2013,9,3,08:00,UTC,0,1013.5,-1,78,0,-1,15.4,11.5,37610,356,4,3.3
2013,9,3,09:00,UTC,1,1014.1,-1,75,0,-1,15.8,11.5,30010,352,4.7,2.9
2013,9,3,10:00,UTC,1,1014.4,-1,71,0,-1,16.6,11.4,29170,12,3.3,1.8
2013,9,3,11:00,UTC,1,1015.1,-1,71,0,-1,16.1,10.8,37430,4,2.7,2
2013,9,3,12:00,UTC,3,1015.3,-1,59,0,-1,17.5,9.2,49020,22,3.1,2
2013,9,3,13:00,UTC,0,1015.7,-1,60,0,-1,16.4,8.5,50000,329,4.3,3.3
2013,9,3,14:00,UTC,1,1016,-1,46,0,-1,18.3,6.5,39230,353,5.2,3.8
2013,9,3,15:00,UTC,3,1016.2,-1,63,0,-1,16.5,9.4,50000,359,4.4,3
2013,9,3,16:00,UTC,0,1016.5,-1,69,0,-1,16,10.3,50000,354,3.1,2.5
2013,9,3,17:00,UTC,0,1017.2,-1,89,0,-1,12.7,10.9,45930,303,2.1,1.7
2013,9,3,18:00,UTC,0,1017.9,-1,93,0,-1,10.5,9.4,44770,284,1.2,0.9
2013,9,3,19:00,UTC,0,1018.6,-1,97,0,-1,9.2,8.8,35170,248,0.8,0.6
2013,9,3,20:00,UTC,7,1019.1,-1,97,0,-1,8.7,8.3,27630,297,1.3,1.1
2013,9,3,21:00,UTC,3,1019.4,-1,98,0,-1,7.9,7.6,14910,0,0.4,0
2013,9,3,22:00,UTC,3,1019.7,-1,99,0,-1,6.8,6.6,17580,167,0.9,0.6
2013,9,3,23:00,UTC,7,1020.1,-1,99,0,-1,6.8,6.6,16130,0,0.5,0
2013,9,4,00:00,UTC,1,1020.4,-1,99,0,-1,5.9,5.7,10590,0,0.7,0
2013,9,4,01:00,UTC,0,1020.6,-1,99,0,-1,5,4.9,590,318,0.9,0.7
2013,9,4,02:00,UTC,0,1020.7,-1,99,0,-1,4.8,4.6,12150,305,1.4,1.2
2013,9,4,03:00,UTC,0,1021,-1,99,0,-1,4.1,4,24110,0,0.8,0
2013,9,4,04:00,UTC,7,1021.3,-1,99,0,-1,4.5,4.3,17930,0,0.8,0
2013,9,4,05:00,UTC,5,1021.6,-1,99,0,-1,6.1,6,39190,319,1.5,1.1
2013,9,4,06:00,UTC,7,1021.7,-1,99,0,-1,8.8,8.7,28560,0,0.7,0
2013,9,4,07:00,UTC,7,1021.9,-1,97,0,-1,11.6,11.1,38610,84,1.2,0.6
2013,9,4,08:00,UTC,7,1022.1,-1,90,0,-1,13.5,11.9,38020,124,1.7,0.9
2013,9,4,09:00,UTC,7,1022.2,-1,84,0,-1,15.2,12.5,39940,129,2.1,1.3
2013,9,4,10:00,UTC,7,1022.1,-1,68,0,-1,17.4,11.4,42900,255,2,1.1
2013,9,4,11:00,UTC,7,1021.9,-1,62,0,-1,17.8,10.6,41460,216,2.2,1
2013,9,4,12:00,UTC,7,1021.7,-1,66,0,-1,18,11.5,47610,131,2.7,1.4
2013,9,4,13:00,UTC,7,1021.4,-1,52,0,-1,19.4,9.4,37580,222,5.7,2.3
2013,9,4,14:00,UTC,5,1021.6,-1,61,0,-1,18.1,10.6,48360,222,4,1.9
2013,9,4,15:00,UTC,1,1021.5,-1,60,0,-1,18,10,45850,264,3.7,1.9
2013,9,4,16:00,UTC,0,1021.8,-1,77,0,-1,15.6,11.5,47320,217,1.9,1.2
2013,9,4,17:00,UTC,3,1022,-1,85,0,-1,14.3,11.8,45830,208,2.3,1.7
2013,9,4,18:00,UTC,5,1022.4,-1,93,0,-1,12.7,11.5,35810,0,0.6,0
2013,9,4,19:00,UTC,1,1022.7,-1,96,0,-1,11.3,10.6,15270,0,0.5,0
2013,9,4,20:00,UTC,0,1023,-1,98,0,-1,9.7,9.3,3080,308,1.3,0.9
2013,9,4,21:00,UTC,0,1023.2,-1,98,0,-1,8.7,8.3,1210,275,1.4,0.9
2013,9,4,22:00,UTC,0,1023.5,-1,99,0,-1,7.9,7.7,820,296,0.8,0.6
2013,9,4,23:00,UTC,0,1023.7,-1,99,0,-1,7.7,7.6,8180,315,1.2,1.1
2013,9,5,00:00,UTC,0,1024,-1,99,0,-1,7.1,7,2700,312,1.5,1.3
2013,9,5,01:00,UTC,0,1024.2,-1,99,0,-1,5.4,5.2,1910,297,0.7,0.6
2013,9,5,02:00,UTC,0,1024.4,-1,99,0,-1,4.8,4.6,10040,0,0.5,0
2013,9,5,03:00,UTC,0,1024.4,-1,99,0,-1,4.1,4,1200,0,0.8,0
2013,9,5,04:00,UTC,0,1024.3,-1,99,0,-1,4.9,4.7,9310,0,0.4,0
2013,9,5,05:00,UTC,0,1024.4,-1,99,0,-1,7.6,7.5,33670,0,0.6,0
2013,9,5,06:00,UTC,0,1024.3,-1,87,0,-1,11.4,9.3,38320,102,1.4,0.8
2013,9,5,07:00,UTC,0,1024.3,-1,79,0,-1,14.5,11,28780,101,2,1.4
2013,9,5,08:00,UTC,0,1024.4,-1,69,0,-1,16.7,10.9,42800,131,2.3,1.3
2013,9,5,09:00,UTC,0,1024.1,-1,52,0,-1,17.9,8,30490,207,2.8,1.2
2013,9,5,10:00,UTC,0,1023.8,-1,51,0,-1,18.6,8.2,29810,285,2.2,1.1
2013,9,5,11:00,UTC,0,1023.4,-1,52,0,-1,19.2,9.1,33060,214,2.6,1.2
2013,9,5,12:00,UTC,0,1022.8,-1,53,0,-1,20,10.3,38170,235,3,1.3
2013,9,5,13:00,UTC,0,1022.7,-1,52,0,-1,20.4,10.2,33460,186,1.7,0.7
2013,9,5,14:00,UTC,0,1022.4,-1,49,0,-1,20.8,9.7,43810,193,3.1,1.3
2013,9,5,15:00,UTC,0,1022.2,-1,57,0,-1,20,11.2,33060,166,2.9,1.5
2013,9,5,16:00,UTC,0,1022.5,-1,70,0,-1,17.2,11.8,48720,158,2.3,1.2
2013,9,5,17:00,UTC,0,1022.9,-1,87,0,-1,14.4,12.3,50000,169,1.8,0.9
2013,9,5,18:00,UTC,0,1023.1,-1,92,0,-1,13.1,11.8,47610,164,1.6,1
2013,9,5,19:00,UTC,0,1023.1,-1,97,0,-1,11.3,10.9,44490,127,1,0.8
2013,9,5,20:00,UTC,0,1023.4,-1,99,0,-1,9.9,9.7,730,0,0.5,0
2013,9,5,21:00,UTC,0,1023.7,-1,98,0,-1,7.9,7.6,3660,0,0.4,0
2013,9,5,22:00,UTC,0,1023.7,-1,99,0,-1,7.7,7.6,6160,0,0.4,0
2013,9,5,23:00,UTC,0,1023.7,-1,99,0,-1,7.4,7.3,620,0,0.4,0
2013,9,6,00:00,UTC,9,1023.8,-1,99,0,-1,6.8,6.6,590,0,0.9,0
2013,9,6,01:00,UTC,9,1023.7,-1,99,0,-1,6.2,6,150,153,1.1,0.8
2013,9,6,02:00,UTC,9,1023.7,-1,99,0,-1,6.1,6,220,0,0.6,0
2013,9,6,03:00,UTC,9,1023.7,-1,99,0,-1,6,5.9,50,0,0.3,0
2013,9,6,04:00,UTC,9,1023.9,-1,99,0,-1,6.1,6,110,121,1,0.7
2013,9,6,05:00,UTC,9,1024,-1,99,0,-1,7.1,7,100,169,1.4,0.9
2013,9,6,06:00,UTC,5,1023.9,-1,99,0,-1,11.1,11,2150,147,1.6,0.8
2013,9,6,07:00,UTC,1,1024,-1,88,0,-1,14,12.1,28790,148,2.9,1.9
2013,9,6,08:00,UTC,1,1024,-1,82,0,-1,15.9,12.8,32390,147,4.9,2.8
2013,9,6,09:00,UTC,0,1024.2,-1,79,0,-1,15.8,12.2,28690,131,5.3,3.1
2013,9,6,10:00,UTC,1,1024.1,-1,76,0,-1,16.8,12.5,30710,135,6.3,3.5
2013,9,6,11:00,UTC,0,1023.8,-1,76,0,-1,17,12.6,27760,131,6.1,3.8
2013,9,6,12:00,UTC,0,1023.4,-1,72,0,-1,17.9,12.8,32900,131,5.9,2.8
2013,9,6,13:00,UTC,0,1022.9,-1,66,0,-1,18.9,12.4,33930,162,5.3,3
2013,9,6,14:00,UTC,0,1022.8,-1,62,0,-1,19,11.6,31470,163,6.4,2.9
2013,9,6,15:00,UTC,0,1022.7,-1,64,0,-1,18.7,11.8,50000,167,4.6,1.8
2013,9,6,16:00,UTC,0,1022.6,-1,73,0,-1,16.8,11.9,50000,163,3.1,1.4
2013,9,6,17:00,UTC,0,1022.9,-1,90,0,-1,13.9,12.3,45430,164,1.6,1.1
2013,9,6,18:00,UTC,0,1023.1,-1,95,0,-1,12.3,11.5,24530,173,1.6,1
2013,9,6,19:00,UTC,0,1023.4,-1,97,0,-1,10,9.6,440,0,0.7,0
2013,9,6,20:00,UTC,0,1023.5,-1,98,0,-1,9.3,9,710,159,1.8,1.2
2013,9,6,21:00,UTC,0,1023.7,-1,98,0,-1,7.5,7.3,730,0,0.5,0
2013,9,6,22:00,UTC,1,1023.7,-1,99,0,-1,7.4,7.3,5980,0,0.3,0
2013,9,6,23:00,UTC,0,1023.8,-1,99,0,-1,6.6,6.5,2710,157,1.3,1.1
2013,9,7,00:00,UTC,0,1023.8,-1,99,0,-1,5.4,5.2,1950,166,1.2,0.7
2013,9,7,01:00,UTC,0,1023.8,-1,99,0,-1,5.1,4.9,1610,164,1.8,0.9
2013,9,7,02:00,UTC,0,1023.8,-1,99,0,-1,4.5,4.3,6060,188,1.6,1.1
2013,9,7,03:00,UTC,0,1023.6,-1,99,0,-1,4.6,4.5,1210,146,2.1,1.8
2013,9,7,04:00,UTC,0,1023.7,-1,99,0,-1,4.9,4.7,970,170,2,1.3
2013,9,7,05:00,UTC,3,1023.7,-1,99,0,-1,9.4,9.3,14030,249,3.9,2
2013,9,7,06:00,UTC,8,1023.8,-1,99,0,-1,11.1,11,3530,244,3.9,2
2013,9,7,07:00,UTC,8,1023.8,-1,98,0,-1,11.9,11.7,9370,242,3.6,1.7
2013,9,7,08:00,UTC,8,1023.8,-1,94,0,-1,12.9,12,22090,236,4.4,1.9
2013,9,7,09:00,UTC,7,1024,-1,87,0,-1,14.2,12.2,37890,251,4.4,2
2013,9,7,10:00,UTC,5,1023.7,-1,83,0,-1,15.1,12.2,38110,267,5.5,2.8
2013,9,7,11:00,UTC,7,1023.7,-1,80,0,-1,16,12.6,32210,226,4.7,2.4
2013,9,7,12:00,UTC,1,1023.2,-1,75,0,-1,17.2,12.7,36770,226,5.4,3
2013,9,7,13:00,UTC,5,1023.3,-1,74,0,-1,17.4,12.7,40620,273,4.3,2.1
2013,9,7,14:00,UTC,5,1022.9,-1,70,0,-1,18.6,13.1,41630,247,4.3,2.3
2013,9,7,15:00,UTC,0,1022.8,-1,71,0,-1,18,12.6,49870,237,4.7,2.5
2013,9,7,16:00,UTC,1,1022.9,-1,79,0,-1,16.5,12.8,50000,207,2.3,1.3
2013,9,7,17:00,UTC,0,1023.1,-1,88,0,-1,14.8,12.9,40360,229,2.4,1.4
2013,9,7,18:00,UTC,0,1023.5,-1,90,0,-1,14,12.4,36210,239,2.7,1.4
2013,9,7,19:00,UTC,0,1023.7,-1,96,0,-1,11.4,10.8,13550,168,1.4,0.7
2013,9,7,20:00,UTC,0,1024,-1,96,0,-1,11.2,10.5,12660,352,2.2,0.7
2013,9,7,21:00,UTC,7,1024.3,-1,99,0,-1,10.4,10.2,6450,56,1.1,0.6
2013,9,7,22:00,UTC,7,1024.6,-1,99,0,-1,9.7,9.5,3440,0,0.5,0
2013,9,7,23:00,UTC,3,1024.8,-1,99,0,-1,9.4,9.3,700,0,0.5,0
2013,9,8,00:00,UTC,5,1025,-1,99,0,-1,8.5,8.4,3920,0,0.7,0
2013,9,8,01:00,UTC,5,1024.8,-1,99,0,-1,8.4,8.3,640,243,1.1,0.6
2013,9,8,02:00,UTC,1,1025,-1,99,0,-1,7.5,7.4,420,0,0.6,0
2013,9,8,03:00,UTC,1,1025.1,-1,99,0,-1,6.9,6.8,460,119,0.9,0.6
2013,9,8,04:00,UTC,1,1025.3,-1,99,0,-1,5.8,5.7,710,126,1.2,0.7
2013,9,8,05:00,UTC,9,1025.2,-1,99,0,-1,8.5,8.4,130,0,0.6,0
2013,9,8,06:00,UTC,1,1025.3,-1,99,0,-1,10.3,10.2,11580,91,1.6,1.1
2013,9,8,07:00,UTC,0,1025.2,-1,89,0,-1,14.3,12.4,39100,86,1.9,0.9
2013,9,8,08:00,UTC,0,1025.1,-1,82,0,-1,16,12.9,25050,4,2.2,1.5
2013,9,8,09:00,UTC,0,1024.9,-1,67,0,-1,18,11.9,45970,301,3.3,1.9
2013,9,8,10:00,UTC,5,1024.6,-1,67,0,-1,19.1,12.7,35650,38,3.7,1.9
2013,9,8,11:00,UTC,0,1024.5,-1,65,0,-1,19.2,12.4,49390,338,3.4,2.3
2013,9,8,12:00,UTC,0,1024,-1,61,0,-1,20,12.2,39830,354,3.7,1.9
2013,9,8,13:00,UTC,0,1023.9,-1,60,0,-1,20.1,12.1,31950,312,2.3,1.5
2013,9,8,14:00,UTC,1,1023.7,-1,63,0,-1,19.8,12.5,43200,357,3.1,2.4
2013,9,8,15:00,UTC,0,1023.8,-1,73,0,-1,18.3,13.4,42600,342,2.9,2.3
2013,9,8,16:00,UTC,0,1023.8,-1,76,0,-1,17.6,13.3,46930,31,3.1,2.3
2013,9,8,17:00,UTC,0,1024.2,-1,90,0,-1,15.4,13.8,21530,53,1.4,0.9
2013,9,8,18:00,UTC,0,1024.2,-1,96,0,-1,12.5,11.9,14380,302,1.4,1.2
2013,9,8,19:00,UTC,0,1024.1,-1,98,0,-1,11.8,11.6,5740,0,0.7,0
2013,9,8,20:00,UTC,0,1024.2,-1,99,0,-1,10.6,10.4,11780,296,1.3,1.1
2013,9,8,21:00,UTC,5,1024.3,-1,99,0,-1,10.7,10.5,5000,306,2.1,1.6
2013,9,8,22:00,UTC,1,1024.2,-1,99,0,-1,11.3,11.1,2910,315,1.8,1.4
2013,9,8,23:00,UTC,7,1024.1,-1,99,0,-1,11.7,11.6,3560,302,1.8,1.4
2013,9,9,00:00,UTC,7,1024,-1,99,0,-1,10.5,10.3,9780,327,2.3,1.6
2013,9,9,01:00,UTC,7,1023.7,-1,99,0,-1,10.4,10.3,7740,302,1.5,1.3
2013,9,9,02:00,UTC,7,1023.5,-1,99,0,-1,10.9,10.8,6580,309,1.9,1.4
2013,9,9,03:00,UTC,7,1023.4,-1,99,0,-1,11.2,11,5220,305,1.8,1.4
2013,9,9,04:00,UTC,3,1023.4,-1,99,0,-1,11.1,11,3650,309,1.5,1.1
2013,9,9,05:00,UTC,5,1023.5,-1,99,0,-1,12.7,12.5,15610,326,1.9,1.4
2013,9,9,06:00,UTC,5,1023.5,-1,94,0,-1,13.5,12.5,29260,26,2.6,1.6
2013,9,9,07:00,UTC,0,1023.3,-1,85,0,-1,15.1,12.6,41480,78,3.9,2.8
2013,9,9,08:00,UTC,7,1023.2,-1,80,0,-1,16.8,13.3,39090,100,3.1,1.8
2013,9,9,09:00,UTC,1,1022.8,-1,77,0,-1,17.8,13.7,29350,109,6.6,4.3
2013,9,9,10:00,UTC,7,1023.1,-1,83,0,-1,16.8,13.9,32910,97,6.3,3.9
2013,9,9,11:00,UTC,8,1023.2,-1,85,0,-1,15.9,13.4,34290,62,4.1,2.9
2013,9,9,12:00,UTC,7,1023,-1,81,0,-1,16.7,13.5,50000,83,5,3.7
2013,9,9,13:00,UTC,3,1022.8,-1,76,0,-1,17.4,13.2,43990,117,5.9,3.9
2013,9,9,14:00,UTC,5,1022.9,-1,77,0,-1,16.1,12,47380,119,7.7,4.4
2013,9,9,15:00,UTC,7,1022.9,-1,75,0,-1,15.5,11,50000,126,5.7,3.4
2013,9,9,16:00,UTC,8,1023.1,-1,76,0,-1,14.8,10.5,50000,148,2.6,1.3
2013,9,9,17:00,UTC,3,1023.3,-1,88,0,-1,12.4,10.5,50000,126,1.6,1.2
2013,9,9,18:00,UTC,1,1023.5,-1,96,0,-1,10,9.3,11190,99,0.7,0.6
2013,9,9,19:00,UTC,5,1023.6,-1,98,0,-1,9.5,9.2,13200,0,0.5,0
2013,9,9,20:00,UTC,0,1023.7,-1,98,0,-1,7.9,7.6,3300,115,0.7,0.6
2013,9,9,21:00,UTC,0,1024,-1,99,0,-1,6.5,6.3,1270,0,0.3,0
2013,9,9,22:00,UTC,0,1024.1,-1,99,0,-1,6.4,6.2,22380,0,0.4,0
2013,9,9,23:00,UTC,0,1024.2,-1,99,0,-1,4.7,4.5,650,304,1.1,0.7
2013,9,10,00:00,UTC,0,1023.9,-1,99,0,-1,4.7,4.5,20610,0,0.9,0
2013,9,10,01:00,UTC,0,1023.8,-1,99,0,-1,3.6,3.4,1240,316,1.4,1.1
2013,9,10,02:00,UTC,0,1023.8,-1,98,0,-1,2.6,2.4,26420,0,0.6,0
2013,9,10,03:00,UTC,0,1023.7,-1,99,0,-1,2.2,2.1,33110,0,0.7,0
2013,9,10,04:00,UTC,0,1023.7,-1,99,0,-1,3.2,3.1,26900,300,0.9,0.7
2013,9,10,05:00,UTC,0,1023.4,-1,99,0,-1,5.8,5.7,26650,0,0.5,0
2013,9,10,06:00,UTC,0,1023,-1,91,0,-1,10.2,8.8,37060,118,2.3,1.2
2013,9,10,07:00,UTC,1,1022.8,-1,85,0,-1,12.1,9.6,34460,117,3.9,2.4
2013,9,10,08:00,UTC,0,1022.6,-1,77,0,-1,13.4,9.5,32850,112,5,2.7
2013,9,10,09:00,UTC,5,1022.2,-1,67,0,-1,14.8,8.7,34380,121,4.8,2.7
2013,9,10,10:00,UTC,3,1021.9,-1,65,0,-1,15.4,8.9,34860,101,7,4.8
2013,9,10,11:00,UTC,5,1021.5,-1,57,0,-1,16.2,7.7,27030,123,6.7,2.8
2013,9,10,12:00,UTC,8,1021.3,-1,62,0,-1,15.1,7.9,43110,85,5.2,3.9
2013,9,10,13:00,UTC,7,1021.2,-1,66,0,-1,14.8,8.4,38390,104,6.8,3.8
2013,9,10,14:00,UTC,7,1020.7,-1,68,0,-1,14.8,9,33460,101,7.4,5
2013,9,10,15:00,UTC,1,1020.6,-1,72,0,-1,13.6,8.8,48430,123,5.2,3
2013,9,10,16:00,UTC,0,1020.5,-1,78,0,-1,12.7,8.9,48520,124,3.5,2
2013,9,10,17:00,UTC,0,1020.5,-1,86,0,-1,11,8.7,45020,129,3.1,2
2013,9,10,18:00,UTC,0,1020.7,-1,96,0,-1,8.8,8.2,23430,130,1.4,0.8
2013,9,10,19:00,UTC,0,1020.8,-1,98,0,-1,6.9,6.5,1420,0,0.6,0
2013,9,10,20:00,UTC,1,1020.8,-1,99,0,-1,6.1,5.9,890,328,0.9,0.7
2013,9,10,21:00,UTC,1,1020.7,-1,99,0,-1,5.4,5.2,4090,0,0.5,0
2013,9,10,22:00,UTC,7,1020.6,-1,99,0,-1,6.1,6,18830,308,1.7,1.4
2013,9,10,23:00,UTC,5,1020.5,-1,98,0,-1,6.4,6.1,24530,315,0.8,0.6
2013,9,11,00:00,UTC,1,1020.2,-1,98,0,-1,5.2,5,10910,301,1,0.8
2013,9,11,01:00,UTC,8,1019.8,-1,99,0,-1,6,5.9,15550,233,2,0.8
2013,9,11,02:00,UTC,7,1019.4,-1,99,0,-1,7.7,7.5,9670,0,0.5,0
2013,9,11,03:00,UTC,7,1018.9,0.1,99,0.7,-1,8.3,8.1,11600,0,0.7,0
2013,9,11,04:00,UTC,8,1018.7,0.5,99,0,-1,9.5,9.4,5960,134,2.7,1.5
2013,9,11,05:00,UTC,8,1018.7,-1,99,0,-1,10.4,10.2,4250,144,1.9,1.1
2013,9,11,06:00,UTC,8,1018.5,-1,99,0,-1,11.2,11,5780,136,2.1,1.1
2013,9,11,07:00,UTC,8,1018.4,-1,99,0,-1,12,11.8,5880,136,2.7,1.4
2013,9,11,08:00,UTC,8,1018.3,-1,99,0,-1,12.7,12.5,5550,144,2.8,1.3
2013,9,11,09:00,UTC,7,1018.1,-1,98,0,-1,13.3,13,8510,148,2.9,1.6
2013,9,11,10:00,UTC,7,1018,-1,96,0,-1,14,13.3,12710,152,2.9,1.6
2013,9,11,11:00,UTC,7,1017.8,-1,93,0,-1,14.6,13.4,13850,160,3.2,1.8
2013,9,11,12:00,UTC,7,1017.7,-1,87,0,-1,15.1,13,27040,170,5,2.4
2013,9,11,13:00,UTC,8,1017.4,-1,84,0,-1,15.6,12.8,30060,172,5.3,1.7
2013,9,11,14:00,UTC,8,1017.2,-1,85,0,-1,15.4,13,34320,173,4.2,1.6
2013,9,11,15:00,UTC,7,1016.9,-1,84,0,-1,15.4,12.7,32540,162,4.6,2.3
2013,9,11,16:00,UTC,7,1017,-1,88,0,-1,14.6,12.7,28640,168,3.3,1.9
2013,9,11,17:00,UTC,5,1017,-1,93,0,-1,13.8,12.7,17860,161,2.6,1.1
2013,9,11,18:00,UTC,5,1017.2,-1,96,0,-1,12.6,12,8420,159,1.4,0.8
2013,9,11,19:00,UTC,3,1017.2,-1,98,0,-1,11.8,11.5,2890,113,1.2,0.9
2013,9,11,20:00,UTC,1,1017,-1,99,0,-1,11,10.8,690,164,1.9,1.2
2013,9,11,21:00,UTC,3,1017,-1,99,0,-1,10.5,10.4,950,156,1.9,1.1
2013,9,11,22:00,UTC,7,1017,-1,99,0,-1,10.8,10.7,1120,174,1.9,1
2013,9,11,23:00,UTC,7,1016.9,1.6,99,0.4,-1,12.1,12,4090,174,1.4,0.7
2013,9,12,00:00,UTC,5,1016.9,-1,99,0,-1,11.1,11,510,192,1.7,1.2
2013,9,12,01:00,UTC,7,1017.1,-1,99,0,-1,10.9,10.8,910,0,0.8,0
2013,9,12,02:00,UTC,7,1016.7,-1,99,0,-1,11.6,11.4,3840,234,2.8,1.1
2013,9,12,03:00,UTC,7,1016.8,-1,99,0,-1,11.4,11.3,3220,140,1.1,0.6
2013,9,12,04:00,UTC,8,1017.1,-1,99,0,-1,11.3,11.2,2510,164,1.9,1.1
2013,9,12,05:00,UTC,7,1017.3,-1,99,0,-1,11.7,11.6,2530,143,1.4,1
2013,9,12,06:00,UTC,7,1017.2,-1,99,0,-1,12.9,12.8,5010,168,1.6,0.9
2013,9,12,07:00,UTC,8,1017.5,-1,99,0,-1,13.5,13.3,10490,145,1.5,0.6
2013,9,12,08:00,UTC,7,1017.8,-1,95,0,-1,14.1,13.2,9720,183,2.3,1.1
2013,9,12,09:00,UTC,7,1017.8,-1,87,0,-1,15,12.8,24120,216,2.1,1.1
2013,9,12,10:00,UTC,7,1017.7,-1,79,0,-1,16.1,12.5,27680,191,3.1,1.4
2013,9,12,11:00,UTC,5,1017.7,-1,79,0,-1,16.2,12.5,31990,182,1.6,1.1
2013,9,12,12:00,UTC,5,1017.5,-1,74,0,-1,16.9,12.2,28760,96,2.1,1.2
2013,9,12,13:00,UTC,7,1017.4,-1,74,0,-1,16.8,12.2,33950,2,3.4,2.4
2013,9,12,14:00,UTC,7,1017.5,-1,80,0,-1,16.5,13,32940,41,1.8,1.3
2013,9,12,15:00,UTC,3,1017.4,-1,82,0,-1,16,12.9,33450,70,1.4,1.1
2013,9,12,16:00,UTC,7,1017.6,-1,93,0,-1,14.5,13.4,19420,161,1,0.8
2013,9,12,17:00,UTC,5,1017.8,-1,94,0,-1,14.1,13.2,14740,301,1.1,0.8
2013,9,12,18:00,UTC,1,1018.3,-1,98,0,-1,11.8,11.5,1350,173,1.1,0.7
2013,9,12,19:00,UTC,0,1018.5,-1,99,0,-1,10.5,10.3,2170,133,1.5,1.1
2013,9,12,20:00,UTC,7,1018.7,-1,99,0,-1,10.3,10.2,3680,152,1.4,1
2013,9,12,21:00,UTC,1,1018.8,-1,99,0,-1,9.1,9,1150,0,0.6,0
2013,9,12,22:00,UTC,9,1018.9,-1,99,0,-1,7.9,7.8,160,307,1.3,1
2013,9,12,23:00,UTC,9,1018.8,-1,99,0,-1,8.4,8.2,80,0,0.4,0
2013,9,13,00:00,UTC,9,1018.8,-1,99,0,-1,7.9,7.8,130,302,0.9,0.8
2013,9,13,01:00,UTC,9,1018.9,-1,99,0,-1,8.3,8.3,460,169,1.9,0.9
2013,9,13,02:00,UTC,7,1018.9,-1,99,0,-1,8.9,8.8,670,190,1.7,0.7
2013,9,13,03:00,UTC,9,1018.8,-1,99,0,-1,9.4,9.3,180,0,0.4,0
2013,9,13,04:00,UTC,9,1019,-1,100,0,-1,9.3,9.3,190,0,0.4,0
2013,9,13,05:00,UTC,9,1019.1,-1,99,0,-1,10.3,10.2,190,0,0.6,0
2013,9,13,06:00,UTC,9,1019.4,-1,99,0,-1,11,10.9,410,164,2.1,0.9
2013,9,13,07:00,UTC,9,1019.5,-1,100,0,-1,11.6,11.6,630,151,2.4,1.3
2013,9,13,08:00,UTC,7,1019.5,-1,100,0,-1,12.2,12.1,1700,184,2.8,1.5
2013,9,13,09:00,UTC,7,1019.7,-1,100,0,-1,13,12.9,5570,181,1.9,1.2
2013,9,13,10:00,UTC,7,1019.5,-1,99,0,-1,14.2,14,7330,135,2,1
2013,9,13,11:00,UTC,7,1019.4,-1,88,0,-1,16,14,11830,120,2.8,1.6
2013,9,13,12:00,UTC,7,1019.5,-1,78,0,-1,16.8,13,32000,169,2.8,1.4
2013,9,13,13:00,UTC,7,1019.3,-1,76,0,-1,17.3,12.9,25150,126,2.1,1.3
2013,9,13,14:00,UTC,5,1019,-1,71,0,-1,17.8,12.6,35010,139,1.6,0.8
2013,9,13,15:00,UTC,1,1018.9,-1,71,0,-1,18.1,12.8,34980,148,1.5,0.6
2013,9,13,16:00,UTC,3,1018.9,-1,82,0,-1,16.2,13.2,33320,208,2.6,1.4
2013,9,13,17:00,UTC,1,1019.3,-1,94,0,-1,13.8,12.9,14890,161,1.3,0.9
2013,9,13,18:00,UTC,0,1019.7,-1,97,0,-1,11,10.6,250,130,1.2,0.9
2013,9,13,19:00,UTC,0,1019.9,-1,99,0,-1,10.3,10.1,1760,148,1.1,1
2013,9,13,20:00,UTC,9,1020.1,-1,99,0,-1,9.2,9,200,0,0.6,0
2013,9,13,21:00,UTC,7,1020.4,-1,99,0,-1,8.5,8.4,190,0,0.4,0
2013,9,13,22:00,UTC,9,1020.6,-1,99,0,-1,7.5,7.4,190,0,0.9,0
2013,9,13,23:00,UTC,5,1020.6,-1,99,0,-1,7,6.9,300,0,0.7,0
2013,9,14,00:00,UTC,1,1020.6,-1,99,0,-1,6.9,6.8,340,0,0.6,0
2013,9,14,01:00,UTC,5,1020.7,-1,99,0,-1,6.4,6.2,4350,0,0.7,0
2013,9,14,02:00,UTC,1,1020.7,-1,99,0,-1,6.1,6,310,129,1,0.6
2013,9,14,03:00,UTC,5,1020.6,-1,99,0,-1,6.3,6.2,250,0,0.6,0
2013,9,14,04:00,UTC,5,1020.6,-1,99,0,-1,6.4,6.2,1440,105,1.3,0.6
2013,9,14,05:00,UTC,1,1020.6,-1,99,0,-1,7.7,7.6,1290,169,1.5,1
2013,9,14,06:00,UTC,0,1020.5,-1,99,0,-1,10.7,10.6,7650,133,1.4,0.9
2013,9,14,07:00,UTC,1,1020.4,-1,90,0,-1,13.9,12.3,22710,147,2.3,1.3
2013,9,14,08:00,UTC,1,1020.4,-1,77,0,-1,16,11.9,26810,196,3.4,1.6
2013,9,14,09:00,UTC,0,1020.2,-1,67,0,-1,17.7,11.4,29900,197,4.7,2.4
2013,9,14,10:00,UTC,0,1019.9,-1,62,0,-1,18.7,11.3,31360,200,5.1,2.5
2013,9,14,11:00,UTC,5,1019.6,-1,59,0,-1,19.8,11.5,30010,234,5.2,2.1
2013,9,14,12:00,UTC,3,1019.6,-1,57,0,-1,20.1,11.4,29160,161,3.7,1.7
2013,9,14,13:00,UTC,7,1019.4,-1,67,0,-1,18.2,11.9,31780,141,4.3,2.1
2013,9,14,14:00,UTC,1,1019,-1,59,0,-1,19.2,10.9,36110,197,4.5,2
2013,9,14,15:00,UTC,0,1018.9,-1,65,0,-1,17.7,10.9,45500,168,3.8,1.9
2013,9,14,16:00,UTC,0,1018.9,-1,80,0,-1,14.7,11.4,35660,159,1.8,1
2013,9,14,17:00,UTC,0,1019,-1,86,0,-1,12.7,10.4,30870,152,1.8,1.1
2013,9,14,18:00,UTC,0,1019.4,-1,96,0,-1,10,9.4,11170,0,0.6,0
2013,9,14,19:00,UTC,0,1019.6,-1,97,0,-1,8.6,8.2,3600,120,0.9,0.7
2013,9,14,20:00,UTC,0,1019.6,-1,99,0,-1,7.8,7.5,400,0,0.4,0
2013,9,14,21:00,UTC,0,1019.6,-1,99,0,-1,7.1,7,340,119,1.1,0.8
2013,9,14,22:00,UTC,0,1019.5,-1,99,0,-1,6.9,6.7,1070,0,0.6,0
2013,9,14,23:00,UTC,0,1019.5,-1,99,0,-1,6.1,5.9,4240,0,0.5,0
2013,9,15,00:00,UTC,9,1019.3,-1,99,0,-1,5.7,5.6,150,0,0.4,0
2013,9,15,01:00,UTC,9,1019.1,-1,99,0,-1,5.8,5.6,140,291,1,0.6
2013,9,15,02:00,UTC,9,1018.7,-1,99,0,-1,6,5.9,80,0,0.4,0
2013,9,15,03:00,UTC,9,1018.5,-1,99,0,-1,5.4,5.3,270,0,0.9,0
2013,9,15,04:00,UTC,1,1018.2,-1,99,0,-1,4.4,4.3,290,288,1.2,0.9
2013,9,15,05:00,UTC,9,1018.1,-1,99,0,-1,4.6,4.5,930,0,0.3,0
2013,9,15,06:00,UTC,9,1017.7,-1,99,0,-1,7.9,7.8,250,0,0.5,0
2013,9,15,07:00,UTC,1,1017.4,-1,99,0,-1,10.3,10.1,21000,138,1.5,0.8
2013,9,15,08:00,UTC,7,1017.1,-1,92,0,-1,11.9,10.7,24710,125,3,1.8
2013,9,15,09:00,UTC,3,1016.4,-1,75,0,-1,14.4,10,29480,143,5.8,3
2013,9,15,10:00,UTC,1,1015.5,-1,59,0,-1,15.8,7.8,39800,130,5.7,3.3
2013,9,15,11:00,UTC,3,1014.9,-1,56,0,-1,15.9,7,39480,134,7.7,3.7
2013,9,15,12:00,UTC,5,1014.4,-1,57,0,-1,15.7,7.1,44940,155,5.2,2.8
2013,9,15,13:00,UTC,7,1014,-1,63,0,-1,15.3,8.2,40310,160,4.1,1.9
2013,9,15,14:00,UTC,7,1013.5,-1,62,0,-1,15.3,8.1,48610,150,4.7,2.2
2013,9,15,15:00,UTC,5,1013.1,-1,70,0,-1,14.4,9.1,50000,127,4.2,2.2
2013,9,15,16:00,UTC,7,1012.7,-1,75,0,-1,13.6,9.3,44630,120,4.1,2.5
2013,9,15,17:00,UTC,7,1012.7,-1,79,0,-1,12.6,9.1,47000,120,3.3,2.3
2013,9,15,18:00,UTC,8,1012.7,-1,81,0,-1,12.5,9.4,48520,125,4.4,2.4
2013,9,15,19:00,UTC,7,1012.6,-1,85,0,-1,12.3,9.8,45590,124,3.4,2
2013,9,15,20:00,UTC,7,1012.5,-1,89,0,-1,11.5,9.8,35050,139,3.1,1.7
2013,9,15,21:00,UTC,0,1012.4,-1,95,0,-1,9.4,8.5,8880,148,2.2,1
2013,9,15,22:00,UTC,0,1012.4,-1,98,0,-1,7.2,6.9,3150,125,1.1,0.7
2013,9,15,23:00,UTC,0,1012,-1,98,0,-1,5.8,5.6,5860,0,0.8,0
2013,9,16,00:00,UTC,1,1011.6,-1,99,0,-1,5.7,5.6,280,0,0.6,0
2013,9,16,01:00,UTC,7,1011,-1,99,0,-1,6.8,6.7,3280,244,1.2,0.7
2013,9,16,02:00,UTC,8,1010.5,-1,99,0,-1,7.4,7.2,5160,60,1.4,0.8
2013,9,16,03:00,UTC,8,1010.1,-1,99,0,-1,9.3,9.1,8950,105,2.3,1.4
2013,9,16,04:00,UTC,8,1009.8,-1,99,0,-1,9.8,9.6,9600,113,2.2,1.5
2013,9,16,05:00,UTC,8,1009.5,-1,98,0,-1,10.4,10.1,10870,102,3.4,1.9
2013,9,16,06:00,UTC,8,1009.3,-1,95,0,-1,11.2,10.5,12520,103,4.7,2.4
2013,9,16,07:00,UTC,8,1009.1,-1,89,0,-1,12,10.2,17220,120,4.2,2.8
2013,9,16,08:00,UTC,7,1008.6,-1,81,0,-1,13.2,10,24150,115,6.6,3.8
2013,9,16,09:00,UTC,7,1008.2,-1,82,0,-1,13.6,10.6,36460,110,7.8,4.5
2013,9,16,10:00,UTC,7,1007.8,-1,80,0,-1,14,10.5,30640,109,6.8,4.4
2013,9,16,11:00,UTC,7,1007.2,-1,72,0,-1,14.7,9.7,32380,122,7.1,3.8
2013,9,16,12:00,UTC,7,1006.6,,66,0,-1,15,8.6,39910,118,6.6,3.5
2013,9,16,13:00,UTC,7,1006.5,-1,68,0,-1,14.8,8.9,37980,120,7.1,3.6
2013,9,16,14:00,UTC,3,1006,-1,66,0,-1,14.7,8.3,44710,98,8.1,4.8
2013,9,16,15:00,UTC,7,1005.9,-1,74,0,-1,14.1,9.6,46120,93,6.4,4.3
2013,9,16,16:00,UTC,3,1006,-1,83,0,-1,12.4,9.6,31180,108,3.4,2.4
2013,9,16,17:00,UTC,7,1006,-1,84,0,-1,12.3,9.6,42460,113,4.1,2.3
2013,9,16,18:00,UTC,7,1006.1,-1,86,0,-1,11.8,9.6,46850,110,4.8,3.1
2013,9,16,19:00,UTC,3,1006.1,-1,91,0,-1,11,9.5,39850,128,2.6,1.7
2013,9,16,20:00,UTC,8,1005.9,-1,93,0,-1,10.8,9.7,25450,124,2.4,1.6
2013,9,16,21:00,UTC,7,1005.9,-1,93,0,-1,10.6,9.6,34380,134,2.5,1.4
2013,9,16,22:00,UTC,8,1006,-1,95,0,-1,10.2,9.4,21560,154,1.5,0.8
2013,9,16,23:00,UTC,0,1006.1,-1,98,0,-1,8.8,8.5,6060,136,2.9,1.6
2013,9,17,00:00,UTC,1,1006.3,-1,98,0,-1,6.4,6.2,140,118,1.6,1.2
2013,9,17,01:00,UTC,1,1006.6,-1,99,0,-1,5,4.8,2290,151,1.1,0.7
2013,9,17,02:00,UTC,5,1006.7,-1,99,0,-1,4.8,4.6,620,131,1.5,1
2013,9,17,03:00,UTC,8,1006.8,-1,99,0,-1,9,8.9,2430,121,3.9,2.2
2013,9,17,04:00,UTC,7,1006.8,-1,99,0,-1,9.6,9.5,5160,122,3.6,2.1
2013,9,17,05:00,UTC,7,1006.8,-1,99,0,-1,10.1,10,7650,110,3.5,2
2013,9,17,06:00,UTC,7,1007,-1,98,0,-1,10.4,10.2,9240,118,3.6,2
2013,9,17,07:00,UTC,7,1007.1,-1,93,0,-1,11.4,10.3,18680,107,6.1,4
2013,9,17,08:00,UTC,7,1007.3,-1,87,0,-1,12.2,10,31280,117,7.3,4.6
2013,9,17,09:00,UTC,5,1007.2,-1,80,0,-1,13.1,9.8,32380,106,7.3,5.1
2013,9,17,10:00,UTC,5,1007.2,-1,76,0,-1,14.2,10,31970,121,7.1,4.3
2013,9,17,11:00,UTC,7,1007.2,-1,76,0,-1,13.7,9.6,33670,112,5.8,3.5
2013,9,17,12:00,UTC,3,1006.8,-1,71,0,-1,14.5,9.3,35180,120,5.9,3.5
2013,9,17,13:00,UTC,7,1006.5,-1,68,0,-1,14.4,8.5,48090,110,7.9,5.3
2013,9,17,14:00,UTC,5,1006.4,-1,64,0,-1,14.8,8.1,50000,106,8.7,4.9
2013,9,17,15:00,UTC,1,1006.3,-1,68,0,-1,14.5,8.7,48680,116,7.7,4.7
2013,9,17,16:00,UTC,1,1006.4,-1,83,0,-1,12.4,9.6,50000,88,4.9,3.4
2013,9,17,17:00,UTC,1,1006.5,-1,87,0,-1,12.1,10,50000,95,5,3.3
2013,9,17,18:00,UTC,1,1006.6,-1,92,0,-1,11.4,10.1,43480,109,4.2,2.6
2013,9,17,19:00,UTC,7,1006.5,-1,94,0,-1,11.8,10.8,37120,126,5.2,2.6
2013,9,17,20:00,UTC,8,1006.2,-1,94,0,-1,12.2,11.2,26380,109,4,2.6
2013,9,17,21:00,UTC,7,1005.9,-1,92,0,-1,12.6,11.3,19280,107,4,2.7
2013,9,17,22:00,UTC,7,1005.7,-1,91,0,-1,12.7,11.3,19930,110,5.9,3.5
2013,9,17,23:00,UTC,7,1005.5,-1,91,0,-1,12.7,11.3,20150,108,6.2,3.5
2013,9,18,00:00,UTC,8,1005.4,-1,96,0,-1,12.2,11.6,4330,110,4.8,2.9
2013,9,18,01:00,UTC,8,1005.2,0.2,95,0,-1,12.2,11.4,12040,122,4.7,2.9
2013,9,18,02:00,UTC,8,1005.1,-1,95,0,-1,12.1,11.4,11730,115,3.9,2.3
2013,9,18,03:00,UTC,7,1005,-1,94,0,-1,12.4,11.5,11520,116,5.6,3.1
2013,9,18,04:00,UTC,7,1005.1,-1,95,0,-1,12.4,11.6,10860,118,4.4,2.5
2013,9,18,05:00,UTC,7,1004.9,-1,93,0,-1,12.9,11.7,12420,105,6.5,4.5
2013,9,18,06:00,UTC,7,1004.9,-1,91,0,-1,13.3,11.9,14620,105,6.4,4
2013,9,18,07:00,UTC,8,1005,-1,87,0,-1,13.5,11.4,18470,117,6.9,4.2
2013,9,18,08:00,UTC,7,1005.2,-1,84,0,-1,14,11.3,24850,117,8.6,5
2013,9,18,09:00,UTC,7,1005.1,-1,79,0,-1,14.8,11.1,33900,125,8.1,4.6
2013,9,18,10:00,UTC,7,1005.1,-1,77,0,-1,15.2,11.2,36070,118,7.5,4.8
2013,9,18,11:00,UTC,5,1004.9,-1,73,0,-1,15.6,10.7,38280,121,9.2,5.5
2013,9,18,12:00,UTC,7,1004.8,-1,74,0,-1,15.8,11.1,37010,119,9.1,5
2013,9,18,13:00,UTC,7,1004.9,-1,72,0,-1,16.3,11.2,43710,124,5.9,3.4
2013,9,18,14:00,UTC,3,1005.2,-1,69,0,-1,15.9,10.2,50000,123,7.4,4.5
2013,9,18,15:00,UTC,3,1005.4,-1,71,0,-1,15.5,10.2,43220,123,5.7,3.3
2013,9,18,16:00,UTC,7,1005.8,-1,79,0,-1,13.9,10.2,49170,105,4.4,2.7
2013,9,18,17:00,UTC,7,1006,-1,86,0,-1,13.9,11.6,48680,102,6.1,3.9
2013,9,18,18:00,UTC,7,1006.3,-1,85,0,-1,14.1,11.7,36180,109,8.6,5.3
2013,9,18,19:00,UTC,7,1006.5,-1,87,0,-1,13.8,11.6,43840,110,7.3,4.8
2013,9,18,20:00,UTC,7,1006.8,-1,88,0,-1,13.7,11.7,40160,111,7.9,5.1
2013,9,18,21:00,UTC,7,1006.9,-1,90,0,-1,13.5,11.8,36040,106,7,4.6
2013,9,18,22:00,UTC,7,1007.1,-1,90,0,-1,13.5,11.9,37560,109,7.6,5
2013,9,18,23:00,UTC,7,1007.1,-1,90,0,-1,13.6,12,37960,113,6.6,4
2013,9,19,00:00,UTC,7,1007.2,-1,91,0,-1,13.5,12,38170,105,7,3.8
2013,9,19,01:00,UTC,7,1007.2,-1,91,0,-1,13.5,12,36100,104,7.8,5.1
2013,9,19,02:00,UTC,7,1007.4,-1,90,0,-1,13.6,12,40510,105,8.4,5.4
2013,9,19,03:00,UTC,7,1007.4,-1,90,0,-1,13.4,11.8,42730,106,7.6,5.1
2013,9,19,04:00,UTC,7,1007.7,-1,90,0,-1,13.4,11.8,35480,108,7.1,4.5
2013,9,19,05:00,UTC,7,1007.9,-1,90,0,-1,13.6,11.9,31550,107,7.5,4.8
2013,9,19,06:00,UTC,7,1007.9,-1,87,0,-1,13.9,11.8,36530,109,8.7,5.6
2013,9,19,07:00,UTC,7,1008.1,-1,84,0,-1,14.3,11.7,31340,113,8.6,5.2
2013,9,19,08:00,UTC,7,1008.3,-1,82,0,-1,14.9,11.8,33670,114,8.6,4.7
2013,9,19,09:00,UTC,7,1008.3,-1,76,0,-1,15.5,11.3,39720,109,9.2,5.8
2013,9,19,10:00,UTC,7,1008.4,-1,75,0,-1,15.5,11.1,39160,120,8.3,4.6
2013,9,19,11:00,UTC,7,1008.4,-1,76,0,-1,15.7,11.5,37240,107,8.2,5.8
2013,9,19,12:00,UTC,7,1008.5,-1,76,0,-1,15.6,11.4,38000,118,5.6,3.4
2013,9,19,13:00,UTC,7,1008.8,-1,87,0,-1,14.1,12,6410,139,4.7,2.2
2013,9,19,14:00,UTC,7,1009.1,2.2,96,0.4,-1,13.4,12.7,8740,127,2.1,1.5
2013,9,19,15:00,UTC,8,1009.4,1.3,97,2,-1,13.3,12.9,5220,102,3.6,2.4
2013,9,19,16:00,UTC,8,1009.5,1.7,96,0.7,-1,12.9,12.2,7120,88,6.7,4.7
2013,9,19,17:00,UTC,8,1009.7,0.5,97,0.8,-1,12.5,12,5660,102,4.9,3.1
2013,9,19,18:00,UTC,8,1009.7,0.2,97,0.3,-1,12.6,12.1,7000,105,4.1,2.7
2013,9,19,19:00,UTC,7,1009.8,-1,96,0,-1,12.7,12,7800,109,6.4,3.9
2013,9,19,20:00,UTC,7,1009.8,-1,97,0,-1,12.5,12,6870,106,5.4,3.5
2013,9,19,21:00,UTC,7,1009.9,0.2,97,0,-1,12.4,11.9,6020,109,7.3,4.3
2013,9,19,22:00,UTC,7,1009.9,-1,97,0,-1,12.4,11.9,6610,124,5.3,2.7
2013,9,19,23:00,UTC,7,1009.8,-1,96,0,-1,12.3,11.8,7900,124,4.9,3.1
2013,9,20,00:00,UTC,7,1009.9,-1,96,0,-1,12.3,11.7,7870,119,4.6,2.7
2013,9,20,01:00,UTC,7,1009.9,-1,97,0,-1,12.1,11.6,6800,122,3.3,2.1
2013,9,20,02:00,UTC,7,1009.8,-1,97,0,-1,12.1,11.7,6430,113,4.2,2.8
2013,9,20,03:00,UTC,8,1010,-1,97,0,-1,12,11.5,7810,116,5.4,3.3
2013,9,20,04:00,UTC,8,1010.1,-1,96,0,-1,11.9,11.3,8770,117,7,4
2013,9,20,05:00,UTC,8,1010.2,-1,96,0,-1,11.9,11.2,8870,115,5.1,3.2
2013,9,20,06:00,UTC,7,1010.3,-1,95,0,-1,12.2,11.3,9710,100,5,3.3
2013,9,20,07:00,UTC,7,1010.4,-1,91,0,-1,12.8,11.4,13590,111,6.3,3.5
2013,9,20,08:00,UTC,7,1010.3,-1,84,0,-1,13.8,11.2,20000,117,7.7,4.5
2013,9,20,09:00,UTC,8,1010.4,-1,81,0,-1,14.3,11.2,17730,107,7.5,5.2
2013,9,20,10:00,UTC,7,1010.5,-1,76,0,-1,14.9,10.8,22060,119,6.5,4
2013,9,20,11:00,UTC,7,1010.6,-1,76,0,-1,15.1,10.9,26100,108,8.1,5.1
2013,9,20,12:00,UTC,8,1010.6,-1,78,0,-1,14.8,11,30590,104,5.8,4
2013,9,20,13:00,UTC,8,1010.7,-1,80,0,-1,14.6,11.1,24250,93,5.7,3.7
2013,9,20,14:00,UTC,8,1011.2,-1,91,0,-1,13.4,11.9,12480,102,3.1,1.9
2013,9,20,15:00,UTC,8,1011.5,-1,94,0,-1,12.8,11.8,7260,98,4.9,3
2013,9,20,16:00,UTC,8,1011.6,0.2,97,1.1,-1,12.3,11.9,2950,88,5.8,3.7
2013,9,20,17:00,UTC,8,1011.7,0.1,98,0,-1,12.2,11.9,2750,94,5.1,3.8
2013,9,20,18:00,UTC,8,1011.8,0.1,99,0,-1,12.2,11.9,3580,100,4.6,3.2
2013,9,20,19:00,UTC,8,1011.8,-1,99,0,-1,12.2,12,3930,110,4.1,2.8
2013,9,20,20:00,UTC,8,1011.7,-1,99,0,-1,12.2,12.1,4610,113,5.2,2.7
2013,9,20,21:00,UTC,8,1011.9,-1,99,0,-1,12.2,12,3740,115,4.1,2.4
2013,9,20,22:00,UTC,8,1011.8,-1,99,0,-1,12.1,12,2520,110,3.4,2.2
2013,9,20,23:00,UTC,8,1011.7,-1,99,0,-1,12.1,12,3100,103,3.9,2.3
2013,9,21,00:00,UTC,8,1011.7,-1,99,0,-1,12.1,11.9,2800,101,3.4,2.2
2013,9,21,01:00,UTC,8,1011.7,-1,99,0,-1,12.1,11.9,6590,114,3.2,2
2013,9,21,02:00,UTC,7,1011.5,0.9,99,3.4,-1,11.9,11.8,2390,113,2.7,1.7
2013,9,21,03:00,UTC,8,1011.4,0.6,99,0.4,-1,11.9,11.8,4850,106,2.6,1.8
2013,9,21,04:00,UTC,8,1011.5,0.2,99,0,-1,12,11.9,3330,115,2.6,1.3
2013,9,21,05:00,UTC,8,1011.4,0.2,99,0,-1,12.1,12,6040,116,2.7,1.8
2013,9,21,06:00,UTC,8,1011.2,0.3,99,0.4,-1,12.2,12.1,3510,118,2.1,1.5
2013,9,21,07:00,UTC,8,1011.2,0.2,99,0.2,-1,12.4,12.3,4090,122,2.5,1.4
2013,9,21,08:00,UTC,8,1011.2,0.4,99,0.4,-1,12.6,12.5,2940,116,3.5,2.2
2013,9,21,09:00,UTC,7,1011.2,0.1,99,0,-1,12.7,12.5,3850,142,3.8,1.9
2013,9,21,10:00,UTC,7,1011,-1,99,0,-1,13,12.8,4190,151,3.7,1.9
2013,9,21,11:00,UTC,7,1011,-1,99,0,-1,12.8,12.6,2910,145,4.3,2.1
2013,9,21,12:00,UTC,7,1010.8,0.9,99,0.5,-1,13.2,13.1,4950,162,2.5,1.4
2013,9,21,13:00,UTC,7,1010.7,0.1,98,0,-1,13.7,13.4,10440,139,2,1.1
2013,9,21,14:00,UTC,7,1010.4,-1,97,0,-1,14.1,13.6,17010,144,1.6,0.9
2013,9,21,15:00,UTC,7,1010.3,-1,98,0,-1,13.7,13.4,12590,143,2.4,1.3
2013,9,21,16:00,UTC,7,1010.2,-1,98,0,-1,13.3,13,9040,178,1.9,1.2
2013,9,21,17:00,UTC,8,1010.3,-1,98,0,-1,12.6,12.3,5180,219,1.9,0.9
2013,9,21,18:00,UTC,7,1010.1,0.8,98,0.4,-1,12.2,11.8,4400,231,1.9,0.8
2013,9,21,19:00,UTC,7,1009.7,-1,99,0,-1,11.9,11.7,5240,197,1.2,0.7
2013,9,21,20:00,UTC,8,1009.3,0.1,99,0,-1,11.8,11.6,10320,257,3.5,1.5
2013,9,21,21:00,UTC,8,1009.3,-1,96,0,-1,10.8,10.2,32040,278,4.4,2.2
2013,9,21,22:00,UTC,7,1009.2,-1,96,0,-1,9.8,9.2,48980,278,3.8,2.2
2013,9,21,23:00,UTC,7,1009,-1,97,0,-1,9.2,8.8,50000,269,3.3,1.8
2013,9,22,00:00,UTC,7,1008.8,-1,97,0,-1,8.5,8.1,43280,262,4.4,1.7
2013,9,22,01:00,UTC,0,1008.3,-1,98,0,-1,7.3,7,23670,268,2.1,0.9
2013,9,22,02:00,UTC,7,1008.1,-1,99,0,-1,6.5,6.4,4690,224,1.7,1
2013,9,22,03:00,UTC,7,1007.7,-1,99,0,-1,6.8,6.7,1340,237,2.5,1.1
2013,9,22,04:00,UTC,7,1007.2,-1,99,0,-1,6.8,6.7,7430,172,1.9,0.6
2013,9,22,05:00,UTC,8,1006.7,-1,99,0,-1,7.2,7.1,2360,257,2,0.8
2013,9,22,06:00,UTC,8,1006.1,-1,99,0,-1,7.4,7.3,920,209,2.6,1.2
2013,9,22,07:00,UTC,8,1005.4,-1,99,0,-1,8,7.9,1870,0,1,0
2013,9,22,08:00,UTC,8,1004.9,-1,99,0,-1,8.8,8.7,13600,191,2,0.9
2013,9,22,09:00,UTC,7,1004.3,-1,96,0,-1,9.3,8.8,37980,207,3.2,1.8
2013,9,22,10:00,UTC,8,1003.8,-1,93,0,-1,10.1,9.1,37230,198,2.4,1.2
2013,9,22,11:00,UTC,8,1003.1,-1,92,0,-1,10.3,9.1,45020,261,2.4,1.2
2013,9,22,12:00,UTC,7,1002.2,-1,79,0,-1,11.2,7.7,46480,312,2.5,1.7
2013,9,22,13:00,UTC,7,1001.6,-1,86,0,-1,10.9,8.7,50000,295,3.4,2.3
2013,9,22,14:00,UTC,8,1001.6,1.4,92,0,-1,8.1,6.9,18890,297,4.7,3.4
2013,9,22,15:00,UTC,7,1001,0.3,97,0,-1,8,7.6,43340,248,2.6,1.4
2013,9,22,16:00,UTC,8,1001.1,1.8,93,4.6,-1,7.5,6.5,16380,335,8.2,5.8
2013,9,22,17:00,UTC,7,1000.6,0.9,96,0.8,-1,6.6,6,14820,335,2.7,2.1
2013,9,22,18:00,UTC,7,999.9,0.3,97,0,-1,6.5,6.1,24470,297,2.1,1.4
2013,9,22,19:00,UTC,7,999.3,-1,98,0,-1,7,6.7,24350,318,3.4,2.5
2013,9,22,20:00,UTC,7,998.6,0.4,97,0.8,-1,7.1,6.6,29940,324,4.8,3.4
2013,9,22,21:00,UTC,7,998.1,-1,97,0,-1,7.4,7,14130,303,5.8,4.3
2013,9,22,22:00,UTC,7,997.5,-1,97,0,-1,7.3,6.8,50000,311,5.2,4
2013,9,22,23:00,UTC,8,996.7,-1,96,0,-1,7.7,7.1,20770,303,6.9,5.2
2013,9,23,00:00,UTC,7,995.6,1.2,95,2.9,-1,7.6,6.8,10910,311,10.4,7.4
2013,9,23,01:00,UTC,8,994.8,2.4,97,4.7,-1,7.6,7.1,8180,309,9.9,7.4
2013,9,23,02:00,UTC,7,994.6,0.8,97,0.5,-1,8.1,7.6,5790,333,9.6,7.2
2013,9,23,03:00,UTC,7,995.4,0.4,96,0,-1,8.5,8,9930,15,8.3,5.7
2013,9,23,04:00,UTC,7,996.5,1.3,97,4.2,-1,8.1,7.7,4880,62,6.2,4.2
2013,9,23,05:00,UTC,8,997.6,0.1,95,0,-1,8.1,7.4,50000,50,6.5,4
2013,9,23,06:00,UTC,8,998.7,-1,94,0,-1,8.3,7.5,50000,51,7.1,4.2
2013,9,23,07:00,UTC,7,999.6,0.2,96,1.2,-1,8.7,8,15790,29,5.3,3.5
2013,9,23,08:00,UTC,7,1000.1,0.1,94,0,-1,8.6,7.7,25890,16,7.9,4.7
2013,9,23,09:00,UTC,7,1000.8,-1,93,0,-1,8.9,7.9,20200,19,7.9,5.1
2013,9,23,10:00,UTC,7,1001.7,0.3,92,0,-1,8.5,7.3,16530,26,10.3,6.3
2013,9,23,11:00,UTC,8,1002.8,-1,91,0,-1,8,6.7,25830,21,9.9,6.8
2013,9,23,12:00,UTC,8,1003.6,-1,88,0,-1,8.2,6.3,32070,16,8.2,5.1
2013,9,23,13:00,UTC,8,1004.1,-1,87,0,-1,8.2,6.1,42880,10,9,5.1
2013,9,23,14:00,UTC,8,1004.8,-1,83,0,-1,8.2,5.5,50000,16,8,4.8
2013,9,23,15:00,UTC,8,1005.7,-1,81,0,-1,7.8,4.7,50000,7,6.9,4.4
2013,9,23,16:00,UTC,7,1006.2,-1,79,0,-1,7.4,3.9,50000,7,6.6,4.4
2013,9,23,17:00,UTC,1,1006.6,-1,75,0,-1,6.2,2.2,50000,7,6.7,4.3
2013,9,23,18:00,UTC,3,1006.9,-1,85,0,-1,5,2.7,50000,340,4.9,3.1
2013,9,23,19:00,UTC,3,1007.1,-1,86,0,-1,4.8,2.8,50000,344,6.2,3.5
2013,9,23,20:00,UTC,3,1007.3,-1,86,0,-1,5.8,3.7,50000,357,6.5,4.3
2013,9,23,21:00,UTC,7,1007.4,-1,87,0,-1,6,4,50000,359,5.9,4.2
2013,9,23,22:00,UTC,7,1007.5,-1,85,0,-1,6.3,4,50000,350,5,3.5
2013,9,23,23:00,UTC,7,1007.6,-1,84,0,-1,6.5,4,50000,349,6.6,4.5
2013,9,24,00:00,UTC,7,1007.6,-1,82,0,-1,6.5,3.7,50000,1,6.7,4.3
2013,9,24,01:00,UTC,7,1007.7,-1,83,0,-1,6.2,3.5,50000,360,8,5.2
2013,9,24,02:00,UTC,7,1007.7,-1,84,0,-1,5.8,3.4,50000,2,5.7,4
2013,9,24,03:00,UTC,7,1007.9,-1,85,0,-1,4.8,2.5,50000,360,6.7,4.4
2013,9,24,04:00,UTC,7,1008,-1,82,0,-1,5.1,2.3,42670,5,6.8,4.7
2013,9,24,05:00,UTC,7,1008.2,-1,82,0,-1,4.8,2.1,46790,359,7.3,4.8
2013,9,24,06:00,UTC,7,1008.2,-1,82,0,-1,4.6,1.8,45860,3,9,5.8
2013,9,24,07:00,UTC,7,1008.3,,80,0,-1,4.8,1.6,50000,2,8.7,6.2
2013,9,24,08:00,UTC,7,1008.5,,74,0,-1,5.1,0.9,50000,14,10.9,6.4
2013,9,24,09:00,UTC,7,1008.3,,68,0,-1,6.4,0.9,37100,5,9.7,5.8
2013,9,24,10:00,UTC,7,1008.7,,78,0,-1,6.4,2.8,30730,11,8,4.7
2013,9,24,11:00,UTC,5,1008.5,,66,0,-1,7.1,1.1,37730,23,10,5.5
2013,9,24,12:00,UTC,3,1008.8,,73,0,-1,6.3,1.8,50000,2,10.6,7.2
2013,9,24,13:00,UTC,5,1008.9,,82,0,-1,5.9,3,43820,340,9.1,6.3
2013,9,24,14:00,UTC,3,1008.9,,77,0,-1,5.3,1.5,41600,345,5.8,4.5
2013,9,24,15:00,UTC,7,1008.9,,78,0,-1,5.6,2.1,50000,332,8,6.2
2013,9,24,16:00,UTC,7,1009.3,,84,0,-1,3.9,1.4,50000,329,6.6,4.5
2013,9,24,17:00,UTC,1,1009.3,,85,0,-1,3.3,1,50000,336,8,5.9
2013,9,24,18:00,UTC,7,1009.4,,87,0,-1,2.7,0.8,50000,336,7.5,5.2
2013,9,24,19:00,UTC,7,1009.5,-1,87,0,-1,2.9,1,50000,339,6.2,4.6
2013,9,24,20:00,UTC,5,1009.6,-1,93,0,-1,1.9,0.9,50000,331,4.5,3.8
2013,9,24,21:00,UTC,7,1009.6,-1,88,0,-1,2.6,0.8,50000,334,5.5,4.5
2013,9,24,22:00,UTC,3,1009.7,-1,91,0,-1,1.9,0.6,50000,327,5.8,4.4
2013,9,24,23:00,UTC,7,1009.6,-1,89,0,-1,2.5,0.9,50000,339,5.7,4.3
2013,9,25,00:00,UTC,7,1009.3,-1,88,0,-1,2.8,0.9,50000,338,5.6,4
2013,9,25,01:00,UTC,7,1009.1,-1,82,0,-1,2.9,0.1,50000,7,9.2,6.1
2013,9,25,02:00,UTC,7,1009.2,-1,80,0,-1,2.6,-0.5,50000,4,9.8,6
2013,9,25,03:00,UTC,3,1009.4,-1,82,0,-1,2.3,-0.5,50000,10,6.4,4.4
2013,9,25,04:00,UTC,5,1009.4,-1,88,0,-1,1.5,-0.3,50000,332,6.8,5
2013,9,25,05:00,UTC,5,1009.3,-1,88,0,-1,1.3,-0.4,47630,335,7.5,5.5
2013,9,25,06:00,UTC,7,1009.2,-1,85,0,-1,1.5,-0.7,50000,330,8,6.1
2013,9,25,07:00,UTC,5,1009,,85,0,-1,1.8,-0.4,25280,333,8.4,5.9
2013,9,25,08:00,UTC,7,1008.7,,79,0,-1,2.6,-0.8,40800,329,8.2,5.8
2013,9,25,09:00,UTC,7,1008.8,,86,2.2,-1,2.1,0.1,7230,337,8.5,5.6
2013,9,25,10:00,UTC,,1008.8,,83,,-1,3.1,0.5,36610,337,7.8,5.4
2013,9,25,11:00,UTC,,1008.6,,68,,-1,3.5,-1.8,33470,341,10.8,6.7
2013,9,25,12:00,UTC,7,1008.4,,70,0,-1,5.2,0.1,39680,322,12.2,8.4
2013,9,25,13:00,UTC,5,1008.3,,60,,-1,3.9,-3.1,34150,,,
2013,9,25,14:00,UTC,5,1008.1,,56,0,-1,3.9,-4.2,50000,338,10.7,7.8
2013,9,25,15:00,UTC,7,1008.1,,61,0,-1,3.9,-3,49540,339,10,6.2
2013,9,25,16:00,UTC,3,1007.9,,76,0,-1,1.9,-1.9,50000,325,7.7,5.3
2013,9,25,17:00,UTC,5,1007.8,,75,0,-1,1.5,-2.5,50000,315,7.4,5.8
2013,9,25,18:00,UTC,1,1007.4,,76,0,-1,1.1,-2.7,50000,306,6.9,5.1
2013,9,25,19:00,UTC,7,1006.9,0,77,0,-1,1.4,-2.2,50000,310,6.4,4.7
2013,9,25,20:00,UTC,7,1006.2,0,78,0,-1,1.7,-1.7,50000,310,6.3,5.1
2013,9,25,21:00,UTC,7,1005.7,0,78,0,-1,1.6,-1.9,50000,295,7.1,5.1
2013,9,25,22:00,UTC,7,1005.2,0,79,0,-1,1.4,-1.9,50000,295,6.9,4.9
2013,9,25,23:00,UTC,5,1004.8,0,80,0,-1,0.9,-2.1,50000,296,6.8,5
2013,9,26,00:00,UTC,7,1004.4,0,80,0,-1,1,-2.1,50000,296,8.1,5.5
2013,9,26,01:00,UTC,5,1003.7,0,81,0,-1,0.9,-2,50000,294,6.7,4.9
2013,9,26,02:00,UTC,5,1003.1,0,81,0,-1,1.3,-1.5,50000,308,7.3,5.2
2013,9,26,03:00,UTC,8,1002.5,0,81,0,-1,1.8,-1.2,50000,303,9.2,6.3
2013,9,26,04:00,UTC,8,1002,0.1,82,0,-1,2.1,-0.6,50000,309,9.5,7.1
2013,9,26,05:00,UTC,8,1001.7,0,83,0,-1,2.4,-0.1,16910,305,8,5.8
2013,9,26,06:00,UTC,8,1001.2,0.6,90,0.9,-1,2.1,0.6,13710,303,7.9,4.9
2013,9,26,07:00,UTC,8,1000.9,0.5,90,0.9,-1,2.5,1,17960,307,7.2,5.2
2013,9,26,08:00,UTC,8,1000.8,0.3,90,0.5,-1,3.1,1.5,5700,315,8.4,5.6
2013,9,26,09:00,UTC,8,1000.9,0.3,89,0.5,-1,3.4,1.8,12420,321,7.5,5.5
2013,9,26,10:00,UTC,8,1001.2,0.4,89,0.3,-1,3.5,1.9,33980,325,7,4.9
2013,9,26,11:00,UTC,8,1001.7,1,90,1.6,-1,2.8,1.3,21450,328,8,5.6
2013,9,26,12:00,UTC,8,1001.9,1.1,91,0.8,-1,2.7,1.4,42630,327,6.5,4.7
2013,9,26,13:00,UTC,8,1001.5,0.2,93,0,-1,3.8,2.7,4180,309,6.6,5.2
2013,9,26,14:00,UTC,8,1001.5,0.2,94,0.4,-1,4.9,4,12870,326,7.3,5.5
2013,9,26,15:00,UTC,8,1001.7,0.3,93,0,-1,5.6,4.5,14830,330,8,5.4
2013,9,26,16:00,UTC,8,1001.8,0.2,93,0.3,-1,6,5,29440,334,7.8,5.6
2013,9,26,17:00,UTC,8,1002.2,0.1,93,0.3,-1,6.1,5,46290,337,6.9,4.9
2013,9,26,18:00,UTC,8,1002.5,0.1,93,0,-1,6.3,5.2,26700,337,7.2,4.9
2013,9,26,19:00,UTC,8,1002.5,0.1,92,0,-1,6.3,5,39300,340,6.9,5.1
2013,9,26,20:00,UTC,7,1002.5,0.2,93,0.3,-1,6,4.9,4750,334,8,6
2013,9,26,21:00,UTC,8,1002.7,0.2,92,0,-1,5.9,4.8,28800,325,6.8,5
2013,9,26,22:00,UTC,8,1002.8,0.1,92,0.3,-1,5.8,4.7,50000,327,6.6,4.9
2013,9,26,23:00,UTC,8,1002.8,0.1,93,0.3,-1,5.8,4.7,8770,317,4.9,4
2013,9,27,00:00,UTC,8,1002.8,0,93,0,-1,5.7,4.7,50000,315,5.7,4.3
2013,9,27,01:00,UTC,8,1002.8,0,94,0,-1,5.6,4.7,9240,310,4.4,3.5
2013,9,27,02:00,UTC,8,1002.9,0.1,91,0.4,-1,5.8,4.5,50000,330,6.1,4.3
2013,9,27,03:00,UTC,7,1002.8,0.1,92,0.3,-1,5.4,4.1,50000,334,6.1,4.4
2013,9,27,04:00,UTC,8,1002.9,0,92,0,-1,5.4,4.1,36780,322,4.8,3.7
2013,9,27,05:00,UTC,8,1003.1,0,91,0,-1,5.6,4.3,36960,325,4.4,3.5
2013,9,27,06:00,UTC,7,1003.6,0,91,0,-1,5.9,4.5,40500,339,4.3,2.9
2013,9,27,07:00,UTC,8,1004.1,0,91,0,-1,6,4.8,21110,340,2.5,1.8
2013,9,27,08:00,UTC,8,1004.5,0,89,0,-1,6.9,5.2,41070,348,3.5,2.4
2013,9,27,09:00,UTC,7,1005.1,0,83,0,-1,7,4.3,31840,35,5,3
2013,9,27,10:00,UTC,8,1005.7,0,82,0,-1,7.4,4.5,50000,346,4.5,3.2
2013,9,27,11:00,UTC,8,1006.1,0,83,0,-1,8.1,5.3,49610,348,5.7,3.7
2013,9,27,12:00,UTC,8,1006.9,1.2,92,4.4,-1,7,5.7,5120,89,4.8,3.2
2013,9,27,13:00,UTC,7,1007.6,2.1,92,0.1,-1,7.3,6,27430,54,3.5,2
2013,9,27,14:00,UTC,7,1008.4,0,87,0,-1,6.9,4.9,50000,91,3.9,2.9
2013,9,27,15:00,UTC,7,1009.1,0,87,0,-1,6.3,4.3,50000,77,2.8,1.7
2013,9,27,16:00,UTC,8,1010,0,90,0,-1,5.5,3.9,50000,44,2.5,1.5
2013,9,27,17:00,UTC,7,1011,0,91,0,-1,4.7,3.3,50000,33,2.4,1.6
2013,9,27,18:00,UTC,8,1011.6,0,93,0,-1,4.8,3.8,49490,23,2.9,2
2013,9,27,19:00,UTC,8,1012.1,0,89,0,-1,5.2,3.5,50000,27,3,2.1
2013,9,27,20:00,UTC,7,1012.6,0,94,0,-1,4.8,3.9,50000,13,3.4,2.4
2013,9,27,21:00,UTC,8,1013.3,0,92,0,-1,4.5,3.3,50000,35,3.1,2.4
2013,9,27,22:00,UTC,3,1013.9,0,92,0,-1,3.6,2.5,50000,26,3.2,2
2013,9,27,23:00,UTC,5,1014.4,0,93,0,-1,3.2,2.1,50000,5,2.3,1.5
2013,9,28,00:00,UTC,7,1014.6,0,89,0,-1,4.2,2.6,50000,14,3.6,2.3
2013,9,28,01:00,UTC,8,1015.1,0,89,0,-1,4.5,2.9,50000,25,3.7,2.7
2013,9,28,02:00,UTC,8,1015.5,0,89,0,-1,4.7,3,50000,8,3.2,1.9
2013,9,28,03:00,UTC,7,1015.8,0,91,0,-1,4.6,3.2,50000,1,3.8,2.5
2013,9,28,04:00,UTC,8,1016.1,0,93,0,-1,4.7,3.7,50000,340,4,2.7
2013,9,28,05:00,UTC,7,1016.5,0.1,93,0,-1,5.1,4,50000,352,5.2,3.9
2013,9,28,06:00,UTC,8,1016.9,0,93,0,-1,5.7,4.7,49970,1,4.7,3
2013,9,28,07:00,UTC,8,1017.4,0,88,0,-1,6.4,4.5,48410,21,6.1,3.9
2013,9,28,08:00,UTC,7,1017.6,0,85,0,-1,7.2,4.8,50000,19,4.6,3.2
2013,9,28,09:00,UTC,5,1017.9,0,76,0,-1,8,4,50000,6,6.7,4.6
2013,9,28,10:00,UTC,7,1018.1,0,76,0,-1,8.4,4.3,50000,21,5,3.3
2013,9,28,11:00,UTC,8,1018.2,0,75,0,-1,8.4,4.2,50000,350,5.3,3.9
2013,9,28,12:00,UTC,8,1018.3,0,76,0,-1,8.2,4.2,41630,346,6.4,4.2
2013,9,28,13:00,UTC,8,1018.2,0,79,0,-1,8.3,4.9,50000,341,5.3,3.7
2013,9,28,14:00,UTC,7,1018.1,0,74,0,-1,8.9,4.5,48940,343,6.7,4.4
2013,9,28,15:00,UTC,7,1018.2,0,80,0,-1,8.2,4.9,50000,342,5.2,3.8
2013,9,28,16:00,UTC,8,1018.6,0,83,0,-1,7.3,4.7,50000,327,4.8,3.6
2013,9,28,17:00,UTC,7,1018.9,0.9,92,0.1,-1,6.8,5.5,14940,331,5.1,3.6
2013,9,28,18:00,UTC,7,1019.4,0.5,90,0.2,-1,6.6,5,43700,10,5.6,3.9
2013,9,28,19:00,UTC,7,1019.8,0,87,0,-1,5.9,3.9,50000,23,5.1,3.7
2013,9,28,20:00,UTC,7,1020.1,0,89,0,-1,5.5,3.8,39100,16,5.5,3.2
2013,9,28,21:00,UTC,7,1020.3,0,86,0,-1,5.4,3.2,45360,14,5.2,3.7
2013,9,28,22:00,UTC,7,1020.7,0,81,0,-1,5.2,2.2,50000,26,8.6,4.7
2013,9,28,23:00,UTC,7,1021.1,0,85,0,-1,5,2.6,42430,13,3,2.2
2013,9,29,00:00,UTC,7,1021.3,0,79,0,-1,4.7,1.4,39820,17,5.7,3.5
2013,9,29,01:00,UTC,7,1021.6,0,79,0,-1,4.5,1.2,39490,12,4.1,2.6
2013,9,29,02:00,UTC,7,1021.8,0,84,0,-1,3.8,1.2,35450,357,3.1,2.3
2013,9,29,03:00,UTC,7,1021.8,0,85,0,-1,3.7,1.3,34880,340,3.1,2.1
2013,9,29,04:00,UTC,7,1021.8,0,85,0,-1,3.7,1.3,28510,315,2.1,1.7
2013,9,29,05:00,UTC,7,1022.1,0.1,86,0.7,-1,3.5,1.4,9070,21,6.6,3.4
2013,9,29,06:00,UTC,7,1022.1,0.3,90,0,-1,3.4,1.9,18920,343,3,1.8
2013,9,29,07:00,UTC,7,1022.1,0.1,88,0.3,-1,3.9,2.1,30600,359,3.7,2.6
2013,9,29,08:00,UTC,7,1022.2,0,82,0,-1,3.7,1,38270,7,5.7,3.6
2013,9,29,09:00,UTC,7,1022.4,0,77,0,-1,3.6,-0.1,48220,17,5,3.8
2013,9,29,10:00,UTC,7,1022.5,0,78,0,-1,3.6,0.1,26280,16,6.3,4.5
2013,9,29,11:00,UTC,7,1022.2,0,75,0,-1,4.2,0.2,49370,332,5.3,3.8
2013,9,29,12:00,UTC,7,1022.4,0,64,0,-1,4.1,-2.2,50000,352,5.6,3.9
2013,9,29,13:00,UTC,7,1022.4,0,63,0,-1,3.8,-2.5,50000,355,5.2,4.1
2013,9,29,14:00,UTC,7,1022.4,0,64,0,-1,3.7,-2.4,50000,10,4.3,3
2013,9,29,15:00,UTC,7,1022.6,0,63,0,-1,3.1,-3.3,50000,42,5.5,3.7
2013,9,29,16:00,UTC,7,1022.8,0,64,0,-1,2.7,-3.4,41010,11,4.8,2.7
2013,9,29,17:00,UTC,1,1022.8,0,71,0,-1,0.9,-3.9,36270,326,3.5,2.9
2013,9,29,18:00,UTC,1,1022.8,0,78,0,-1,-0.5,-3.9,25190,316,2.9,2.5
2013,9,29,19:00,UTC,7,1022.9,0,79,0,-1,0.1,-3.1,46940,333,2.4,1.8
2013,9,29,20:00,UTC,0,1022.9,0,78,0,-1,-0.6,-4,50000,341,3.7,3
2013,9,29,21:00,UTC,5,1022.9,0,80,0,-1,-0.4,-3.5,50000,330,4.2,3.1
2013,9,29,22:00,UTC,7,1022.9,0,78,0,-1,0.8,-2.5,50000,336,4.3,2.9
2013,9,29,23:00,UTC,7,1023,0,79,0,-1,1.1,-2.1,50000,332,3.8,3
2013,9,30,00:00,UTC,7,1023,0,82,0,-1,0.7,-2,50000,323,3.3,2.5
2013,9,30,01:00,UTC,7,1023.1,0,85,0,-1,0,-2.1,50000,333,3.8,2.7
2013,9,30,02:00,UTC,7,1023.1,0,88,0,-1,0.2,-1.5,50000,329,3.8,2.9
2013,9,30,03:00,UTC,8,1023.1,0,89,0,-1,0.3,-1.3,50000,310,2.9,2.5
2013,9,30,04:00,UTC,8,1023,0,86,0,-1,0.9,-1.2,50000,334,4.4,3.2
2013,9,30,05:00,UTC,8,1023.1,0,86,0,-1,1.2,-0.9,50000,330,4.4,3.4
2013,9,30,06:00,UTC,8,1023,0,83,0,-1,1.8,-0.8,50000,316,3.9,2.9
2013,9,30,07:00,UTC,8,1023.1,0,78,0,-1,2.8,-0.6,50000,328,4.5,3.5
2013,9,30,08:00,UTC,8,1023,0,70,0,-1,3.8,-1.1,50000,337,6,4.6
2013,9,30,09:00,UTC,8,1022.9,0,67,0,-1,4,-1.6,50000,23,3.7,2.2
2013,9,30,10:00,UTC,7,1022.8,0,55,0,-1,4.7,-3.7,47860,346,7.2,4.8
2013,9,30,11:00,UTC,5,1022.8,0,67,0,-1,4.4,-1.2,38810,326,7.2,5.6
2013,9,30,12:00,UTC,7,1023.2,0.3,88,0,-1,2.4,0.7,8270,317,4.8,3.6
2013,9,30,13:00,UTC,7,1023.1,0.2,80,0,-1,3.4,0.3,22120,7,8.3,4.8
2013,9,30,14:00,UTC,8,1023.1,0,72,0,-1,3.2,-1.4,50000,333,6.3,4.4
2013,9,30,15:00,UTC,7,1023.1,0,75,0,-1,2.9,-1,46420,13,5.8,3.8
2013,9,30,16:00,UTC,8,1023.2,0,72,0,-1,2.8,-1.7,50000,329,6.6,4.7
2013,9,30,17:00,UTC,8,1023.3,0,76,0,-1,2.4,-1.3,50000,330,5.5,3.9
2013,9,30,18:00,UTC,7,1023.6,0,78,0,-1,2.2,-1.3,50000,333,4.9,3.5
2013,9,30,19:00,UTC,8,1023.7,0,76,0,-1,2,-1.7,50000,333,4.4,3.1
2013,9,30,20:00,UTC,8,1024,0,76,0,-1,1.8,-2,50000,329,4.3,2.6
2013,9,30,21:00,UTC,8,1024,0,74,0,-1,1.7,-2.5,50000,328,4.3,3.3
2013,9,30,22:00,UTC,8,1024.2,0,70,0,-1,1.9,-3,50000,333,4.8,3.4
2013,9,30,23:00,UTC,8,1024.3,0,70,0,-1,1.8,-3.1,50000,329,4.6,3.5
2013,10,1,00:00,UTC,8,1024.2,0,72,0,-1,1.7,-2.8,50000,332,4.2,3.2
2013,10,1,01:00,UTC,8,1024.3,0,74,0,-1,1.8,-2.4,50000,331,4.1,3.1
2013,10,1,02:00,UTC,8,1024.4,0,76,0,-1,1.8,-2,50000,331,4.1,3
2013,10,1,03:00,UTC,8,1024.6,0,78,0,-1,1.7,-1.6,50000,327,3.7,2.9
2013,10,1,04:00,UTC,8,1024.8,0,80,0,-1,1.7,-1.4,50000,324,4.5,3.2
2013,10,1,05:00,UTC,8,1024.9,0,80,0,-1,1.9,-1.1,50000,331,4.1,3
2013,10,1,06:00,UTC,8,1025.1,0,81,0,-1,2.2,-0.8,50000,332,3.7,2.8
2013,10,1,07:00,UTC,8,1025.2,0,79,0,-1,2.7,-0.5,47540,344,3.4,2.5
2013,10,1,08:00,UTC,8,1025.4,0,79,0,-1,3.5,0.3,50000,347,4.3,3
2013,10,1,09:00,UTC,8,1025.5,0,71,0,-1,4.2,-0.5,48370,356,4.3,2.9
2013,10,1,10:00,UTC,8,1025.6,0,68,0,-1,4,-1.5,50000,344,5.1,2.8
2013,10,1,11:00,UTC,8,1025.4,0,71,0,-1,4,-0.8,46310,332,5.2,3.4
2013,10,1,12:00,UTC,8,1025.4,0,66,0,-1,4.2,-1.6,50000,331,4.2,3.1
2013,10,1,13:00,UTC,8,1025.4,0,56,0,-1,4.1,-3.8,50000,3,5.1,3.4
2013,10,1,14:00,UTC,8,1025.4,0,58,0,-1,4.2,-3.5,50000,311,3.2,1.9
2013,10,1,15:00,UTC,8,1025.5,0,63,0,-1,3.7,-2.6,50000,290,2.3,1.5
2013,10,1,16:00,UTC,8,1025.7,0,72,0,-1,2.7,-1.9,50000,282,2.5,1.6
2013,10,1,17:00,UTC,8,1026,0,71,0,-1,2.6,-2.2,50000,331,1.9,1.3
2013,10,1,18:00,UTC,8,1026.4,0,74,0,-1,1.9,-2.3,50000,298,2.1,1.4
2013,10,1,19:00,UTC,8,1026.4,0,71,0,-1,2.1,-2.5,46440,272,2.3,1.5
2013,10,1,20:00,UTC,7,1026.6,0,75,0,-1,1.5,-2.5,50000,276,2.1,1.5
2013,10,1,21:00,UTC,8,1027.1,0,82,0,-1,0.3,-2.4,48280,322,1.1,0.8
2013,10,1,22:00,UTC,0,1027.2,0,88,0,-1,-1.7,-3.5,50000,0,1.2,0
2013,10,1,23:00,UTC,0,1027.5,0,92,0,-1,-2.8,-3.9,19700,325,0.9,0.7
2013,10,2,00:00,UTC,0,1027.6,0,93,0,-1,-3.3,-4.4,35680,154,1.3,1
2013,10,2,01:00,UTC,0,1027.8,0,93,0,-1,-3.8,-4.8,20950,0,0.5,0
2013,10,2,02:00,UTC,0,1027.9,0,92,0,-1,-4.2,-5.3,41160,167,1.1,0.7
2013,10,2,03:00,UTC,5,1027.6,0,92,0,-1,-3.8,-4.9,45490,179,1.9,1.2
2013,10,2,04:00,UTC,7,1027.3,0,93,0,-1,-2.8,-3.9,35980,161,1.8,1.3
2013,10,2,05:00,UTC,8,1027.2,0,92,0,-1,-1.9,-3,45720,137,2,1.4
2013,10,2,06:00,UTC,8,1027.3,0,92,0,-1,-0.5,-1.6,40600,223,2.6,1.4
2013,10,2,07:00,UTC,8,1027.2,0,84,0,-1,1.5,-1,41590,171,2.2,1.3
2013,10,2,08:00,UTC,8,1027.3,0,82,0,-1,2.2,-0.6,46630,155,2.3,0.9
2013,10,2,09:00,UTC,8,1027.1,0.1,81,0,-1,3.3,0.3,42120,168,2.9,1.4
2013,10,2,10:00,UTC,8,1027,0.2,82,0.3,-1,3.6,0.8,31020,200,4,1.5
2013,10,2,11:00,UTC,8,1026.8,0.2,86,0.4,-1,4,1.8,23650,183,2.4,1.4
2013,10,2,12:00,UTC,8,1026.2,0,82,0,-1,5.1,2.2,50000,181,3.4,1.6
2013,10,2,13:00,UTC,8,1026.1,0,77,0,-1,6.5,2.7,50000,218,3.1,1.4
2013,10,2,14:00,UTC,8,1025.7,0,72,0,-1,7.3,2.6,50000,226,5.7,2.5
2013,10,2,15:00,UTC,8,1025.9,0,73,0,-1,7.2,2.6,50000,228,3.9,2.1
2013,10,2,16:00,UTC,3,1025.7,0,76,0,-1,6.2,2.3,50000,220,4.1,1.8
2013,10,2,17:00,UTC,8,1025.9,0,76,0,-1,6.6,2.6,50000,224,4.3,2
2013,10,2,18:00,UTC,8,1026.1,0,78,0,-1,6.4,2.9,50000,217,3.4,1.4
2013,10,2,19:00,UTC,7,1026.3,0,82,0,-1,5.9,3.1,50000,212,3.1,1.2
2013,10,2,20:00,UTC,7,1026.3,0,83,0,-1,6,3.3,50000,252,4.2,1.1
2013,10,2,21:00,UTC,7,1026.4,0,85,0,-1,6.4,4,50000,277,3.7,1.5
2013,10,2,22:00,UTC,7,1026.5,0,84,0,-1,6.6,4.1,50000,267,5.2,2.2
2013,10,2,23:00,UTC,8,1026.5,0,85,0,-1,6.5,4.1,50000,263,3.7,1.3
2013,10,3,00:00,UTC,8,1026.6,0,86,0,-1,6.3,4.1,50000,275,3.9,1.6
2013,10,3,01:00,UTC,7,1026.5,0,87,0,-1,6.2,4.2,49610,239,2.9,1.2
2013,10,3,02:00,UTC,8,1026.4,0,89,0,-1,6,4.3,48630,262,3.3,1.3
2013,10,3,03:00,UTC,8,1026.6,0,90,0,-1,5.8,4.3,39100,261,3.3,1.4
2013,10,3,04:00,UTC,8,1026.7,0,91,0,-1,5.6,4.2,36910,260,3.3,1.3
2013,10,3,05:00,UTC,8,1026.7,0,91,0,-1,5.3,4,35040,241,3.5,1.3
2013,10,3,06:00,UTC,8,1027.2,0,91,0,-1,5.3,3.9,30230,261,4.8,1.9
2013,10,3,07:00,UTC,8,1027.4,0,90,0,-1,5.4,3.9,44180,265,2.7,1.3
2013,10,3,08:00,UTC,8,1027.5,0,88,0,-1,6.4,4.6,50000,249,3.6,1.6
2013,10,3,09:00,UTC,8,1027.4,0,84,0,-1,7.5,4.9,47510,266,4.1,1.7
2013,10,3,10:00,UTC,7,1027.2,0,79,0,-1,8.4,5,46830,246,3.4,1.5
2013,10,3,11:00,UTC,3,1026.9,0,76,0,-1,8.8,4.8,49540,248,3.1,1.8
2013,10,3,12:00,UTC,3,1026.7,0,73,0,-1,9.7,5,40760,240,4.9,2.5
2013,10,3,13:00,UTC,0,1026.5,0,70,0,-1,10.1,5,41700,258,4.8,2.6
2013,10,3,14:00,UTC,0,1026.5,0,73,0,-1,9.6,5.1,48490,199,2.9,1.5
2013,10,3,15:00,UTC,0,1026.5,0,78,0,-1,8.6,5,49360,212,2.9,1.3
2013,10,3,16:00,UTC,0,1026.6,0,90,0,-1,6.1,4.6,32590,196,1.1,0.7
2013,10,3,17:00,UTC,0,1026.8,0,94,0,-1,3.7,2.8,5190,179,1.7,1
2013,10,3,18:00,UTC,0,1026.9,0,95,0,-1,2.2,1.5,1050,134,1,0.8
2013,10,3,19:00,UTC,0,1026.8,0,95,0,-1,0.5,-0.2,1840,0,0.7,0
2013,10,3,20:00,UTC,0,1027,0,95,0,-1,0.7,0,8660,249,2.2,1
2013,10,3,21:00,UTC,3,1026.9,0,95,0,-1,1.8,1.1,11690,239,2.3,1
2013,10,3,22:00,UTC,0,1026.9,0,95,0,-1,0.3,-0.4,9630,165,1.7,0.7
2013,10,3,23:00,UTC,0,1026.7,0,95,0,-1,-0.7,-1.3,9970,153,2.3,1.5
2013,10,4,00:00,UTC,0,1026.2,0,96,0,-1,1.3,0.7,5120,161,2.4,1.4
2013,10,4,01:00,UTC,0,1026,0,96,0,-1,1.5,1,6910,172,3,1.8
2013,10,4,02:00,UTC,0,1025.6,0,96,0,-1,1.1,0.5,620,139,2,1.5
2013,10,4,03:00,UTC,0,1025.3,0,96,0,-1,0.6,0,450,139,1.9,1.4
2013,10,4,04:00,UTC,1,1025.1,0,96,0,-1,0.1,-0.5,1450,157,2.5,1.7
2013,10,4,05:00,UTC,7,1024.6,0,97,0,-1,3.5,3,12030,194,3.3,1.8
2013,10,4,06:00,UTC,8,1024.1,0,96,0,-1,5.2,4.6,26870,213,5.1,2.7
2013,10,4,07:00,UTC,8,1023.7,0,91,0,-1,5.7,4.4,31310,209,3.8,1.7
2013,10,4,08:00,UTC,7,1023.5,0.1,86,0,-1,6.3,4.2,39030,230,7.3,3.2
2013,10,4,09:00,UTC,7,1023.2,0,81,0,-1,7.2,4.1,37790,222,7.4,3.2
2013,10,4,10:00,UTC,7,1023,0,78,0,-1,7.9,4.3,43270,223,5.4,2.7
2013,10,4,11:00,UTC,1,1022.9,0,69,0,-1,9.4,4,48940,219,9.5,3.5
2013,10,4,12:00,UTC,0,1022.4,0,62,0,-1,10.8,3.7,42610,220,7.8,3.7
2013,10,4,13:00,UTC,7,1021.9,0,61,0,-1,11.3,4.2,31410,210,7.4,3
2013,10,4,14:00,UTC,7,1021.5,0,61,0,-1,10.9,3.7,44410,209,6.3,3.5
2013,10,4,15:00,UTC,1,1021.1,0,61,0,-1,9.8,2.6,50000,211,6.7,3
2013,10,4,16:00,UTC,0,1021.2,0,60,0,-1,8.3,0.9,50000,199,6.1,2.4
2013,10,4,17:00,UTC,0,1020.9,0,66,0,-1,7.2,1.4,50000,195,4.4,2
2013,10,4,18:00,UTC,0,1020.5,0,68,0,-1,7.3,1.8,50000,205,5.3,2.6
2013,10,4,19:00,UTC,0,1020.1,0,73,0,-1,7.1,2.5,50000,193,7.3,2.6
2013,10,4,20:00,UTC,1,1019.8,0,79,0,-1,6.5,3.2,43500,202,4.9,2.5
2013,10,4,21:00,UTC,7,1019.4,0,83,0,-1,6.4,3.7,43440,198,8.3,3
2013,10,4,22:00,UTC,3,1019.1,0,86,0,-1,5.8,3.6,33990,203,5.7,2.6
2013,10,4,23:00,UTC,7,1018.6,0,84,0,-1,6.6,4,36730,208,7.3,3
2013,10,5,00:00,UTC,7,1017.8,0,83,0,-1,6.6,3.9,35030,201,5.9,2.8
2013,10,5,01:00,UTC,7,1017.2,0,82,0,-1,6.9,4,40640,194,7.8,3.5
2013,10,5,02:00,UTC,7,1016.6,0,80,0,-1,7,3.8,37400,206,7.3,3.3
2013,10,5,03:00,UTC,7,1016,0,80,0,-1,7.1,3.9,41710,191,7.1,3.4
2013,10,5,04:00,UTC,5,1015.6,0,83,0,-1,6.6,3.9,32950,195,6.3,2.7
2013,10,5,05:00,UTC,7,1015,0,83,0,-1,6.8,4.1,32900,191,8.1,3.5
2013,10,5,06:00,UTC,7,1014.7,0,80,0,-1,7.4,4.2,33400,198,8.2,3.7
2013,10,5,07:00,UTC,7,1014.6,0,79,0,-1,8,4.6,35310,196,5.9,3
2013,10,5,08:00,UTC,5,1014,0,76,0,-1,8.8,4.8,31050,193,7,3
2013,10,5,09:00,UTC,3,1013,0,64,0,-1,11.5,5,35330,203,9.2,3.8
2013,10,5,10:00,UTC,7,1012.6,0,64,0,-1,10.9,4.4,32110,188,10.4,4
2013,10,5,11:00,UTC,1,1011.7,0,59,0,-1,12.7,4.9,33400,207,9.1,3.5
2013,10,5,12:00,UTC,7,1011,0,61,0,-1,12.2,4.9,31010,210,8.7,3.6
2013,10,5,13:00,UTC,7,1010.6,0,66,0,-1,11.7,5.4,34090,192,9.2,3.3
2013,10,5,14:00,UTC,7,1010,0,69,0,-1,11.4,5.9,33220,190,5.3,2.6
2013,10,5,15:00,UTC,7,1009.6,0,70,0,-1,10.8,5.5,28580,197,6.6,3.3
2013,10,5,16:00,UTC,8,1009.2,0,72,0,-1,10.6,5.8,25270,187,7.9,3.5
2013,10,5,17:00,UTC,8,1008.8,0,75,0,-1,10.3,6,26950,194,6.7,2.9
2013,10,5,18:00,UTC,8,1008.1,0,76,0,-1,10.2,6.2,22120,184,6.5,3.4
2013,10,5,19:00,UTC,8,1007.8,0,81,0,-1,9.9,6.7,16870,195,6.9,2.4
2013,10,5,20:00,UTC,8,1007.2,0,90,0,-1,9.2,7.7,4140,187,6,2.8
2013,10,5,21:00,UTC,8,1006.8,0.1,88,0,-1,9.4,7.6,9190,189,6,2.6
2013,10,5,22:00,UTC,7,1006.4,0.1,92,0,-1,9.3,8,6860,197,5.6,2.3
2013,10,5,23:00,UTC,8,1005.8,0.5,94,0.1,-1,9.1,8.2,6260,186,5.5,2.1
2013,10,6,00:00,UTC,8,1005.7,0.3,94,0.2,-1,9.3,8.4,3880,211,3.9,1.6
2013,10,6,01:00,UTC,7,1005.9,0.1,93,0.1,-1,9.3,8.3,24300,266,6.3,3
2013,10,6,02:00,UTC,8,1006.3,0,93,0,-1,9,7.9,11400,263,5.1,2
2013,10,6,03:00,UTC,8,1006.7,0,94,0,-1,9,8,21420,239,4.2,1.8
2013,10,6,04:00,UTC,8,1006.9,0,93,0,-1,9,8,16030,287,4.6,2.7
2013,10,6,05:00,UTC,8,1007.4,0,92,0,-1,9.1,7.8,43460,283,5.2,2.9
2013,10,6,06:00,UTC,8,1007.7,0,88,0,-1,9.3,7.5,50000,279,6.3,4
2013,10,6,07:00,UTC,8,1008.2,0,88,0,-1,9.2,7.3,50000,278,6.5,3.3
2013,10,6,08:00,UTC,8,1009,0,87,0,-1,9,6.9,50000,286,6.9,4
2013,10,6,09:00,UTC,8,1009.4,0,84,0,-1,9.1,6.6,50000,289,7.7,4.9
2013,10,6,10:00,UTC,1,1009.6,0,74,0,-1,10.2,5.7,41910,282,7.7,4.2
2013,10,6,11:00,UTC,0,1009.9,0,66,0,-1,11.3,5.3,41550,268,6.1,3.4
2013,10,6,12:00,UTC,1,1010,0,61,0,-1,11.8,4.4,33560,275,7.2,4.2
2013,10,6,13:00,UTC,1,1010.5,0,62,0,-1,11.1,4.1,46750,253,5.9,2.5
2013,10,6,14:00,UTC,7,1010.5,0,63,0,-1,10.7,3.9,50000,238,5.5,1.8
2013,10,6,15:00,UTC,7,1010.5,0,66,0,-1,10.1,4.1,50000,220,3.2,1.3
2013,10,6,16:00,UTC,7,1010.4,0,69,0,-1,9.7,4.2,50000,200,3.5,1.8
2013,10,6,17:00,UTC,7,1010.1,0,74,0,-1,9,4.6,50000,187,2.9,1.3
2013,10,6,18:00,UTC,7,1009.8,0,75,0,-1,9.5,5.2,50000,196,3.8,1.6
2013,10,6,19:00,UTC,7,1009.7,0,73,0,-1,9.6,5.1,50000,211,5.7,2.4
2013,10,6,20:00,UTC,7,1009.1,0.1,75,0,-1,9.2,5,50000,191,4.7,2
2013,10,6,21:00,UTC,8,1008.8,0,76,0,-1,9.1,5.1,50000,199,5,2.1
2013,10,6,22:00,UTC,8,1008.2,0,79,0,-1,9.1,5.7,50000,218,3.8,1.5
2013,10,6,23:00,UTC,8,1008.1,0,81,0,-1,9.3,6.3,50000,239,6.5,2.5
2013,10,7,00:00,UTC,8,1007.7,0,83,0,-1,9,6.4,50000,227,4,1.6
2013,10,7,01:00,UTC,5,1007.9,0,86,0,-1,8.6,6.4,50000,220,3.2,1.8
2013,10,7,02:00,UTC,7,1007.7,0,87,0,-1,8.3,6.4,50000,225,4.4,2
2013,10,7,03:00,UTC,5,1007.8,0,88,0,-1,8.4,6.6,50000,269,5.1,2.3
2013,10,7,04:00,UTC,7,1007.7,0,88,0,-1,8.6,6.7,50000,221,3.6,1.4
2013,10,7,05:00,UTC,5,1008,0,90,0,-1,8.3,6.7,50000,229,3.3,1.5
2013,10,7,06:00,UTC,5,1008.4,0,90,0,-1,8.6,7.1,48170,251,4.8,1.2
2013,10,7,07:00,UTC,1,1009,0,82,0,-1,9.9,7,35780,275,5.1,2
2013,10,7,08:00,UTC,0,1009.1,0,72,0,-1,11.8,7,38170,264,4.4,2.5
2013,10,7,09:00,UTC,0,1009.3,0,67,0,-1,13.1,7.2,28860,285,6.2,3.7
2013,10,7,10:00,UTC,1,1009.7,0,63,0,-1,14.1,7.1,37780,261,5.3,2.9
2013,10,7,11:00,UTC,5,1009.9,0,62,0,-1,13.9,6.8,33340,258,7.1,3.8
2013,10,7,12:00,UTC,1,1010.3,0,63,0,-1,13.5,6.6,48930,258,7.2,3.6
2013,10,7,13:00,UTC,7,1010.7,0,68,0,-1,12.8,7.1,50000,251,2.7,1.4
2013,10,7,14:00,UTC,7,1011,0,70,0,-1,12.8,7.6,50000,229,3.8,1.4
2013,10,7,15:00,UTC,1,1011.2,0,76,0,-1,11.4,7.4,49780,214,2.7,1.4
2013,10,7,16:00,UTC,1,1011.7,0,81,0,-1,10.5,7.5,50000,222,2,1
2013,10,7,17:00,UTC,5,1012,0,88,0,-1,9.1,7.2,48140,249,2.6,1.1
2013,10,7,18:00,UTC,5,1012.8,0,86,0,-1,9.6,7.4,50000,275,4.3,1.9
2013,10,7,19:00,UTC,5,1013,0,84,0,-1,9.8,7.2,50000,272,4.5,2.3
2013,10,7,20:00,UTC,3,1013.5,0,85,0,-1,9.3,6.9,50000,283,4.9,3
2013,10,7,21:00,UTC,8,1013.7,0,84,0,-1,9.2,6.7,50000,286,5,3.2
2013,10,7,22:00,UTC,7,1014,0,84,0,-1,9.1,6.6,50000,267,4.3,2
2013,10,7,23:00,UTC,7,1014.4,0,86,0,-1,8.2,5.9,50000,324,2.4,1.2
2013,10,8,00:00,UTC,7,1014.7,0,93,0,-1,6.7,5.6,42340,173,1.1,0.7
2013,10,8,01:00,UTC,3,1015.2,0,95,0,-1,5,4.2,550,218,1.4,0.8
2013,10,8,02:00,UTC,0,1015.6,0,96,0,-1,4.4,3.7,6830,160,1.7,1.3
2013,10,8,03:00,UTC,0,1015.7,0,96,0,-1,2.6,2,12860,176,1.3,0.9
2013,10,8,04:00,UTC,1,1016,0,96,0,-1,1.4,0.7,1100,0,0.7,0
2013,10,8,05:00,UTC,3,1016.1,0,96,0,-1,1.1,0.5,390,315,1,0.9
2013,10,8,06:00,UTC,0,1016.3,0,96,0,-1,2.6,2.1,1550,139,1.1,0.9
2013,10,8,07:00,UTC,0,1016.1,0,93,0,-1,6.7,5.6,37100,144,1.4,0.9
2013,10,8,08:00,UTC,0,1016,0,83,0,-1,9.4,6.6,41180,133,2.3,1.3
2013,10,8,09:00,UTC,0,1015.8,0,74,0,-1,12.5,7.9,35900,158,2.8,1.6
2013,10,8,10:00,UTC,0,1015.4,0,69,0,-1,12.9,7.3,45150,183,4,2
2013,10,8,11:00,UTC,0,1015.1,0,70,0,-1,12.9,7.5,48820,175,3.1,1.6
2013,10,8,12:00,UTC,1,1014.7,0,73,0,-1,12.6,7.9,50000,182,1.8,1
2013,10,8,13:00,UTC,7,1014.5,0,80,0,-1,11.6,8.2,50000,155,2.8,1.6
2013,10,8,14:00,UTC,7,1013.9,0,84,0,-1,10.8,8.1,50000,147,2.9,1.7
2013,10,8,15:00,UTC,7,1013.3,0,86,0,-1,10.2,8,43360,149,2.6,1.6
2013,10,8,16:00,UTC,7,1013.3,0,91,0,-1,9.4,7.9,35320,153,2.5,1.2
2013,10,8,17:00,UTC,7,1012.7,0.1,94,0.3,-1,8.9,8,17920,138,2,1.3
2013,10,8,18:00,UTC,8,1012.1,0.1,95,0.4,-1,9.1,8.4,6350,147,3.8,1.8
2013,10,8,19:00,UTC,8,1011.1,0.1,96,0.3,-1,9.1,8.5,3220,134,2.9,1.6
2013,10,8,20:00,UTC,7,1010.3,0.2,96,0.7,-1,9.7,9.1,2170,152,2.9,1.6
2013,10,8,21:00,UTC,8,1009.4,0.4,97,0.5,-1,9.9,9.4,4030,147,3.7,1.8
2013,10,8,22:00,UTC,8,1008.6,0.3,97,0.4,-1,10,9.5,2950,149,2.9,1.6
2013,10,8,23:00,UTC,8,1008,0.4,97,0,-1,10.1,9.6,6470,155,2.6,1.4
2013,10,9,00:00,UTC,8,1007.1,0.1,97,0,-1,10.5,10.1,1610,162,3.1,1.6
2013,10,9,01:00,UTC,8,1006.4,0.1,97,0.1,-1,10.9,10.5,2740,158,3,1.7
2013,10,9,02:00,UTC,8,1005.5,0.2,97,0.3,-1,11.1,10.6,2990,151,3.2,1.5
2013,10,9,03:00,UTC,8,1004.8,0.2,97,0,-1,11.3,10.9,4110,167,2.1,1
2013,10,9,04:00,UTC,8,1004,0.2,97,0,-1,11.8,11.4,11340,184,3.7,1.9
2013,10,9,05:00,UTC,8,1003.1,0.1,97,0,-1,11.9,11.4,6840,179,3.4,1.7
2013,10,9,06:00,UTC,8,1002.5,1.2,97,0.1,-1,11.9,11.4,8160,159,3,1.4
2013,10,9,07:00,UTC,7,1002.3,2.4,97,2.1,-1,12,11.5,9120,176,3.4,1.6
2013,10,9,08:00,UTC,7,1002,0.4,96,0,-1,12.4,11.8,14410,186,3.8,1.7
2013,10,9,09:00,UTC,7,1001.6,0,95,0,-1,12.7,11.9,34970,192,4.6,2.4
2013,10,9,10:00,UTC,7,1001.6,0,92,0,-1,12.4,11.2,16260,223,4.6,2.1
2013,10,9,11:00,UTC,7,1001.4,0,92,0,-1,12.6,11.2,49000,191,3.7,1.6
2013,10,9,12:00,UTC,7,1001.3,0,92,0,-1,12.2,10.9,26060,190,4.7,1.9
2013,10,9,13:00,UTC,7,1001,0.1,93,0,-1,11.8,10.8,30520,190,8.3,3.4
2013,10,9,14:00,UTC,7,1000.7,0.1,94,0,-1,11.5,10.6,12990,187,5.1,2.7
2013,10,9,15:00,UTC,7,1000.6,0.1,92,0,-1,11.4,10.2,20350,185,5,2.3
2013,10,9,16:00,UTC,7,1000.6,0,93,0,-1,11.3,10.1,10380,187,5.2,2.5
2013,10,9,17:00,UTC,8,1000.6,0,92,0,-1,11.3,9.9,26740,183,5.4,2.3
2013,10,9,18:00,UTC,8,1000.7,0,93,0,-1,11,9.9,6810,179,5.1,2.4
2013,10,9,19:00,UTC,7,1001,0,92,0,-1,11.2,9.9,47400,188,4.4,2.2
2013,10,9,20:00,UTC,7,1001.5,0,90,0,-1,11.2,9.7,50000,210,7.1,2.7
2013,10,9,21:00,UTC,7,1001.8,0.1,94,0.5,-1,10.8,9.8,6510,190,4.8,2.6
2013,10,9,22:00,UTC,7,1002.3,1.9,95,0.8,-1,10.6,9.9,5790,243,2.9,1.3
2013,10,9,23:00,UTC,1,1002.7,0.1,95,0,-1,9.3,8.6,3380,191,2,1.1
2013,10,10,00:00,UTC,0,1003.5,0,96,0,-1,7.8,7.2,3690,251,2.1,1.2
2013,10,10,01:00,UTC,0,1003.8,0,96,0,-1,7.6,7,5350,227,2.7,1.1
2013,10,10,02:00,UTC,0,1004.2,0,96,0,-1,6.5,6,950,207,2.3,1.1
2013,10,10,03:00,UTC,0,1004.9,0,96,0,-1,5.4,4.9,590,173,1.8,1.2
2013,10,10,04:00,UTC,0,1005.6,0,96,0,-1,4.7,4.2,1730,195,1.9,1.2
2013,10,10,05:00,UTC,0,1006.5,0,96,0,-1,2.4,1.9,1810,160,1.3,0.6
2013,10,10,06:00,UTC,1,1007.3,0,97,0,-1,2.9,2.4,1650,339,0.9,0.6
2013,10,10,07:00,UTC,7,1008,0,97,0,-1,5.9,5.5,10520,214,2.6,1.4
2013,10,10,08:00,UTC,7,1008.7,0,94,0,-1,7.7,6.8,50000,228,2.4,1.3
2013,10,10,09:00,UTC,7,1009.3,0,86,0,-1,8.3,6.2,45250,273,3.2,1.7
2013,10,10,10:00,UTC,5,1010.3,0,85,0,-1,7.7,5.4,48830,304,5.5,4.2
2013,10,10,11:00,UTC,7,1011.3,0,87,0,-1,7.8,5.7,45800,282,3.7,2
2013,10,10,12:00,UTC,7,1012,0,85,0,-1,8.3,6,50000,250,2.2,1.1
2013,10,10,13:00,UTC,7,1012.6,0,82,0,-1,8.6,5.8,48000,303,3.2,2.7
2013,10,10,14:00,UTC,7,1013.3,0,83,0,-1,8.5,5.8,50000,296,3.6,2.7
2013,10,10,15:00,UTC,7,1014.3,0,85,0,-1,7.9,5.5,50000,316,4,3
2013,10,10,16:00,UTC,7,1014.9,0,87,0,-1,7.5,5.6,50000,255,2.5,1.4
2013,10,10,17:00,UTC,7,1016,0,92,0,-1,6,4.8,50000,280,2.6,1.1
2013,10,10,18:00,UTC,7,1016.6,0,91,0,-1,6.1,4.7,50000,333,1.4,0.6
2013,10,10,19:00,UTC,7,1017.3,0,95,0,-1,5.4,4.6,25970,313,1.2,0.9
2013,10,10,20:00,UTC,7,1017.9,0,96,0,-1,5,4.4,2740,283,1.8,0.8
2013,10,10,21:00,UTC,0,1018.4,0,96,0,-1,4,3.5,1890,307,2.2,1.5
2013,10,10,22:00,UTC,5,1019,0,96,0,-1,3.5,3,5610,309,2.1,1.5
2013,10,10,23:00,UTC,3,1019.7,0,96,0,-1,2.9,2.4,2480,295,2.6,2
2013,10,11,00:00,UTC,7,1020.3,0,96,0,-1,4.8,4.3,23280,308,3.3,2.4
2013,10,11,01:00,UTC,1,1020.5,0,95,0,-1,2.4,1.7,5140,319,2.6,1
2013,10,11,02:00,UTC,1,1020.6,0,96,0,-1,3.1,2.6,14450,275,3.8,2
2013,10,11,03:00,UTC,1,1020.6,0,95,0,-1,2.6,1.9,50000,254,4.6,1.6
2013,10,11,04:00,UTC,7,1020.8,0,95,0,-1,0.3,-0.5,11090,121,1.2,0.8
2013,10,11,05:00,UTC,1,1021,0,95,0,-1,-0.6,-1.2,10000,146,1.3,0.9
2013,10,11,06:00,UTC,0,1020.9,0,96,0,-1,1.5,1,28970,289,3.9,1.3
2013,10,11,07:00,UTC,0,1021,0,89,0,-1,3,1.5,50000,256,4.2,2
2013,10,11,08:00,UTC,0,1021.1,0,84,0,-1,5,2.6,42010,269,5.4,2.9
2013,10,11,09:00,UTC,0,1021.2,0,77,0,-1,6.5,2.7,39530,286,6.1,3.4
2013,10,11,10:00,UTC,0,1021.3,0,73,0,-1,7.3,2.7,38910,282,7.3,4.2
2013,10,11,11:00,UTC,0,1021.3,0,66,0,-1,8.6,2.6,40530,275,5.7,2.9
2013,10,11,12:00,UTC,5,1021,0,63,0,-1,9,2.4,42280,270,8.7,4.3
2013,10,11,13:00,UTC,1,1021.3,0,64,0,-1,9.1,2.7,43720,282,4.9,2.7
2013,10,11,14:00,UTC,0,1021.7,0,68,0,-1,8.4,2.8,50000,269,5.2,2.8
2013,10,11,15:00,UTC,0,1022.5,0,75,0,-1,7.1,2.9,50000,283,3.3,1.9
2013,10,11,16:00,UTC,0,1023.4,0,84,0,-1,4.9,2.4,50000,287,2.2,1.5
2013,10,11,17:00,UTC,0,1024.1,0,94,0,-1,4.1,3.2,50000,283,3.5,2.2
2013,10,11,18:00,UTC,0,1024.3,0,84,0,-1,5.2,2.8,50000,283,6.3,3.6
2013,10,11,19:00,UTC,0,1024.8,0,85,0,-1,4.9,2.6,50000,291,4.5,2.9
2013,10,11,20:00,UTC,0,1025.2,0,90,0,-1,3.3,1.8,50000,288,3.9,2
2013,10,11,21:00,UTC,0,1025.5,0,94,0,-1,2.2,1.4,44000,299,3.3,1.9
2013,10,11,22:00,UTC,1,1026,0,92,0,-1,2,0.9,41170,283,2.7,1.1
2013,10,11,23:00,UTC,0,1026.6,0,94,0,-1,0.7,-0.1,20420,0,1.8,0
2013,10,12,00:00,UTC,0,1026.8,0,96,0,-1,0.2,-0.5,21390,204,1.4,0.9
2013,10,12,01:00,UTC,0,1027.1,0,96,0,-1,-0.9,-1.6,17450,165,1.6,1.3
2013,10,12,02:00,UTC,0,1026.9,0,96,0,-1,-1.5,-2.1,30370,142,1.3,0.9
2013,10,12,03:00,UTC,0,1026.9,0,96,0,-1,-1.5,-2.1,34710,152,2.3,1.5
2013,10,12,04:00,UTC,0,1027.1,0,96,0,-1,-1.5,-2.1,39730,129,1.3,0.8
2013,10,12,05:00,UTC,0,1026.9,0,96,0,-1,0.6,0.1,12590,256,1.7,1.2
2013,10,12,06:00,UTC,7,1027.1,0,96,0,-1,2.7,2.2,39670,263,2.5,1.3
2013,10,12,07:00,UTC,8,1027.7,0,96,0,-1,3.7,3.2,8520,263,2.5,1.2
2013,10,12,08:00,UTC,8,1027.4,0,96,0,-1,5.5,5,37840,283,3.7,1.3
2013,10,12,09:00,UTC,8,1027.2,0.1,94,0.3,-1,6.7,5.8,50000,267,3.8,1.8
2013,10,12,10:00,UTC,8,1026.9,0,91,0,-1,7.1,5.7,43770,270,4.5,2.3
2013,10,12,11:00,UTC,7,1026.6,0,88,0,-1,8.1,6.3,48050,252,4.9,2.3
2013,10,12,12:00,UTC,8,1027.1,0,90,0,-1,8,6.4,50000,258,3.9,1.9
2013,10,12,13:00,UTC,7,1026.5,0,88,0,-1,8.5,6.7,50000,275,3.7,1.9
2013,10,12,14:00,UTC,7,1026,0,88,0,-1,8.9,7.1,50000,271,4.7,2.2
2013,10,12,15:00,UTC,0,1025.5,0,92,0,-1,7.8,6.5,50000,220,2.2,0.9
2013,10,12,16:00,UTC,0,1025.1,0,92,0,-1,8,6.8,50000,229,3.5,1.5
2013,10,12,17:00,UTC,0,1024.5,0,93,0,-1,7.7,6.7,50000,242,2.6,1.2
2013,10,12,18:00,UTC,0,1023.9,0,94,0,-1,7.7,6.9,50000,248,5.5,2.2
2013,10,12,19:00,UTC,0,1023.4,0,93,0,-1,7.3,6.3,50000,260,4.1,1.3
2013,10,12,20:00,UTC,0,1022.4,0,91,0,-1,7.6,6.3,50000,244,4.7,2.4
2013,10,12,21:00,UTC,0,1022,0,92,0,-1,7.4,6.1,50000,264,4.9,1.9
2013,10,12,22:00,UTC,7,1021.6,0,92,0,-1,7.7,6.4,50000,256,5.5,2.6
2013,10,12,23:00,UTC,7,1020.9,0,91,0,-1,7.8,6.3,50000,260,4.7,2
2013,10,13,00:00,UTC,1,1020,0,91,0,-1,7.1,5.8,50000,265,4.9,2.3
2013,10,13,01:00,UTC,0,1019.3,0,93,0,-1,6.4,5.4,50000,261,4.2,2.4
2013,10,13,02:00,UTC,0,1018.8,0,92,0,-1,6.1,5,50000,264,5,2.5
2013,10,13,03:00,UTC,0,1018.3,0,92,0,-1,5.7,4.6,50000,277,5.3,2.8
2013,10,13,04:00,UTC,0,1018,0,91,0,-1,5.3,4,50000,287,4.2,2.3
2013,10,13,05:00,UTC,0,1017.8,0,91,0,-1,5.2,3.9,50000,290,5,3.3
2013,10,13,06:00,UTC,1,1018.2,0,90,0,-1,5.4,3.9,49880,288,5.8,3.4
2013,10,13,07:00,UTC,0,1018.5,0,88,0,-1,6.3,4.4,49040,310,6.9,4.6
2013,10,13,08:00,UTC,1,1019.3,0,84,0,-1,7.8,5.3,37690,321,7.1,5
2013,10,13,09:00,UTC,1,1019.9,0,73,0,-1,9.4,4.8,47080,342,11.5,7.5
2013,10,13,10:00,UTC,0,1021.2,0,55,0,-1,9.3,0.6,44870,348,12.3,8.3
2013,10,13,11:00,UTC,0,1022.8,0,39,0,-1,7.4,-5.5,37660,352,13,8.8
2013,10,13,12:00,UTC,0,1023.5,0,42,0,-1,6.8,-5.1,50000,356,10.3,7.5
2013,10,13,13:00,UTC,0,1024.1,0,35,0,-1,5.8,-8.5,47470,1,9.2,6.4
2013,10,13,14:00,UTC,0,1025.1,0,38,0,-1,4.5,-8.5,50000,353,6.8,4.5
2013,10,13,15:00,UTC,0,1025.7,0,45,0,-1,2.6,-8.2,50000,9,3.9,2.9
2013,10,13,16:00,UTC,0,1026.5,0,60,0,-1,0.2,-6.6,50000,279,2.6,1.8
2013,10,13,17:00,UTC,0,1027,0,70,0,-1,-1.5,-6.2,50000,291,2.5,1.7
2013,10,13,18:00,UTC,0,1027.1,0,68,0,-1,-1.3,-6.5,50000,300,2.2,2
2013,10,13,19:00,UTC,0,1027.5,0,83,0,-1,-4.4,-6.8,50000,297,2.5,1.9
2013,10,13,20:00,UTC,0,1027.6,0,87,0,-1,-3.9,-5.8,50000,269,2,1.1
2013,10,13,21:00,UTC,0,1027.9,0,80,0,-1,-4.3,-7.2,50000,304,2.1,1.7
2013,10,13,22:00,UTC,0,1027.3,0,88,0,-1,-4.5,-6.2,50000,179,1,0.7
2013,10,13,23:00,UTC,0,1027.1,0,91,0,-1,-4.6,-5.9,50000,313,1.4,1.1
2013,10,14,00:00,UTC,0,1026.7,0,92,0,-1,-4.9,-6,50000,318,1.5,1.3
2013,10,14,01:00,UTC,0,1026.4,0,92,0,-1,-5.6,-6.7,50000,308,0.9,0.6
2013,10,14,02:00,UTC,0,1026.1,0,93,0,-1,-5.9,-6.9,50000,0,0.6,0
2013,10,14,03:00,UTC,1,1025.8,0,92,0,-1,-6,-7.1,50000,0,0.7,0
2013,10,14,04:00,UTC,5,1025.2,0,91,0,-1,-5.7,-6.9,50000,156,1.8,1.4
2013,10,14,05:00,UTC,0,1024.8,0,92,0,-1,-6,-7.1,43830,93,0.8,0.6
2013,10,14,06:00,UTC,0,1024.6,0,91,0,-1,-4.8,-6.1,37220,164,1.6,1.3
2013,10,14,07:00,UTC,0,1024.2,0,86,0,-1,-1.9,-3.9,29930,124,1.3,0.9
2013,10,14,08:00,UTC,0,1023.1,0,71,0,-1,1.9,-2.7,36330,132,2.4,0.9
2013,10,14,09:00,UTC,0,1022.3,0,54,0,-1,4,-4.4,42500,245,5,2.2
2013,10,14,10:00,UTC,0,1021.4,0,48,0,-1,5.1,-4.9,42620,228,4.6,2.1
2013,10,14,11:00,UTC,0,1020.5,0,49,0,-1,5.7,-4.2,40760,222,4.5,2.4
2013,10,14,12:00,UTC,0,1019.2,0,44,0,-1,6.2,-5.3,50000,204,4.6,2.6
2013,10,14,13:00,UTC,3,1018.4,0,49,0,-1,5.8,-4.1,50000,190,4.2,2.1
2013,10,14,14:00,UTC,3,1017.4,0,48,0,-1,5.3,-5,50000,194,4.2,2.2
2013,10,14,15:00,UTC,5,1016.3,0,49,0,-1,4.6,-5.2,50000,184,4,2
2013,10,14,16:00,UTC,3,1015.6,0,58,0,-1,2.9,-4.4,50000,172,3,1.6
2013,10,14,17:00,UTC,5,1014.9,0,61,0,-1,2.6,-4.1,50000,178,3,1.7
2013,10,14,18:00,UTC,5,1014,0,64,0,-1,2.3,-3.8,50000,182,3.3,2
2013,10,14,19:00,UTC,5,1012.8,0,68,0,-1,2.3,-3.1,50000,183,3.9,2.3
2013,10,14,20:00,UTC,7,1012.1,0,70,0,-1,4,-1.1,50000,226,6.5,2.2
2013,10,14,21:00,UTC,7,1011.2,0,78,0,-1,4.5,0.9,50000,232,6,2.6
2013,10,14,22:00,UTC,7,1010.3,0,82,0,-1,4.7,1.9,50000,217,4.2,1.4
2013,10,14,23:00,UTC,7,1009.3,0,85,0,-1,5.3,3.1,50000,207,3.3,1.4
2013,10,15,00:00,UTC,7,1008.5,0,86,0,-1,6.6,4.4,50000,250,4.7,2.2
2013,10,15,01:00,UTC,7,1007.8,0,83,0,-1,7.5,4.8,50000,276,6.4,3.6
2013,10,15,02:00,UTC,7,1007.5,0.1,82,0,-1,7.6,4.7,50000,276,6.3,3
2013,10,15,03:00,UTC,7,1007.1,0,80,0,-1,7.5,4.4,50000,277,7,3.2
2013,10,15,04:00,UTC,7,1006.6,0,83,0,-1,6.8,4.1,50000,283,3.7,1.8
2013,10,15,05:00,UTC,3,1006.3,0,83,0,-1,6.2,3.5,50000,272,4.9,2.5
2013,10,15,06:00,UTC,1,1006.1,0,83,0,-1,6,3.3,50000,265,6.1,2.7
2013,10,15,07:00,UTC,5,1005.7,0,79,0,-1,6.5,3.1,50000,267,7.9,3.7
2013,10,15,08:00,UTC,7,1005.6,0,78,0,-1,6.8,3.3,44390,283,5.7,3.4
2013,10,15,09:00,UTC,7,1005.3,0,77,0,-1,6.9,3.2,46800,287,5.5,3.5
2013,10,15,10:00,UTC,5,1005,0,72,0,-1,7.5,2.6,44850,287,6.3,4
2013,10,15,11:00,UTC,5,1004.5,0,68,0,-1,7.6,2,43650,292,8.4,5.3
2013,10,15,12:00,UTC,1,1004,0,67,0,-1,7.5,1.7,50000,283,6.7,3.7
2013,10,15,13:00,UTC,7,1003.7,0,61,0,-1,7.4,0.3,50000,302,9.8,7.3
2013,10,15,14:00,UTC,0,1003.7,0,62,0,-1,6.2,-0.5,50000,291,5.6,3.8
2013,10,15,15:00,UTC,1,1003.8,0,65,0,-1,5.2,-0.8,50000,291,5.6,3.8
2013,10,15,16:00,UTC,3,1004.2,0,67,0,-1,4.2,-1.4,50000,297,6.7,4.2
2013,10,15,17:00,UTC,5,1004.4,0,66,0,-1,4,-1.9,50000,295,6.4,4.7
2013,10,15,18:00,UTC,3,1005,0,70,0,-1,1.7,-3.3,50000,304,3.9,2.8
2013,10,15,19:00,UTC,0,1005.2,0,69,0,-1,1.5,-3.5,50000,284,4.6,2.8
2013,10,15,20:00,UTC,1,1005.1,0,71,0,-1,1.1,-3.5,50000,272,4.2,2.4
2013,10,15,21:00,UTC,0,1005.1,0,73,0,-1,0.6,-3.7,50000,274,5.4,2.8
2013,10,15,22:00,UTC,0,1005.8,0,76,0,-1,-0.3,-3.9,50000,290,4.5,2.9
2013,10,15,23:00,UTC,0,1006.1,0,74,0,-1,0,-4,48860,291,5.6,4.1
2013,10,16,00:00,UTC,0,1006.6,0,76,0,-1,-0.7,-4.4,50000,296,5.1,3.8
2013,10,16,01:00,UTC,5,1007,0,72,0,-1,0.2,-4.3,50000,296,5.3,3.8
2013,10,16,02:00,UTC,0,1007.5,0,77,0,-1,-1.4,-4.9,50000,322,5.8,4.6
2013,10,16,03:00,UTC,0,1008.1,0,82,0,-1,-2.3,-5,50000,322,5.6,4.4
2013,10,16,04:00,UTC,0,1008.8,0,84,0,-1,-1.7,-4.1,50000,339,5.3,3.8
2013,10,16,05:00,UTC,0,1009.4,0,87,0,-1,-1.9,-3.8,50000,332,6,4.8
2013,10,16,06:00,UTC,0,1010.1,0,88,0,-1,-2.2,-3.9,50000,333,4.3,2.8
2013,10,16,07:00,UTC,1,1010.5,0,79,0,-1,-0.3,-3.4,42820,331,4.7,3.5
2013,10,16,08:00,UTC,5,1010.8,0,67,0,-1,1.3,-4.1,47960,347,4.2,2.5
2013,10,16,09:00,UTC,5,1011.1,0,63,0,-1,1.6,-4.7,50000,342,4.3,2.9
2013,10,16,10:00,UTC,7,1011.3,0,53,0,-1,3.2,-5.3,32910,315,6.2,3.5
2013,10,16,11:00,UTC,7,1011.5,0,61,0,-1,2.3,-4.3,31980,316,5.3,4.3
2013,10,16,12:00,UTC,1,1011.6,0,57,0,-1,2.7,-5,44720,306,4.5,2.8
2013,10,16,13:00,UTC,1,1011.4,0,54,0,-1,2.2,-6.1,46400,289,3.9,2.6
2013,10,16,14:00,UTC,0,1011.4,0,60,0,-1,1,-5.8,50000,309,3.6,2.9
2013,10,16,15:00,UTC,1,1011.5,0,71,0,-1,-1.4,-5.9,50000,297,1.4,0.9
2013,10,16,16:00,UTC,7,1011.6,0,78,0,-1,-2.5,-5.8,50000,0,0.9,0
2013,10,16,17:00,UTC,5,1011.7,0,86,0,-1,-3.6,-5.7,44480,0,0.7,0
2013,10,16,18:00,UTC,5,1011.8,0,89,0,-1,-4.7,-6.2,44410,0,0.6,0
2013,10,16,19:00,UTC,7,1011.8,0,90,0,-1,-4.7,-6.1,46150,0,0.5,0
2013,10,16,20:00,UTC,7,1011.9,0,91,0,-1,-4.6,-5.9,50000,0,0.5,0
2013,10,16,21:00,UTC,8,1011.9,0,91,0,-1,-4,-5.2,21510,0,0.6,0
2013,10,16,22:00,UTC,8,1011.7,0,91,0,-1,-3.8,-5.1,17270,0,0.6,0
2013,10,16,23:00,UTC,8,1011.4,0,90,0,-1,-3.8,-5.2,22600,118,0.9,0.6
2013,10,17,00:00,UTC,7,1010.9,0,90,0,-1,-3.5,-4.9,33000,0,0.4,0
2013,10,17,01:00,UTC,8,1010.4,0,91,0,-1,-3.4,-4.6,34260,0,0.5,0
2013,10,17,02:00,UTC,8,1009.9,0,90,0,-1,-3.1,-4.5,35630,0,0.4,0
2013,10,17,03:00,UTC,8,1009.7,0,90,0,-1,-3.4,-4.8,35390,0,0.4,0
2013,10,17,04:00,UTC,8,1009.3,0,92,0,-1,-3.6,-4.7,39020,156,1,0.8
2013,10,17,05:00,UTC,7,1009.1,0,93,0,-1,-3.7,-4.7,33810,0,0.5,0
2013,10,17,06:00,UTC,7,1008.7,0,93,0,-1,-3.6,-4.6,31640,0,0.6,0
2013,10,17,07:00,UTC,7,1008.6,0,92,0,-1,-2.7,-3.8,32810,151,1.2,0.6
2013,10,17,08:00,UTC,7,1008.1,0,86,0,-1,0,-2,29780,146,2.2,1.1
2013,10,17,09:00,UTC,7,1007.7,0,79,0,-1,1.1,-2.2,47150,143,3.8,1.7
2013,10,17,10:00,UTC,7,1007.3,0,72,0,-1,1.9,-2.7,50000,133,3.7,2.1
2013,10,17,11:00,UTC,7,1006.7,0,69,0,-1,2.2,-2.8,50000,128,4.3,2.8
2013,10,17,12:00,UTC,8,1006.4,0,80,0,-1,1.5,-1.6,5830,131,4.2,2.2
2013,10,17,13:00,UTC,7,1006,0.8,93,0.1,-1,0.3,-0.7,3530,134,2.1,1.4
2013,10,17,14:00,UTC,9,1005.6,0.7,95,0.9,-1,0.2,-0.5,2380,119,4.5,2.8
2013,10,17,15:00,UTC,8,1005.2,0.7,95,1,-1,0.2,-0.5,1750,121,5,2.9
2013,10,17,16:00,UTC,7,1004.5,1.2,96,0.4,0,0.1,-0.5,2760,109,4.4,3
2013,10,17,17:00,UTC,8,1003.8,0.6,96,0.8,2,0.1,-0.4,2130,117,4.5,2.9
2013,10,17,18:00,UTC,8,1003.1,0.9,96,1.4,3,0.1,-0.4,1870,131,3.2,2
2013,10,17,19:00,UTC,8,1002.6,1.1,96,1,3,0.1,-0.5,1670,122,3.9,2.2
2013,10,17,20:00,UTC,9,1002.2,1.4,96,1.6,4,0.1,-0.5,1240,123,2.7,1.8
2013,10,17,21:00,UTC,8,1001.6,1.1,96,0.5,5,0,-0.5,1680,123,2.4,1.6
2013,10,17,22:00,UTC,8,1000.8,1.3,96,1.1,6,0.1,-0.5,1740,91,1.8,1.1
2013,10,17,23:00,UTC,8,1000.1,1.5,96,1.3,6,0.1,-0.4,1470,18,1.8,1.2
2013,10,18,00:00,UTC,8,999.5,1,96,0.9,8,0.2,-0.3,2740,18,2.6,1.9
2013,10,18,01:00,UTC,8,998.8,0.3,96,0.2,8,0.1,-0.4,3480,356,2.7,2.1
2013,10,18,02:00,UTC,8,998.4,0.1,96,0,8,0.2,-0.3,7540,330,3.8,2.9
2013,10,18,03:00,UTC,8,998.1,0.2,97,0.3,8,0.2,-0.3,2350,329,4.8,3.6
2013,10,18,04:00,UTC,8,997.8,0.2,97,0,8,0.3,-0.2,5040,328,6.5,4.5
2013,10,18,05:00,UTC,7,997.5,0.1,96,0,8,0.3,-0.3,6330,329,8.3,6
2013,10,18,06:00,UTC,8,997.5,0.1,94,0,8,0.5,-0.4,42050,325,9.3,6.8
2013,10,18,07:00,UTC,8,997.5,0,91,0,8,0.4,-0.9,18880,328,10.2,8
2013,10,18,08:00,UTC,8,997.5,0,90,0,8,0.4,-1.1,45190,334,11.5,7.7
2013,10,18,09:00,UTC,8,997.8,0,89,0,8,0.3,-1.4,42640,326,12.7,8.6
2013,10,18,10:00,UTC,8,998.1,0,89,0,8,0.4,-1.2,42050,327,10.5,7.2
2013,10,18,11:00,UTC,8,998.3,0,87,0,7,0.4,-1.5,35980,314,12.2,9.3
2013,10,18,12:00,UTC,8,998.9,0,86,0,7,0.1,-1.9,45800,312,11.7,8.4
2013,10,18,13:00,UTC,7,999.6,0,86,0,7,-0.2,-2.2,50000,309,11,8
2013,10,18,14:00,UTC,7,1000.5,0,82,0,6,-0.1,-2.7,50000,311,14,9
2013,10,18,15:00,UTC,8,1001.1,0,85,0,6,-0.5,-2.7,50000,304,10.6,7.3
2013,10,18,16:00,UTC,8,1001.8,0,81,0,6,-0.8,-3.7,50000,312,13.4,9.1
2013,10,18,17:00,UTC,8,1002.4,0,82,0,6,-0.6,-3.4,50000,304,10,7.2
2013,10,18,18:00,UTC,5,1003.1,0,83,0,6,-0.9,-3.4,50000,295,9.3,5.9
2013,10,18,19:00,UTC,7,1003.7,0,85,0,6,-0.8,-3,50000,300,6.9,4.9
2013,10,18,20:00,UTC,5,1004.1,0,85,0,6,-0.8,-3.1,50000,295,7.7,5.5
2013,10,18,21:00,UTC,0,1004.5,0,85,0,6,-1.7,-4,50000,279,5.2,3.2
2013,10,18,22:00,UTC,0,1004.8,0,85,0,6,-2.6,-4.8,50000,267,5.5,3
2013,10,18,23:00,UTC,0,1004.7,0,86,0,6,-3.4,-5.4,50000,240,4.9,2.8
2013,10,19,00:00,UTC,1,1004.5,0,87,0,7,-4.3,-6.1,50000,213,2.3,1.3
2013,10,19,01:00,UTC,7,1004,0,89,0,6,-2.8,-4.4,8870,238,4.9,2.1
2013,10,19,02:00,UTC,3,1003.6,0,89,0,6,-3.3,-4.8,50000,227,3.1,1.8
2013,10,19,03:00,UTC,1,1003,0,92,0,6,-2.7,-3.9,50000,254,4.7,1.9
2013,10,19,04:00,UTC,3,1002.9,0,91,0,6,-2.1,-3.3,50000,254,4.1,2.3
2013,10,19,05:00,UTC,1,1002.7,0,90,0,6,-2.2,-3.6,50000,263,5,2.8
2013,10,19,06:00,UTC,1,1002.9,0,90,0,6,-2.2,-3.6,50000,259,6.3,3.1
2013,10,19,07:00,UTC,1,1003,0,84,0,6,-1.2,-3.6,43120,266,7.2,3.5
2013,10,19,08:00,UTC,0,1003.3,0,79,0,6,-0.4,-3.5,36470,269,6.9,3.3
2013,10,19,09:00,UTC,1,1003.6,0,76,0,7,0,-3.8,35230,279,8.7,4.9
2013,10,19,10:00,UTC,3,1003.9,0,72,0,7,0.4,-4.1,41350,282,8.1,4.3
2013,10,19,11:00,UTC,1,1004.4,0,65,0,7,0.8,-5,43460,287,11.4,6.4
2013,10,19,12:00,UTC,1,1004.7,0,64,0,7,0.3,-5.8,44280,283,11.2,5.6
2013,10,19,13:00,UTC,5,1005.1,0,62,0,7,0.5,-6,46450,281,6.7,3.6
2013,10,19,14:00,UTC,1,1005.7,0,62,0,7,0,-6.5,50000,287,7.1,3.6
2013,10,19,15:00,UTC,0,1006.5,0,63,0,7,-0.7,-6.9,50000,282,5.7,3.5
2013,10,19,16:00,UTC,0,1007.2,0,66,0,7,-1.2,-6.8,50000,283,6.9,4.2
2013,10,19,17:00,UTC,0,1007.8,0,70,0,7,-1.9,-6.6,50000,279,5.6,3.2
2013,10,19,18:00,UTC,0,1008.1,0,71,0,7,-1.9,-6.5,50000,268,5.6,2.8
2013,10,19,19:00,UTC,0,1008.5,0,72,0,7,-2.3,-6.6,50000,281,6.5,3.5
2013,10,19,20:00,UTC,0,1008.9,0,75,0,7,-2.7,-6.6,50000,263,5.1,2.8
2013,10,19,21:00,UTC,0,1009.6,0,77,0,7,-3.1,-6.6,50000,264,5.2,2.5
2013,10,19,22:00,UTC,0,1010.1,0,81,0,7,-4.1,-6.9,50000,257,4.1,1.9
2013,10,19,23:00,UTC,0,1010.4,0,85,0,7,-4.2,-6.4,50000,243,3.5,2
2013,10,20,00:00,UTC,0,1010.7,0,83,0,7,-4.2,-6.7,50000,257,4.8,2.4
2013,10,20,01:00,UTC,0,1011,0,84,0,7,-4.4,-6.7,50000,254,4,1.8
2013,10,20,02:00,UTC,0,1011,0,82,0,7,-4.2,-6.8,50000,270,5.1,2.9
2013,10,20,03:00,UTC,0,1011.5,0,83,0,6,-4.9,-7.4,50000,239,3.8,1.8
2013,10,20,04:00,UTC,0,1011.8,0,82,0,6,-5.5,-8,50000,258,3.9,1.8
2013,10,20,05:00,UTC,0,1012,0,86,0,6,-5.7,-7.6,50000,251,4,1.7
2013,10,20,06:00,UTC,0,1012,0,80,0,6,-4.7,-7.6,50000,268,4.6,2.2
2013,10,20,07:00,UTC,0,1012.3,0,75,0,6,-3.2,-7,49300,255,4.6,2.3
2013,10,20,08:00,UTC,0,1012.4,0,70,0,6,-1.4,-6.3,45370,267,5.2,2.2
2013,10,20,09:00,UTC,0,1012.4,0,63,0,6,0,-6.3,41470,267,5.2,2.9
2013,10,20,10:00,UTC,0,1012.6,0,53,0,6,1.2,-7.5,40300,263,5.8,2.5
2013,10,20,11:00,UTC,0,1012.6,0,49,0,6,1.5,-7.9,50000,271,5.3,3
2013,10,20,12:00,UTC,0,1012.4,0,46,0,6,2.4,-8,41970,266,4.2,2.1
2013,10,20,13:00,UTC,1,1012.3,0,50,0,6,2.2,-7.2,50000,247,3.2,1.4
2013,10,20,14:00,UTC,0,1012.8,0,58,0,6,0.8,-6.6,50000,279,4.2,2.2
2013,10,20,15:00,UTC,7,1012.8,0,63,0,6,0.8,-5.6,50000,251,3.3,1.3
2013,10,20,16:00,UTC,0,1013.2,0,74,0,6,-1.3,-5.3,50000,266,2.3,1.5
2013,10,20,17:00,UTC,0,1013.8,0,83,0,6,-2.4,-5,50000,280,3.6,2.2
2013,10,20,18:00,UTC,0,1014.1,0,78,0,6,-1.4,-4.7,50000,285,5.9,3.7
2013,10,20,19:00,UTC,0,1014.6,0,82,0,6,-2.3,-5,50000,283,4.9,3
2013,10,20,20:00,UTC,0,1014.9,0,84,0,6,-2.5,-4.9,50000,282,5.3,3.4
2013,10,20,21:00,UTC,0,1015.5,0,88,0,6,-3.7,-5.4,50000,288,2.9,1.9
2013,10,20,22:00,UTC,0,1016.1,0,85,0,5,-5,-7.1,50000,294,3.4,2.1
2013,10,20,23:00,UTC,0,1016.4,0,91,0,6,-5.4,-6.6,50000,313,2.6,2.1
2013,10,21,00:00,UTC,0,1016.7,0,90,0,6,-6.5,-7.8,49980,305,3.9,2.9
2013,10,21,01:00,UTC,0,1016.8,0,91,0,6,-4.8,-6.1,41550,291,3.6,2.8
2013,10,21,02:00,UTC,0,1017.2,0,87,0,6,-6,-7.8,50000,295,3.6,1.8
2013,10,21,03:00,UTC,7,1017.4,0,86,0,6,-4.1,-6.2,50000,289,3.8,2.5
2013,10,21,04:00,UTC,7,1017.7,0,85,0,6,-3.4,-5.6,50000,282,3.5,2
2013,10,21,05:00,UTC,1,1018.3,0,80,0,6,-5.8,-8.7,33330,300,3.4,2.9
2013,10,21,06:00,UTC,7,1018.8,0,90,0,6,-3.6,-5,41170,275,2.9,1.9
2013,10,21,07:00,UTC,7,1019.6,0,89,0,6,-2.4,-3.9,42830,323,3.2,2
2013,10,21,08:00,UTC,7,1020.2,0,86,0,6,-1.5,-3.7,34990,286,3.4,2.4
2013,10,21,09:00,UTC,7,1020.6,0,82,0,6,-0.6,-3.3,38610,293,3.3,2.5
2013,10,21,10:00,UTC,7,1021,0,78,0,6,-0.2,-3.5,46260,338,4.6,3.4
2013,10,21,11:00,UTC,7,1021.4,0,79,0,6,-0.2,-3.4,37850,316,5,3.4
2013,10,21,12:00,UTC,7,1021.7,0,76,0,6,-0.4,-4.1,45220,341,5,3.3
2013,10,21,13:00,UTC,8,1022.1,0,77,0,6,-0.5,-4,50000,336,3.5,2.2
2013,10,21,14:00,UTC,8,1022.3,0,78,0,6,-0.9,-4.3,34890,4,4.5,3.3
2013,10,21,15:00,UTC,8,1022.7,0,80,0,6,-1.3,-4.4,49230,335,2,1.3
2013,10,21,16:00,UTC,8,1023.1,0,78,0,6,-1.3,-4.6,50000,2,4,2.4
2013,10,21,17:00,UTC,8,1023.5,0,81,0,6,-1.4,-4.3,46770,0,0.8,0
2013,10,21,18:00,UTC,8,1023.7,0,78,0,6,-1.3,-4.7,46540,170,1.8,1.1
2013,10,21,19:00,UTC,8,1024,0,78,0,6,-1.5,-4.8,50000,154,2.2,1.2
2013,10,21,20:00,UTC,8,1024.4,0,78,0,6,-1.5,-4.8,50000,170,2.6,1.6
2013,10,21,21:00,UTC,8,1024.7,0,77,0,6,-1.5,-5.1,50000,216,2.6,1.5
2013,10,21,22:00,UTC,8,1024.8,0,77,0,6,-1.7,-5.1,50000,185,4.5,1.4
2013,10,21,23:00,UTC,8,1025,0,77,0,6,-1.6,-5.1,42360,220,3,1.7
2013,10,22,00:00,UTC,8,1025,0,77,0,6,-1.8,-5.3,50000,204,2.2,1.1
2013,10,22,01:00,UTC,8,1025,0,76,0,6,-1.8,-5.4,50000,201,3,1.6
2013,10,22,02:00,UTC,8,1024.8,0,78,0,6,-2.1,-5.4,50000,175,2.3,1.1
2013,10,22,03:00,UTC,8,1025,0,78,0,6,-2,-5.3,50000,206,3.2,1.5
2013,10,22,04:00,UTC,7,1024.9,0,78,0,6,-2.1,-5.5,50000,189,2.1,1
2013,10,22,05:00,UTC,8,1025,0,79,0,6,-2.2,-5.3,50000,198,2.6,1.3
2013,10,22,06:00,UTC,8,1025,0,80,0,6,-2.1,-5.1,50000,193,2,1
2013,10,22,07:00,UTC,8,1025.3,0,79,0,6,-1.6,-4.8,50000,192,2.9,1.6
2013,10,22,08:00,UTC,8,1025.6,0,79,0,6,-1.7,-4.9,49390,179,5.7,3.1
2013,10,22,09:00,UTC,8,1025.3,0,80,0,6,-1.8,-4.8,46480,190,4.6,2.2
2013,10,22,10:00,UTC,1,1024.8,0,75,0,6,0,-4,44190,131,4.3,2.5
2013,10,22,11:00,UTC,7,1024.2,0,75,0,6,0.7,-3.2,40980,157,4.9,1.9
2013,10,22,12:00,UTC,1,1023.7,0,76,0,6,0.6,-3.1,49450,147,3.6,1.8
2013,10,22,13:00,UTC,1,1023,0,74,0,6,1.1,-3.1,50000,150,4,2.3
2013,10,22,14:00,UTC,7,1022.2,0,74,0,6,0.9,-3.2,50000,133,3.6,2
2013,10,22,15:00,UTC,7,1021.5,0,77,0,6,0.5,-3.1,50000,133,5.2,2.8
2013,10,22,16:00,UTC,7,1020.9,0,81,0,6,0.5,-2.4,50000,150,3.6,1.9
2013,10,22,17:00,UTC,7,1020,0,72,0,6,1.4,-3.1,50000,155,9.2,4.3
2013,10,22,18:00,UTC,8,1019.1,0,72,0,6,1.4,-3.2,50000,157,9,4.1
2013,10,22,19:00,UTC,7,1018.1,0,72,0,6,1.4,-3.2,50000,155,8.7,4.2
2013,10,22,20:00,UTC,8,1016.9,0,74,0,6,1.2,-3,50000,150,6.8,3.4
2013,10,22,21:00,UTC,8,1015.8,0,79,0,6,1,-2.3,3930,162,8,4
2013,10,22,22:00,UTC,8,1014.4,1.1,94,2,7,-0.1,-0.9,990,147,8.1,3.6
2013,10,22,23:00,UTC,8,1013,2.7,95,2.2,9,-0.2,-0.8,1490,147,8.7,4.4
2013,10,23,00:00,UTC,8,1011.2,1.8,96,1.9,10,0.2,-0.4,5330,146,8.4,4.4
2013,10,23,01:00,UTC,8,1009.5,1.9,96,1.2,10,0.6,0,5120,155,10.4,4.7
2013,10,23,02:00,UTC,8,1008.4,1.5,95,0.9,9,0.9,0.3,6600,163,7.7,3.8
2013,10,23,03:00,UTC,8,1006.9,1.5,95,2.2,9,1.1,0.5,5210,158,7.3,3.8
2013,10,23,04:00,UTC,8,1005.4,0.5,96,0.9,9,1.6,1,6960,159,5.9,2.9
2013,10,23,05:00,UTC,8,1004.1,0.7,96,0.7,9,2.5,1.9,9980,152,6.8,2.7
2013,10,23,06:00,UTC,8,1003.2,0.7,96,0.7,9,3.8,3.2,9770,168,6.9,2.8
2013,10,23,07:00,UTC,8,1002.5,0.1,96,0.5,8,4.7,4.2,1800,174,8,3.3
2013,10,23,08:00,UTC,8,1001.4,0.1,97,0.3,7,5.2,4.7,1700,180,6.3,2.9
2013,10,23,09:00,UTC,8,1000.5,0.1,97,0,5,5.8,5.3,1570,170,8,3.2
2013,10,23,10:00,UTC,8,1000.1,0.1,97,0,5,6.3,5.8,1590,180,6.6,3
2013,10,23,11:00,UTC,8,999,0.1,97,0.4,4,6.7,6.2,1260,172,8,3.5
2013,10,23,12:00,UTC,8,998.7,0.1,97,0.3,3,7.2,6.8,1690,186,8.6,3.7
2013,10,23,13:00,UTC,8,998.5,0.1,97,0,2,7.5,7,1830,190,8.4,4
2013,10,23,14:00,UTC,8,998.2,0.4,97,0.6,0,7.8,7.3,2210,196,5.9,3.2
2013,10,23,15:00,UTC,8,997.8,0.3,97,0.1,0,8,7.5,2120,185,8.4,3.7
2013,10,23,16:00,UTC,8,997.7,0.1,97,0,0,8.1,7.7,2110,172,6.5,2.8
2013,10,23,17:00,UTC,8,997.4,0.1,97,0,0,8.3,7.8,4020,177,5.2,2.3
2013,10,23,18:00,UTC,8,997.4,0,97,0,0,8.7,8.2,4600,190,5.1,2.4
2013,10,23,19:00,UTC,8,996.9,0.1,97,0,0,8.8,8.3,3300,183,6.2,3
2013,10,23,20:00,UTC,8,997,0.1,97,0.3,0,9,8.5,2970,183,7.5,3.2
2013,10,23,21:00,UTC,8,997.2,0.1,97,0,0,9.2,8.7,2580,190,8.4,3.8
2013,10,23,22:00,UTC,8,997.1,0.1,97,0,0,9.4,8.9,2080,201,5.2,2.3
2013,10,23,23:00,UTC,8,997.2,0.1,97,0.3,0,9.4,8.9,1300,181,4.6,2
2013,10,24,00:00,UTC,8,996.7,0.1,97,0,0,9.4,8.9,970,185,4.4,1.9
2013,10,24,01:00,UTC,8,996.5,0.1,97,0.3,0,9.5,9.1,1210,189,4.4,1.8
2013,10,24,02:00,UTC,7,996.1,1.1,97,0.1,0,9.7,9.3,4030,188,3.9,1.6
2013,10,24,03:00,UTC,8,996.1,0.1,97,0,0,9.9,9.5,2920,206,3.9,1.6
2013,10,24,04:00,UTC,7,995.7,0.1,97,0,0,10,9.6,2990,183,4.5,2
2013,10,24,05:00,UTC,8,995.3,0,97,0,0,10.1,9.6,6340,183,3.6,1.4
2013,10,24,06:00,UTC,8,995.6,0,97,0,0,10,9.6,2220,173,3.7,2
2013,10,24,07:00,UTC,8,995.9,0,97,0,0,10.3,9.9,4320,183,4.6,2.4
2013,10,24,08:00,UTC,8,995.6,0,97,0,0,10.5,10.1,7320,181,4.8,2.1
2013,10,24,09:00,UTC,8,995.5,0,97,0,0,10.8,10.3,3880,189,5.5,2.8
2013,10,24,10:00,UTC,8,995.2,0,97,0,0,11,10.5,6870,178,7.6,2.2
2013,10,24,11:00,UTC,7,994.9,0,95,0,0,11.4,10.6,16480,196,6.3,3
2013,10,24,12:00,UTC,8,994.8,0,92,0,0,11.6,10.4,24760,195,6.8,3.4
2013,10,24,13:00,UTC,7,994.4,0,91,0,0,11.4,10,24840,192,4.4,2.2
2013,10,24,14:00,UTC,5,994.4,0,88,0,0,11.1,9.2,36790,204,7,3.5
2013,10,24,15:00,UTC,7,994.2,0,90,0,0,10.2,8.7,35500,189,5.1,3
2013,10,24,16:00,UTC,7,994.2,0,90,0,0,9.7,8.2,23710,191,6.5,3
2013,10,24,17:00,UTC,7,994.4,0.1,87,0.7,0,9.6,7.5,25160,210,9.4,4.1
2013,10,24,18:00,UTC,7,994.6,0,87,0,0,9.4,7.3,39940,193,6.3,2.9
2013,10,24,19:00,UTC,8,994.7,0,88,0,0,8.9,7.1,35840,200,4.7,2.4
2013,10,24,20:00,UTC,7,994.7,0,91,0,0,8.4,7,25050,177,6,2.4
2013,10,24,21:00,UTC,1,994.8,0,90,0,0,7.5,6,27240,190,4.8,1.6
2013,10,24,22:00,UTC,5,994.7,0,90,0,0,7.5,6,29360,192,4.9,2.6
2013,10,24,23:00,UTC,7,994.7,0,90,0,0,6.9,5.4,24450,185,4.9,2
2013,10,25,00:00,UTC,8,994.4,0,89,0,0,6.8,5.1,27720,185,5.1,2.4
2013,10,25,01:00,UTC,8,994.4,0.1,93,0.4,0,6.4,5.4,4600,185,5.4,2.8
2013,10,25,02:00,UTC,8,994.6,0.1,95,0,0,6.4,5.7,2980,208,2.6,1.2
2013,10,25,03:00,UTC,8,994.9,0.3,96,0.3,0,6.3,5.7,2520,189,1.4,0.7
2013,10,25,04:00,UTC,8,995.3,0.1,96,0,0,6.4,5.8,11280,219,2.3,1.3
2013,10,25,05:00,UTC,7,996,0,96,0,0,6.3,5.7,7050,259,2.2,1.1
2013,10,25,06:00,UTC,8,996.8,0.1,95,0,0,6.3,5.6,50000,282,4.3,2.2
2013,10,25,07:00,UTC,8,997.6,0,96,0,0,6.7,6.1,18010,288,3,1.5
2013,10,25,08:00,UTC,7,998.9,0.1,93,0.3,0,6.7,5.7,14030,293,8.1,5.1
2013,10,25,09:00,UTC,7,1000.8,0,91,0,0,4.8,3.5,50000,293,7.5,5.1
2013,10,25,10:00,UTC,7,1002,0,89,0,0,4.4,2.8,50000,297,8.4,5.8
2013,10,25,11:00,UTC,7,1003.2,0,90,0,0,4.1,2.7,32850,298,7.7,4.1
2013,10,25,12:00,UTC,7,1004,0,90,0,0,4.1,2.6,50000,286,7.4,4.1
2013,10,25,13:00,UTC,7,1004.7,0,89,0,0,4.4,2.8,44380,281,7.7,3.8
2013,10,25,14:00,UTC,7,1005.2,0,90,0,0,4.9,3.4,23920,283,5.4,3.1
2013,10,25,15:00,UTC,7,1005.7,0,90,0,0,5.1,3.6,50000,273,5,2.6
2013,10,25,16:00,UTC,0,1006.2,0,90,0,0,4.9,3.4,45910,263,5.4,2.7
2013,10,25,17:00,UTC,0,1006.5,0,91,0,0,4.2,2.9,45540,259,4.1,2.2
2013,10,25,18:00,UTC,0,1007.2,0,89,0,0,3.8,2.2,45540,262,4.8,2.6
2013,10,25,19:00,UTC,0,1007.7,0,89,0,0,3.5,1.8,50000,257,5.3,2.3
2013,10,25,20:00,UTC,0,1008.1,0,89,0,0,3.3,1.6,50000,259,4.5,2
2013,10,25,21:00,UTC,0,1008.6,0,88,0,0,3.1,1.3,47550,263,5.3,2.6
2013,10,25,22:00,UTC,0,1008.3,0,89,0,0,2.8,1.1,50000,269,4.5,2.1
2013,10,25,23:00,UTC,1,1008.4,0,90,0,0,2.3,0.8,46580,247,4.3,2.3
2013,10,26,00:00,UTC,0,1008.5,0,90,0,0,2.2,0.8,45090,251,5.7,2.5
2013,10,26,01:00,UTC,7,1008.3,0,91,0,0,2.1,0.7,41670,245,4.7,2.5
2013,10,26,02:00,UTC,7,1008.5,0,91,0,0,2,0.7,41490,234,4.1,2.1
2013,10,26,03:00,UTC,7,1008.2,0,94,0,0,0.5,-0.3,17480,187,2.1,1.3
2013,10,26,04:00,UTC,7,1007.7,0,95,0,0,0,-0.6,16490,159,1.9,1.4
2013,10,26,05:00,UTC,7,1007.2,0,96,0,0,0.1,-0.5,15640,162,1.7,1.1
2013,10,26,06:00,UTC,5,1006.8,0,96,0,0,-0.3,-0.9,5860,168,1.3,0.8
2013,10,26,07:00,UTC,5,1006.1,0,96,0,0,0.1,-0.4,11460,149,2.4,1.7
2013,10,26,08:00,UTC,7,1005.2,0,96,0,0,1,0.5,8420,149,2.4,1.3
2013,10,26,09:00,UTC,7,1004.2,0,97,0,0,2.3,1.8,18960,138,2.3,1.4
2013,10,26,10:00,UTC,7,1003.3,0,95,0,0,3.5,2.8,45940,135,3,1.6
2013,10,26,11:00,UTC,7,1002.1,0,91,0,0,4.2,2.9,50000,142,3.8,2
2013,10,26,12:00,UTC,7,1000.9,0.2,95,0.7,0,4.3,3.7,7660,135,3,1.8
2013,10,26,13:00,UTC,7,1000,0.9,96,0.8,0,4.4,3.8,7530,142,4,2
2013,10,26,14:00,UTC,8,998.9,0.9,96,0.9,0,4.4,3.9,6810,127,4,2.3
2013,10,26,15:00,UTC,8,998.2,0.6,96,0.6,0,4.5,4,2990,126,5.4,3
2013,10,26,16:00,UTC,8,997.4,0.3,96,0.1,0,4.7,4.1,2460,132,4.2,2.4
2013,10,26,17:00,UTC,8,996.7,0.1,97,0,0,4.9,4.4,2970,133,5.4,2.8
2013,10,26,18:00,UTC,8,996.2,0.1,97,0,0,5.3,4.8,2960,140,3.8,2.3
2013,10,26,19:00,UTC,8,995.3,0.1,97,0,0,5.5,5,3270,137,4.5,2.3
2013,10,26,20:00,UTC,9,994.5,0.3,97,0,0,5.7,5.2,1990,140,4.5,2.6
2013,10,26,21:00,UTC,9,993.9,0.3,97,0.5,0,5.9,5.5,1170,142,4.7,2.4
2013,10,26,22:00,UTC,9,993.2,0.2,97,0.6,0,6.1,5.7,1390,147,5.7,2.3
2013,10,26,23:00,UTC,7,992.3,3.2,97,1.4,0,6.3,5.9,6230,148,5.3,2.5
2013,10,27,00:00,UTC,7,992.1,0.8,97,0.1,0,6.6,6.2,5780,152,3.4,1.6
2013,10,27,01:00,UTC,8,991.9,0.3,97,0,0,7.5,7.1,9080,176,3.4,1.6
2013,10,27,02:00,UTC,7,992,0.2,98,0,0,8.7,8.3,14490,222,3,1.1
2013,10,27,03:00,UTC,7,992.5,0,97,0,0,9,8.6,42420,215,2.5,1.3
2013,10,27,04:00,UTC,8,993.2,0,93,0,0,8.2,7.1,50000,272,6.1,3.4
2013,10,27,05:00,UTC,8,993.9,0,92,0,0,7.3,6.2,50000,264,3.5,1.8
2013,10,27,06:00,UTC,8,994.8,0,90,0,0,6.9,5.3,50000,256,7.4,3.2
2013,10,27,07:00,UTC,8,995.4,0,91,0,0,6.5,5.1,46610,253,5.8,1.5
2013,10,27,08:00,UTC,8,996,0,90,0,0,6.4,4.8,50000,273,4.4,1.3
2013,10,27,09:00,UTC,8,996.6,0,87,0,0,6.7,4.7,50000,254,3.7,1.1
2013,10,27,10:00,UTC,7,996.8,0,86,0,0,7.3,5.2,50000,222,4,1.9
2013,10,27,11:00,UTC,7,997,0,85,0,0,7.2,4.8,50000,,,
2013,10,27,12:00,UTC,7,997.2,0,84,0,0,7.2,4.7,50000,217,4.5,1.8
2013,10,27,13:00,UTC,8,997,0,85,0,0,7.3,4.9,50000,185,3.1,1.8
2013,10,27,14:00,UTC,8,996.7,0,87,0,0,7.3,5.3,50000,177,3.7,1.5
2013,10,27,15:00,UTC,8,996.4,0,90,0,0,7,5.4,47240,131,1.6,1.2
2013,10,27,16:00,UTC,8,996,0,94,0,0,6.4,5.5,22830,150,2.7,1.6
2013,10,27,17:00,UTC,7,995.3,0,94,0,0,6.8,6,12320,148,2.4,1.4
2013,10,27,18:00,UTC,8,994.8,0,95,0,0,7.1,6.3,18220,132,2.4,1.5
2013,10,27,19:00,UTC,8,994.2,0,96,0,0,7.4,6.7,14880,130,3,1.6
2013,10,27,20:00,UTC,8,993.3,0,96,0,0,7.9,7.2,9860,152,4.1,1.9
2013,10,27,21:00,UTC,8,992.7,0.1,97,0.3,0,8.3,7.8,2910,149,4,1.8
2013,10,27,22:00,UTC,8,991.9,0.6,97,0,0,8.8,8.3,2910,143,3.4,1.9
2013,10,27,23:00,UTC,8,991,0.1,97,0,0,9,8.6,5540,160,3,1.6
2013,10,28,00:00,UTC,8,990.5,0.1,97,0,0,8.8,8.4,8460,142,3.3,1.5
2013,10,28,01:00,UTC,8,989.6,0,97,0,0,8.8,8.3,4510,151,4.4,2
2013,10,28,02:00,UTC,8,988.5,0.1,97,0,0,9.1,8.6,2270,153,6,2.9
2013,10,28,03:00,UTC,8,987.6,0.1,97,0,0,9.4,9,3990,150,5.3,2.6
2013,10,28,04:00,UTC,8,986.7,0.1,97,0,0,9.5,9,5700,151,5.7,3.2
2013,10,28,05:00,UTC,7,985.7,0.1,97,0,0,9.5,9,5760,148,7.2,3.5
2013,10,28,06:00,UTC,8,985,1.3,96,2.2,0,9.6,9,4310,155,6.8,3
2013,10,28,07:00,UTC,8,984.3,2.6,97,1.2,0,9.9,9.3,6250,155,7.8,3.6
2013,10,28,08:00,UTC,7,984.1,1,96,0.4,0,10.1,9.6,7120,166,4.8,2.7
2013,10,28,09:00,UTC,7,984.6,0.2,91,0.1,0,9.9,8.5,42180,218,8,3.1
2013,10,28,10:00,UTC,7,984.6,0,91,0,0,9.9,8.6,31830,193,4.2,2
2013,10,28,11:00,UTC,7,985.1,0,90,0,0,9.9,8.4,33940,187,5.9,2.8
2013,10,28,12:00,UTC,7,985.2,0,88,0,0,9.4,7.6,20310,185,6.1,2.5
2013,10,28,13:00,UTC,7,985,0.1,91,0,0,9,7.6,10140,179,8,3.4
2013,10,28,14:00,UTC,7,985,0,92,0,0,8.7,7.4,21450,173,4.9,2.4
2013,10,28,15:00,UTC,7,984.9,0,93,0,0,8.7,7.6,25580,164,5.4,2.5
2013,10,28,16:00,UTC,7,984.7,0,91,0,0,8.9,7.5,23790,175,5.2,2.6
2013,10,28,17:00,UTC,7,984.2,0,92,0,0,8.8,7.6,11760,164,6.4,3
2013,10,28,18:00,UTC,8,983.9,0.1,93,0,0,8.7,7.6,16590,174,4.8,2.2
2013,10,28,19:00,UTC,8,983.3,0,92,0,0,8.8,7.6,16310,159,5,2.4
2013,10,28,20:00,UTC,7,982.4,0,93,0,0,8.7,7.7,11890,160,4.2,2.1
2013,10,28,21:00,UTC,7,981.3,0.2,95,0.4,0,8.6,7.8,11230,146,6.1,2.6
2013,10,28,22:00,UTC,8,979.9,0.5,96,0.2,0,8.4,7.8,7530,144,5.7,2.5
2013,10,28,23:00,UTC,8,978.6,0.8,96,1.8,0,8.3,7.7,6970,136,4.7,2.7
2013,10,29,00:00,UTC,7,976.7,3,96,2.6,0,8.3,7.8,7720,128,6.1,3.7
2013,10,29,01:00,UTC,7,974.7,2.4,96,0.8,0,8,7.4,20280,91,6.6,4.3
2013,10,29,02:00,UTC,8,972.9,1.2,95,0.8,0,7.6,6.9,7100,62,4.7,2.8
2013,10,29,03:00,UTC,8,972.1,0.7,96,0.5,0,7.6,6.9,7730,60,4.5,3
2013,10,29,04:00,UTC,8,971.6,0.3,96,0.3,0,7.6,7,2790,15,2.5,1.1
2013,10,29,05:00,UTC,8,972,0.2,97,0,0,7.4,6.9,1720,311,2.8,2.4
2013,10,29,06:00,UTC,8,973,0.1,97,0,0,7.3,6.8,2710,306,5.4,3.9
2013,10,29,07:00,UTC,8,974.7,0.1,96,0,0,7.2,6.7,4250,307,8.3,5.5
2013,10,29,08:00,UTC,7,976.3,0,94,0,0,7.7,6.7,50000,290,6.7,4.6
2013,10,29,09:00,UTC,8,978.3,0,94,0,0,7.9,7,50000,282,6.3,3.4
2013,10,29,10:00,UTC,8,980.1,0,90,0,0,8.3,6.8,33960,272,8.1,3.4
2013,10,29,11:00,UTC,3,981.6,0,86,0,0,7.9,5.7,42950,263,7.9,3.9
2013,10,29,12:00,UTC,7,982.8,0,84,0,0,7.5,5.1,50000,264,5.9,2.7
2013,10,29,13:00,UTC,5,984.2,0,80,0,0,6.8,3.7,50000,267,8.4,3.3
2013,10,29,14:00,UTC,5,985.3,0,83,0,0,6.4,3.6,50000,235,5.9,2.5
2013,10,29,15:00,UTC,7,986,0,82,0,0,6.1,3.2,50000,230,6.9,2.7
2013,10,29,16:00,UTC,3,986.8,0,80,0,0,6.1,2.9,50000,240,7.3,3.1
2013,10,29,17:00,UTC,8,987.4,0,81,0,0,6.1,3.1,50000,239,6,2.2
2013,10,29,18:00,UTC,7,988,0,78,0,0,5.7,2.1,50000,246,5.8,2.4
2013,10,29,19:00,UTC,3,988.5,0,81,0,0,5.1,2.1,50000,228,5.7,2.5
2013,10,29,20:00,UTC,7,988.8,0,83,0,0,5.3,2.6,50000,222,5.2,2.5
2013,10,29,21:00,UTC,7,989.3,0,83,0,0,5.1,2.4,50000,227,5.3,2.8
2013,10,29,22:00,UTC,7,989.7,0,85,0,0,4.6,2.3,50000,223,7,2.7
2013,10,29,23:00,UTC,7,990.4,0,88,0,0,4.4,2.5,50000,239,4.3,1.9
2013,10,30,00:00,UTC,7,990.9,0,85,0,0,4.8,2.5,50000,238,7,3.1
2013,10,30,01:00,UTC,7,991.5,0,85,0,0,4.7,2.3,50000,240,5.8,2.5
2013,10,30,02:00,UTC,7,992.1,0,84,0,0,4.8,2.3,50000,244,6.2,3.3
2013,10,30,03:00,UTC,7,992.6,0,84,0,0,4.7,2.2,50000,256,5.5,2.4
2013,10,30,04:00,UTC,7,993.3,0,83,0,0,4.6,2,50000,258,9.1,3.5
2013,10,30,05:00,UTC,7,993.9,0,83,0,0,4.7,2.1,50000,258,7,3.7
2013,10,30,06:00,UTC,8,994.9,0,83,0,0,4.4,1.7,50000,266,8.2,3.5
2013,10,30,07:00,UTC,8,996.2,0,84,0,0,4.2,1.7,50000,262,5.4,2.6
2013,10,30,08:00,UTC,8,997.3,0,80,0,0,4.4,1.3,50000,267,5.4,2.6
2013,10,30,09:00,UTC,5,998.4,0,77,0,0,4.6,0.9,43280,258,6.5,2.9
2013,10,30,10:00,UTC,1,998.9,0,73,0,0,5.2,0.8,35920,260,6.2,2.8
2013,10,30,11:00,UTC,0,999.5,0,71,0,0,5.9,0.9,39020,263,7.3,3
2013,10,30,12:00,UTC,3,1000.4,0,67,0,0,6.1,0.5,46910,266,6.7,3
2013,10,30,13:00,UTC,0,1001.1,0,71,0,0,5,0.1,50000,266,4,2.4
2013,10,30,14:00,UTC,0,1001.8,0,74,0,0,4.1,-0.2,50000,260,4.3,2
2013,10,30,15:00,UTC,0,1002.7,0,78,0,0,3.3,-0.2,49830,270,5.5,2.4
2013,10,30,16:00,UTC,0,1003.5,0,81,0,0,2.3,-0.5,47070,269,3.8,1.8
2013,10,30,17:00,UTC,1,1004,0,85,0,0,1.9,-0.4,49640,255,4.8,1.7
2013,10,30,18:00,UTC,1,1004.5,0,87,0,0,1.5,-0.5,49480,282,3.4,1.9
2013,10,30,19:00,UTC,1,1005,0,89,0,0,0.2,-1.3,37150,227,2.7,1.4
2013,10,30,20:00,UTC,7,1005.4,0,89,0,0,0.7,-0.9,41500,233,4.6,1.7
2013,10,30,21:00,UTC,7,1005.9,0,85,0,0,1.2,-1.1,46260,248,5.5,2.2
2013,10,30,22:00,UTC,7,1006,0,85,0,0,1,-1.3,49030,249,4.8,2.1
2013,10,30,23:00,UTC,7,1006.4,0,86,0,0,0.6,-1.4,45230,265,4.5,1.8
2013,10,31,00:00,UTC,0,1006.4,0,84,0,0,0.4,-2,50000,256,4.8,1.9
2013,10,31,01:00,UTC,0,1006.8,0,85,0,0,0.1,-2.2,50000,258,4.6,1.8
2013,10,31,02:00,UTC,0,1007.2,0,87,0,0,-0.6,-2.5,50000,252,3.5,1.4
2013,10,31,03:00,UTC,0,1007.5,0,87,0,0,-0.3,-2.2,49650,260,4.6,2.3
2013,10,31,04:00,UTC,0,1007.6,0,87,0,0,-0.6,-2.5,50000,255,5,2.3
2013,10,31,05:00,UTC,0,1007.8,0,87,0,0,-0.6,-2.5,50000,249,4.1,2.2
2013,10,31,06:00,UTC,0,1008.4,0,87,0,0,-0.8,-2.7,49850,271,3.8,1.7
2013,10,31,07:00,UTC,0,1009,0,84,0,0,0.1,-2.3,,256,6.4,3
2013,10,31,08:00,UTC,0,1009.2,0,79,0,0,1.3,-1.9,41410,256,6,2.5
2013,10,31,09:00,UTC,0,1009.6,0,76,0,0,2.7,-1.2,40320,257,6,3.1
2013,10,31,10:00,UTC,0,1009.9,0,71,0,0,3.6,-1.2,40810,248,6.7,2.7
2013,10,31,11:00,UTC,0,1010.2,0,67,0,0,3.5,-1.9,49400,242,5.7,2.3
2013,10,31,12:00,UTC,1,1010.6,0,68,0,0,3.2,-2.1,50000,217,3.8,1.8
2013,10,31,13:00,UTC,5,1010.3,0,74,0,0,2.4,-1.7,50000,154,1.8,1.1
2013,10,31,14:00,UTC,7,1010.2,0,82,0,0,1.6,-1.2,43320,169,2.3,1.4
2013,10,31,15:00,UTC,7,1009.6,0,87,0,0,1.4,-0.6,43370,134,2.3,1.2
2013,10,31,16:00,UTC,7,1009.1,0,87,0,0,2.5,0.5,47890,152,2.9,1.5
2013,10,31,17:00,UTC,7,1008.7,0,86,0,0,3.4,1.2,48700,174,3.7,1.8
2013,10,31,18:00,UTC,7,1008.3,0.1,89,0.5,0,3.5,2,17900,164,3.3,1.6
2013,10,31,19:00,UTC,7,1007.4,0.3,94,0.7,0,3.6,2.7,16260,151,4.3,1.8
2013,10,31,20:00,UTC,7,1006.1,0.1,95,0,0,4.2,3.6,11280,171,6.2,2.8
2013,10,31,21:00,UTC,7,1005.5,0.3,96,0.4,0,5,4.4,5350,170,4.8,2.8
2013,10,31,22:00,UTC,7,1004.8,0.2,96,0.5,0,5.5,4.9,6990,172,6.6,2.7
2013,10,31,23:00,UTC,7,1004.3,0.2,95,0.5,0,6.1,5.4,12190,191,6.2,3
2013,11,1,00:00,UTC,7,1003.9,0.1,95,0,0,6.4,5.7,13540,190,5.5,2.6
2013,11,1,01:00,UTC,7,1003.7,0.2,95,0.1,0,6.7,5.9,37140,215,4.2,2.2
2013,11,1,02:00,UTC,8,1003.8,0.3,95,0.2,0,6.7,5.9,49000,210,3.3,1.6
2013,11,1,03:00,UTC,7,1003.6,0,92,0,0,6.3,5.1,50000,238,4.6,2
2013,11,1,04:00,UTC,7,1003.4,0,93,0,0,5.9,4.9,50000,259,3.4,1.5
2013,11,1,05:00,UTC,7,1003.3,0,93,0,0,5.2,4.1,50000,255,4.8,1.8
2013,11,1,06:00,UTC,7,1003.2,0,94,0,0,5.3,4.4,50000,251,2.9,1.4
2013,11,1,07:00,UTC,7,1003.2,0,91,0,0,5.2,4,50000,245,1.9,0.8
2013,11,1,08:00,UTC,8,1002.9,0,93,0,0,5.9,4.9,37780,273,1.6,0.7
2013,11,1,09:00,UTC,7,1003.2,0,89,0,0,6.6,4.8,48110,241,3.9,1.8
2013,11,1,10:00,UTC,8,1002.8,0,88,0,0,7.3,5.4,45630,243,1.9,0.7
2013,11,1,11:00,UTC,7,1002.3,0,84,0,0,7.5,4.9,38420,223,2.3,1.1
2013,11,1,12:00,UTC,8,1002.1,0,84,0,0,7,4.5,43820,203,2.3,1.2
2013,11,1,13:00,UTC,8,1002.1,0,87,0,0,6.7,4.7,45720,218,2.3,1
2013,11,1,14:00,UTC,7,1001.8,0,90,0,0,6.1,4.6,31460,195,2,1
2013,11,1,15:00,UTC,7,1001.5,0,92,0,0,4.8,3.7,11130,153,2,0.9
2013,11,1,16:00,UTC,5,1001.5,0,94,0,0,4,3.1,8640,172,2.2,1.4
2013,11,1,17:00,UTC,3,1001.4,0,94,0,0,4.1,3.2,18430,172,2.1,1.2
2013,11,1,18:00,UTC,1,1001.1,0,95,0,0,2.1,1.5,1200,170,2.6,1.3
2013,11,1,19:00,UTC,7,1000.3,0,96,0,0,3.2,2.6,1250,138,2.1,1.3
2013,11,1,20:00,UTC,8,999.2,0,96,0,0,3.4,2.9,2280,130,2.4,1.3
2013,11,1,21:00,UTC,8,998.3,0.1,97,0.3,0,4.3,3.8,5130,162,2.6,1.4
2013,11,1,22:00,UTC,7,997.7,2.4,96,0.4,0,4.6,3.9,30950,154,4.7,2.2
2013,11,1,23:00,UTC,7,997.3,0,96,0,0,4.8,4.2,32830,171,3.8,1.4
2013,11,2,00:00,UTC,7,997.3,0,96,0,0,5,4.4,34840,161,2.6,1.3
2013,11,2,01:00,UTC,7,997.3,0.1,94,0,0,5.1,4.2,38930,207,4.2,1.9
2013,11,2,02:00,UTC,7,997.4,0,93,0,0,4.9,3.9,48390,206,3.8,1.8
2013,11,2,03:00,UTC,7,997.4,0,93,0,0,5,4,41520,224,4.8,1.6
2013,11,2,04:00,UTC,7,997.4,0,92,0,0,5.1,3.9,23010,226,4.3,2.3
2013,11,2,05:00,UTC,7,997.7,0,89,0,0,5.1,3.4,50000,244,5.1,2.1
2013,11,2,06:00,UTC,8,998.3,0,87,0,0,5,3.1,50000,220,5.3,2.5
2013,11,2,07:00,UTC,8,998.8,0,88,0,0,4.9,3,50000,225,4.6,2.1
2013,11,2,08:00,UTC,8,999.5,0,86,0,0,5,2.9,50000,211,4.3,1.8
2013,11,2,09:00,UTC,8,1000,0,84,0,0,5.2,2.7,50000,220,4.1,2.1
2013,11,2,10:00,UTC,8,1000.3,0,81,0,0,5.4,2.4,50000,238,7.9,3.4
2013,11,2,11:00,UTC,7,1000.4,0,76,0,0,5.6,1.7,49160,239,7.1,3
2013,11,2,12:00,UTC,8,1000.6,0,76,0,0,5.5,1.6,50000,202,5.2,2.4
2013,11,2,13:00,UTC,7,1000.6,0,76,0,0,5.2,1.4,50000,209,4.7,2.1
2013,11,2,14:00,UTC,8,1000.4,0,77,0,0,5,1.3,49120,187,1.6,0.8
2013,11,2,15:00,UTC,8,1000.7,0,84,0,0,4.3,1.8,42100,175,1.6,0.6
2013,11,2,16:00,UTC,8,1000.4,0,88,0,0,3.9,2.1,27930,157,2.1,1.2
2013,11,2,17:00,UTC,8,1000,0,88,0,0,4.1,2.2,25290,159,2.5,1.3
2013,11,2,18:00,UTC,7,999.9,0,90,0,0,3.9,2.4,22110,182,1.9,0.8
2013,11,2,19:00,UTC,5,999.9,0.1,94,0,0,2.7,1.9,12920,153,2.3,1.3
2013,11,2,20:00,UTC,8,999.9,0.1,95,0,0,3.1,2.4,9730,131,1.6,1
2013,11,2,21:00,UTC,7,999.9,0.1,96,0,0,2.7,2.1,4640,163,1.9,1.2
2013,11,2,22:00,UTC,7,999.9,0,96,0,0,2.9,2.3,7380,126,1.5,1
2013,11,2,23:00,UTC,8,999.9,0.2,96,1,0,3,2.4,2450,309,2.4,1.6
2013,11,3,00:00,UTC,8,999.9,0.9,96,0,0,2.9,2.4,2750,163,1.1,0.8
2013,11,3,01:00,UTC,8,999.9,0.1,96,0,0,2.6,2.1,420,120,0.9,0.8
2013,11,3,02:00,UTC,9,1000,0,96,0,0,0.6,0.1,250,0,0.6,0
2013,11,3,03:00,UTC,7,1000.1,0,96,0,0,0.8,0.3,470,194,0.9,0.6
2013,11,3,04:00,UTC,7,1000.5,0,97,0,0,1.1,0.6,1180,244,1.1,0.8
2013,11,3,05:00,UTC,8,1000.6,0,97,0,0,1.1,0.6,2410,183,1.3,0.9
2013,11,3,06:00,UTC,8,1001.1,0,97,0,0,1.2,0.7,10660,0,0.7,0
2013,11,3,07:00,UTC,8,1001.4,0,97,0,0,1.6,1.1,20100,0,0.7,0
2013,11,3,08:00,UTC,8,1002,0,97,0,0,2.4,1.9,14830,225,1.5,0.7
2013,11,3,09:00,UTC,8,1002.3,0,97,0,0,3,2.5,18910,0,0.8,0
2013,11,3,10:00,UTC,7,1002.2,0,97,0,0,3.6,3.2,25840,108,1.2,0.9
2013,11,3,11:00,UTC,8,1002.4,0,89,0,0,4,2.3,37290,197,3,1.2
2013,11,3,12:00,UTC,7,1002.4,0,84,0,0,4,1.6,38000,141,3,1.1
2013,11,3,13:00,UTC,8,1002.6,0,87,0,0,3.7,1.7,41690,119,3,1.9
2013,11,3,14:00,UTC,8,1002.6,0,83,0,0,3.3,0.7,50000,100,4,2.2
2013,11,3,15:00,UTC,8,1002.7,0,84,0,0,3,0.6,50000,124,3.5,2
2013,11,3,16:00,UTC,8,1002.7,0,86,0,0,2.6,0.6,48920,139,2.3,1.4
2013,11,3,17:00,UTC,9,1002.7,0,96,0,0,0.7,0.1,510,131,3.5,2.2
2013,11,3,18:00,UTC,8,1002.6,0,96,0,0,0.5,-0.1,1800,149,4.5,2.3
2013,11,3,19:00,UTC,8,1002.6,0,97,0,0,0.7,0.3,5320,116,6.4,4.2
2013,11,3,20:00,UTC,8,1002.4,0,96,0,0,0.9,0.3,50000,131,9,4.6
2013,11,3,21:00,UTC,8,1001.6,0,95,0,0,1.2,0.5,49040,129,5.7,3
2013,11,3,22:00,UTC,8,1000.8,0,91,0,0,1.8,0.5,50000,126,8,4.3
2013,11,3,23:00,UTC,8,1000,0,90,0,0,2.1,0.7,50000,128,8.2,4.3
2013,11,4,00:00,UTC,8,999.2,0,89,0,0,2.3,0.7,50000,120,5.8,3.1
2013,11,4,01:00,UTC,8,997.8,0,88,0,0,2.7,0.9,50000,107,7.6,5.3
2013,11,4,02:00,UTC,7,996.7,0,87,0,0,2.9,1,50000,97,8.2,6.4
2013,11,4,03:00,UTC,8,995.6,0,86,0,0,3.2,1,49600,109,8.9,5.9
2013,11,4,04:00,UTC,8,994.5,0,88,0,0,2.9,1.2,9710,110,9.5,5.8
2013,11,4,05:00,UTC,7,993.6,1,92,1.1,0,2.6,1.4,13320,107,8.5,5.8
2013,11,4,06:00,UTC,8,992.6,1.4,93,0.9,0,2.3,1.3,8650,102,9.3,5.8
2013,11,4,07:00,UTC,8,991.8,0.8,94,0.7,0,2.3,1.4,15650,106,6.4,4.5
2013,11,4,08:00,UTC,8,991,0.5,94,0.5,0,2.5,1.6,17510,105,7.3,4.7
2013,11,4,09:00,UTC,8,990.3,1.4,94,1.1,0,2.6,1.7,17020,102,6.4,4.3
2013,11,4,10:00,UTC,8,989.4,2,94,1.6,0,2.8,1.9,9780,96,7.2,4.5
2013,11,4,11:00,UTC,8,988.6,1.4,95,2.3,0,2.9,2.1,8620,93,5.1,3.4
2013,11,4,12:00,UTC,8,987.9,1.6,94,1.6,0,2.8,1.9,13420,90,4.7,3.4
2013,11,4,13:00,UTC,8,987.5,1.7,94,1.7,0,2.5,1.6,9400,94,5.3,3.6
2013,11,4,14:00,UTC,8,987.4,1.8,95,1.5,0,2.2,1.5,14930,96,5,3
2013,11,4,15:00,UTC,8,987.2,0.9,95,0.7,0,1.8,1.1,20630,103,2.3,1.5
2013,11,4,16:00,UTC,8,987,0.3,95,0.3,0,1.5,0.9,11350,63,2,1.4
2013,11,4,17:00,UTC,8,987,0.3,96,0.7,0,1.4,0.8,6960,0,0.6,0
2013,11,4,18:00,UTC,8,987.2,1.1,95,1.9,0,0.5,-0.2,1640,140,1,0.7
2013,11,4,19:00,UTC,9,987.3,1.1,96,0.9,0,0.1,-0.5,1380,154,1.2,0.8
2013,11,4,20:00,UTC,7,987.4,0.7,96,0.3,0,0,-0.5,1810,171,2,0.9
2013,11,4,21:00,UTC,7,987.5,0,96,0,0,0.2,-0.4,4890,133,2,1.3
2013,11,4,22:00,UTC,9,987.7,0,96,0,0,0.2,-0.4,2710,162,1.6,0.8
2013,11,4,23:00,UTC,9,987.8,0,96,0,0,0.2,-0.3,820,163,2.2,1.1
2013,11,5,00:00,UTC,9,987.8,0.1,96,0,0,0.2,-0.3,690,161,1.5,0.9
2013,11,5,01:00,UTC,9,987.7,0,97,0,0,0.6,0.2,660,159,1.5,0.9
2013,11,5,02:00,UTC,7,987.8,0,97,0,0,1.6,1.1,2530,170,3,1.4
2013,11,5,03:00,UTC,7,987.8,0,97,0,0,2.1,1.7,5290,144,1.9,1
2013,11,5,04:00,UTC,8,987.7,0,97,0,0,3,2.6,7070,179,3.8,1.6
2013,11,5,05:00,UTC,8,987.4,0,97,0,0,2.9,2.5,1680,133,2.1,1.3
2013,11,5,06:00,UTC,7,987.1,0,97,0,0,3.7,3.3,7090,121,3.9,2
2013,11,5,07:00,UTC,7,986.9,0,97,0,0,4.2,3.8,9560,123,4.6,2.6
2013,11,5,08:00,UTC,7,986,0.1,97,0,0,4.5,4.1,11290,120,5.6,3.5
2013,11,5,09:00,UTC,7,985,0.3,96,0.5,0,4.5,3.9,5660,108,6.8,4.5
2013,11,5,10:00,UTC,7,983.7,0.2,96,0.1,0,4.6,4,4560,119,6.7,4.6
2013,11,5,11:00,UTC,7,982.6,1.3,95,1.9,0,4.6,3.9,9060,122,8.9,4.7
2013,11,5,12:00,UTC,7,981.4,1.2,95,0.9,0,4.6,3.9,16140,123,9.7,4.9
2013,11,5,13:00,UTC,7,980.3,0.3,95,0.3,0,4.4,3.7,6860,120,7.9,4.7
2013,11,5,14:00,UTC,7,979.3,1.5,96,2.5,0,5,4.3,10470,126,8.7,4.5
2013,11,5,15:00,UTC,7,978.5,0.6,95,0.3,0,5.4,4.7,10390,142,8.9,4
2013,11,5,16:00,UTC,5,978.2,0.1,92,0,0,5.3,4.2,30600,155,7.8,4
2013,11,5,17:00,UTC,7,977.9,0,89,0,0,5.4,3.7,27280,158,9.5,4.6
2013,11,5,18:00,UTC,7,977.3,0.1,91,0,0,5.1,3.7,14850,155,10,4.6
2013,11,5,19:00,UTC,7,976.9,0.2,89,0.7,0,5,3.4,10470,165,16.3,6.1
2013,11,5,20:00,UTC,7,977.1,1,92,1.4,0,4.4,3.2,7160,181,10.5,4.6
2013,11,5,21:00,UTC,7,977.8,1.2,92,0.5,0,4,2.8,8160,185,10.7,4.8
2013,11,5,22:00,UTC,7,978.9,0.3,91,0.2,0,3.8,2.5,7140,199,11.2,5.1
2013,11,5,23:00,UTC,7,980,0.2,90,0.1,0,3.6,2.2,21020,197,14.3,5.8
2013,11,6,00:00,UTC,7,981.2,0.3,90,0.5,0,3.6,2,14450,211,11,4.9
2013,11,6,01:00,UTC,7,982.4,0.1,88,0.4,0,3.4,1.6,15680,206,10.7,4.4
2013,11,6,02:00,UTC,7,983.7,0,89,0,0,3.4,1.8,19440,207,8.9,4.2
2013,11,6,03:00,UTC,7,984.8,0,90,0,0,3.5,2,50000,203,7.4,3.1
2013,11,6,04:00,UTC,7,985.8,0,87,0,0,3.2,1.3,50000,208,7.2,3.2
2013,11,6,05:00,UTC,7,986.6,0,89,0,0,3.3,1.7,50000,210,6.1,2.9
2013,11,6,06:00,UTC,7,987.3,0,90,0,0,3.2,1.7,28600,185,4.9,2.5
2013,11,6,07:00,UTC,7,988,0,88,0,0,3.3,1.5,50000,193,7.4,3.1
2013,11,6,08:00,UTC,7,988.5,0,86,0,0,3.7,1.7,50000,214,4.9,2.5
2013,11,6,09:00,UTC,7,988.8,0,86,0,0,3.9,1.9,50000,199,5.5,2.5
2013,11,6,10:00,UTC,7,989,0.4,90,0.7,0,3.2,1.7,22970,216,4.5,2
2013,11,6,11:00,UTC,5,989.1,0.1,90,0,0,3.1,1.7,50000,248,2.8,1.1
2013,11,6,12:00,UTC,5,989.3,0,86,0,0,4.5,2.4,47180,222,2.7,1.2
2013,11,6,13:00,UTC,5,989.8,0,89,0,0,3.4,1.7,50000,217,2.9,1.4
2013,11,6,14:00,UTC,3,990.2,0,92,0,0,2.5,1.4,50000,239,3.1,1.3
2013,11,6,15:00,UTC,1,990.7,0,94,0,0,0.3,-0.5,14320,226,2.2,1.1
2013,11,6,16:00,UTC,1,991.2,0,95,0,0,-0.7,-1.4,4440,192,1.6,1.2
2013,11,6,17:00,UTC,5,991.9,0,96,0,0,-1.2,-1.8,8170,189,1.7,1
2013,11,6,18:00,UTC,7,992.2,0,96,0,0,-0.3,-0.9,7560,199,2.7,1.3
2013,11,6,19:00,UTC,7,992.4,0,96,0,0,0.9,0.4,25820,250,2.6,1.3
2013,11,6,20:00,UTC,7,992.7,0,96,0,0,0.5,0,5930,202,2.8,1.3
2013,11,6,21:00,UTC,8,993.1,0,96,0,0,0.8,0.3,7780,179,1.3,0.9
2013,11,6,22:00,UTC,8,993.5,0,96,0,0,0.9,0.4,6960,211,1.4,0.8
2013,11,6,23:00,UTC,8,994,0,96,0,0,1.1,0.6,6460,191,1.7,0.8
2013,11,7,00:00,UTC,8,994.2,0,97,0,0,1.5,1,8320,207,1.4,0.6
2013,11,7,01:00,UTC,7,994.5,0,97,0,0,1.8,1.3,21560,216,2.6,0.8
2013,11,7,02:00,UTC,8,994.8,0,96,0,0,2.1,1.6,14460,241,2,0.9
2013,11,7,03:00,UTC,8,995.1,0.1,96,0,0,2,1.5,2900,291,2.9,1.8
2013,11,7,04:00,UTC,8,995.5,0.2,96,0.5,0,1.7,1.1,3850,277,2.5,1.4
2013,11,7,05:00,UTC,7,995.9,0.1,96,0,0,1.4,0.8,6200,0,0.6,0
2013,11,7,06:00,UTC,8,996.4,0,96,0,0,1.3,0.8,15780,301,1.9,0.9
2013,11,7,07:00,UTC,7,996.8,0,96,0,0,1.1,0.5,35270,312,2.4,1.4
2013,11,7,08:00,UTC,7,997.3,0,95,0,0,1.1,0.3,22990,290,1.9,1.1
2013,11,7,09:00,UTC,8,997.4,0,92,0,0,1.4,0.2,50000,264,2.2,1.2
2013,11,7,10:00,UTC,8,997.7,0,91,0,0,1.4,0.2,42850,286,3.1,1.7
2013,11,7,11:00,UTC,8,998.1,0,91,0,0,1.4,0.1,50000,292,2.2,1.4
2013,11,7,12:00,UTC,8,998.1,0,91,0,0,1.4,0.1,50000,317,1.5,0.6
2013,11,7,13:00,UTC,8,998.2,0,92,0,0,1.3,0.2,33270,62,1.1,0.9
2013,11,7,14:00,UTC,8,998.2,0.1,94,0,0,1.1,0.2,15760,0,0.9,0
2013,11,7,15:00,UTC,8,998.4,0,95,0,0,1.1,0.5,12940,133,1.5,0.9
2013,11,7,16:00,UTC,7,998.4,0,96,0,0,1.2,0.6,8980,127,1.7,1.3
2013,11,7,17:00,UTC,7,998.4,0,96,0,0,1.3,0.7,9470,144,1.3,0.8
2013,11,7,18:00,UTC,7,998.1,0,96,0,0,1.3,0.7,4020,144,1.3,0.9
2013,11,7,19:00,UTC,7,998.1,0,96,0,0,0.7,0.1,1320,156,1.5,0.9
2013,11,7,20:00,UTC,7,998,0,96,0,0,0.4,-0.1,2370,152,1.9,0.9
2013,11,7,21:00,UTC,8,997.9,0.2,96,0,0,1,0.5,5810,145,2.5,1.6
2013,11,7,22:00,UTC,8,997.6,0.3,97,0.4,0,1.2,0.7,8980,148,1.9,1.1
2013,11,7,23:00,UTC,7,997.3,0,97,0,0,1.4,0.9,6670,144,1.6,1.1
2013,11,8,00:00,UTC,8,997.2,0,97,0,0,1.7,1.3,4940,161,1.5,0.8
2013,11,8,01:00,UTC,8,996.9,0,97,0,0,1.8,1.4,3470,136,2,1.1
2013,11,8,02:00,UTC,8,996.7,0,97,0,0,2.3,1.8,3870,141,2.7,1.4
2013,11,8,03:00,UTC,8,996.2,0,97,0,0,2.6,2.1,4570,139,3.1,1.5
2013,11,8,04:00,UTC,8,996,0,97,0,0,2.6,2.2,4250,133,3.6,1.9
2013,11,8,05:00,UTC,8,996.1,0.1,97,0,0,2.7,2.2,5530,151,3.6,1.7
2013,11,8,06:00,UTC,8,995.9,0,97,0,0,2.7,2.2,3980,137,2.5,1.5
2013,11,8,07:00,UTC,7,995.9,0,97,0,0,2.9,2.4,4820,141,3.5,1.7
2013,11,8,08:00,UTC,8,995.9,0,97,0,0,3,2.6,7470,126,2.8,1.5
2013,11,8,09:00,UTC,8,996.1,0,97,0,0,3.1,2.6,3070,127,4.2,1.9
2013,11,8,10:00,UTC,8,996.1,0.3,97,0.5,0,3.3,2.9,5010,130,2.5,1.4
2013,11,8,11:00,UTC,8,996.4,0.3,97,0.8,0,3.6,3.1,9490,0,0.9,0
2013,11,8,12:00,UTC,8,996.8,0.8,96,0.5,0,3.7,3.2,8610,154,1.6,0.8
2013,11,8,13:00,UTC,8,997.4,0.1,96,0,0,3.7,3,25320,239,1.2,0.7
2013,11,8,14:00,UTC,8,998.5,0,95,0,0,3.3,2.6,46480,225,2.1,0.9
2013,11,8,15:00,UTC,8,999.3,0,95,0,0,3.3,2.5,50000,270,2.5,1.3
2013,11,8,16:00,UTC,8,1000.2,0,94,0,0,3.1,2.3,25080,243,3.1,1.1
2013,11,8,17:00,UTC,8,1000.8,0,94,0,0,3,2.1,50000,231,2.9,1.3
2013,11,8,18:00,UTC,8,1001.5,0,94,0,0,2.8,2,9580,224,3.4,1.8
2013,11,8,19:00,UTC,7,1002.2,0,93,0,0,2.4,1.4,50000,212,3.4,1.8
2013,11,8,20:00,UTC,7,1002.7,0,94,0,0,1.7,0.8,50000,191,1.8,1
2013,11,8,21:00,UTC,8,1003.1,0,95,0,0,1.9,1.2,45140,172,2.7,1.3
2013,11,8,22:00,UTC,7,1003.5,0,95,0,0,2,1.4,21290,170,1.9,1.1
2013,11,8,23:00,UTC,8,1003.9,0,96,0,0,2.3,1.7,45080,170,2.5,1
2013,11,9,00:00,UTC,8,1004.1,0,95,0,0,2.4,1.7,14740,162,2.3,1
2013,11,9,01:00,UTC,8,1004.3,0,96,0,0,2.6,2,15400,136,2.2,0.9
2013,11,9,02:00,UTC,8,1004.3,0,96,0,0,3.3,2.8,15850,165,2.3,0.9
2013,11,9,03:00,UTC,8,1004.5,0,96,0,0,3.9,3.3,10100,170,3.6,1.8
2013,11,9,04:00,UTC,7,1004.7,0,96,0,0,3.9,3.3,20080,186,3.1,1.4
2013,11,9,05:00,UTC,8,1005.1,0,95,0,0,4.1,3.4,16150,172,2.9,1.2
2013,11,9,06:00,UTC,7,1005.6,0.1,96,0,0,4.2,3.6,14550,161,2.6,1.4
2013,11,9,07:00,UTC,7,1005.9,0,95,0,0,4.2,3.5,16320,160,4.1,1.8
2013,11,9,08:00,UTC,7,1006.4,0,95,0,0,4.7,4,13060,168,3.3,1.7
2013,11,9,09:00,UTC,8,1006.5,0.1,95,0,0,5.3,4.6,14190,175,4.7,1.8
2013,11,9,10:00,UTC,7,1006.7,0,93,0,0,5.9,4.9,15670,177,5.9,2.3
2013,11,9,11:00,UTC,7,1006.6,0.1,92,0.4,0,5.9,4.8,12990,190,6.1,3.3
2013,11,9,12:00,UTC,7,1006.4,0,90,0,0,5.8,4.4,17530,185,4.7,2.1
2013,11,9,13:00,UTC,8,1006.5,0,90,0,0,5.8,4.3,13410,172,5,1.8
2013,11,9,14:00,UTC,7,1006.7,0,93,0,0,5.5,4.5,12030,172,4.7,1.9
2013,11,9,15:00,UTC,5,1006.3,0,94,0,0,5.1,4.3,7560,162,2.7,1.5
2013,11,9,16:00,UTC,8,1005.8,0,96,0,0,4.6,4,6160,139,2.7,1.6
2013,11,9,17:00,UTC,8,1005.5,0,96,0,0,5.4,4.7,9740,152,3.9,1.9
2013,11,9,18:00,UTC,7,1004.7,0,93,0,0,5.4,4.4,13790,137,3.1,1.6
2013,11,9,19:00,UTC,7,1004.1,0,92,0,0,5.1,3.9,16820,135,4.5,2.3
2013,11,9,20:00,UTC,7,1002.9,0,91,0,0,4.7,3.4,19500,124,5.2,2.8
2013,11,9,21:00,UTC,7,1001.4,0,91,0,0,4.5,3.1,20110,114,6.2,4.3
2013,11,9,22:00,UTC,8,999.9,0,88,0,0,4.3,2.6,20160,111,7.6,4.8
2013,11,9,23:00,UTC,8,998.6,0,88,0,0,4,2.1,13340,112,9.6,6.6
2013,11,10,00:00,UTC,8,997.4,1.9,94,2.9,0,2.3,1.4,6510,123,7.3,4.2
2013,11,10,01:00,UTC,8,996.2,2,94,1.3,0,1,0.2,7390,109,8.7,5.5
2013,11,10,02:00,UTC,8,995.1,0.4,95,0,0,1.3,0.6,3790,119,9.9,5.4
2013,11,10,03:00,UTC,8,993.9,0.3,95,0,0,1.1,0.3,6170,123,6.9,4
2013,11,10,04:00,UTC,8,992.9,0.1,95,0,0,1.2,0.6,15220,127,7.6,4.4
2013,11,10,05:00,UTC,8,992.3,0.1,96,0,0,1.5,0.9,6990,127,6.3,3.3
2013,11,10,06:00,UTC,8,991.6,0.1,96,0.2,0,2.1,1.5,5780,129,4.1,2.8
2013,11,10,07:00,UTC,7,991.1,0.7,97,0.7,0,2.9,2.4,9220,133,3,1.6
2013,11,10,08:00,UTC,7,990.8,0.1,97,0,0,4.9,4.4,39670,163,5.9,3
2013,11,10,09:00,UTC,7,991,0,92,0,0,5,3.8,17690,167,7.7,3.6
2013,11,10,10:00,UTC,7,991,0,91,0,0,4.8,3.5,30350,167,7.5,4.2
2013,11,10,11:00,UTC,7,991.2,0.1,92,0,0,4.6,3.4,12670,173,7.5,2.9
2013,11,10,12:00,UTC,7,991.6,0,93,0,0,4.9,3.8,31260,189,6.8,3.2
2013,11,10,13:00,UTC,7,992.9,0.1,88,0,0,4.1,2.3,50000,217,5.9,2.8
2013,11,10,14:00,UTC,7,994.2,0.1,89,0,0,2.9,1.2,13840,224,8.8,3.7
2013,11,10,15:00,UTC,7,995.4,0,92,0,0,2,0.8,5860,208,7.1,2.8
2013,11,10,16:00,UTC,7,996.8,0.3,93,0.4,0,1.9,1,4510,241,7.6,3.3
2013,11,10,17:00,UTC,7,998.4,0,92,0,0,2.2,1.1,8110,261,8.1,3.5
2013,11,10,18:00,UTC,7,1000.1,0,92,0,0,2.2,1.1,11350,271,5.9,2.8
2013,11,10,19:00,UTC,7,1001.7,0,90,0,0,2,0.6,36060,278,8.6,4.8
2013,11,10,20:00,UTC,1,1003.2,0,91,0,0,1.4,0.2,50000,272,5.9,3.3
2013,11,10,21:00,UTC,7,1004.4,0,93,0,0,1.9,0.8,8400,267,5.5,2.6
2013,11,10,22:00,UTC,7,1005.6,0,89,0,0,2.3,0.7,50000,270,5.4,2.6
2013,11,10,23:00,UTC,5,1006.8,0,89,0,0,1.7,0,50000,283,5.6,3
2013,11,11,00:00,UTC,7,1007.7,0,87,0,0,1,-1,50000,275,7.3,4
2013,11,11,01:00,UTC,7,1008.6,0,87,0,0,0.9,-1,50000,281,6.4,3.8
2013,11,11,02:00,UTC,7,1009.7,0,87,0,0,0.9,-1.1,50000,273,4.7,2.8
2013,11,11,03:00,UTC,5,1010.7,0,87,0,0,0.7,-1.2,50000,274,6.6,2.7
2013,11,11,04:00,UTC,0,1011.7,0,90,0,0,-0.3,-1.7,48230,270,4.1,2.2
2013,11,11,05:00,UTC,0,1012.8,0,92,0,0,-0.7,-1.8,50000,263,4.8,2.5
2013,11,11,06:00,UTC,0,1013.7,0,92,0,0,-0.8,-2,46500,235,3.8,2.1
2013,11,11,07:00,UTC,1,1014.8,0,93,0,0,-1,-2.1,40490,224,4.7,1.8
2013,11,11,08:00,UTC,1,1015.6,0,89,0,0,-0.4,-2,46570,259,3.7,1.3
2013,11,11,09:00,UTC,1,1016.5,0,84,0,0,0.3,-2.1,48720,277,4.5,2.8
2013,11,11,10:00,UTC,1,1017.2,0,81,0,0,0.9,-2.1,37170,262,4.5,2.1
2013,11,11,11:00,UTC,0,1017.9,0,81,0,0,0.9,-2,44120,277,4.5,2.2
2013,11,11,12:00,UTC,0,1018.4,0,80,0,0,0.9,-2.1,50000,255,4.2,2
2013,11,11,13:00,UTC,0,1019.2,0,83,0,0,-0.1,-2.6,50000,272,6.1,2.7
2013,11,11,14:00,UTC,0,1019.8,0,88,0,0,-0.8,-2.5,50000,234,2.8,1.6
2013,11,11,15:00,UTC,0,1020.5,0,90,0,0,-1.9,-3.2,49480,231,2.4,1.2
2013,11,11,16:00,UTC,0,1020.9,0,94,0,0,-2.5,-3.3,29420,202,2.7,1.6
2013,11,11,17:00,UTC,0,1021.3,0,95,0,0,-3.4,-4.1,26040,191,2.6,1.7
2013,11,11,18:00,UTC,0,1021.7,0,95,0,0,-3.2,-3.8,22960,200,2.7,1.3
2013,11,11,19:00,UTC,0,1021.6,0,95,0,0,-3.3,-4,34660,225,2,0.9
2013,11,11,20:00,UTC,1,1021.7,0,95,0,0,-4.4,-5.1,25900,158,2.1,1.4
2013,11,11,21:00,UTC,3,1021.2,0,94,0,0,-4.1,-5,46810,170,2.8,1.7
2013,11,11,22:00,UTC,7,1020.9,0,94,0,0,-2.9,-3.7,39940,155,2.7,1.3
2013,11,11,23:00,UTC,8,1020.2,0,94,0,0,-1.5,-2.4,50000,166,3.1,1.5
2013,11,12,00:00,UTC,8,1019.5,0,92,0,0,-0.7,-1.9,50000,169,3.7,1.6
2013,11,12,01:00,UTC,7,1018.8,0,89,0,0,-0.3,-1.8,50000,180,5.9,3.2
2013,11,12,02:00,UTC,8,1017.8,0,84,0,0,0.1,-2.3,50000,182,6.2,3.2
2013,11,12,03:00,UTC,8,1016.3,0,81,0,0,0.4,-2.5,50000,171,6.3,2.8
2013,11,12,04:00,UTC,8,1015,0,82,0,0,1.2,-1.6,50000,186,6.3,2.9
2013,11,12,05:00,UTC,7,1014.3,0,84,0,0,1.8,-0.7,50000,187,8.5,3.8
2013,11,12,06:00,UTC,7,1013.9,0,85,0,0,2,-0.3,50000,186,8,3.5
2013,11,12,07:00,UTC,8,1013.1,0.1,92,0.2,0,2.1,0.8,5540,178,6.7,3.3
2013,11,12,08:00,UTC,8,1012.4,0.1,93,0,0,2.6,1.5,5540,176,7,3.5
2013,11,12,09:00,UTC,8,1012.2,0.1,92,0,0,3.2,2.1,23740,192,8.2,3.7
2013,11,12,10:00,UTC,7,1011.5,0,89,0,0,3.8,2.1,40520,189,9.3,3.1
2013,11,12,11:00,UTC,8,1011,0,88,0,0,4,2.2,30660,183,6.4,3.4
2013,11,12,12:00,UTC,8,1010.5,0,88,0,0,4.3,2.5,36870,192,5.7,3.1
2013,11,12,13:00,UTC,8,1009.7,0,90,0,0,4.4,2.8,10240,192,6.9,3
2013,11,12,14:00,UTC,8,1008.9,0,89,0,0,4.5,2.8,11160,193,6.3,3.2
2013,11,12,15:00,UTC,8,1008.3,0.1,93,0.2,0,4.1,3.1,5370,192,7.8,3.3
2013,11,12,16:00,UTC,8,1007.7,0.1,93,0,0,4.1,3.1,43900,187,7.3,3.4
2013,11,12,17:00,UTC,8,1007.1,0.1,93,0,0,4.2,3.3,6500,185,6.7,3.2
2013,11,12,18:00,UTC,8,1006.6,0,94,0,0,4.3,3.4,3570,184,5.4,2.4
2013,11,12,19:00,UTC,8,1006.1,0.1,95,0.7,0,4.4,3.7,4250,192,4.5,2.5
2013,11,12,20:00,UTC,7,1005.6,0.5,96,0.2,0,4.5,3.9,6960,184,4,1.9
2013,11,12,21:00,UTC,8,1004.9,0.5,96,0,0,4.7,4,11940,186,3.8,1.9
2013,11,12,22:00,UTC,8,1004.6,0.2,96,0.2,0,4.8,4.2,5190,192,4.6,2.2
2013,11,12,23:00,UTC,8,1004.2,0.4,96,0,0,5.2,4.5,50000,221,4.9,1.8
2013,11,13,00:00,UTC,8,1003.8,0.1,95,0,0,5.2,4.5,39820,204,3.9,1.5
2013,11,13,01:00,UTC,8,1003.4,0,95,0,0,5.3,4.6,50000,203,3.6,1.9
2013,11,13,02:00,UTC,8,1002.9,0,94,0,0,5.4,4.5,50000,197,4.6,2.3
2013,11,13,03:00,UTC,7,1002.4,0,94,0,0,5.4,4.5,13070,209,4.8,1.9
2013,11,13,04:00,UTC,7,1002.1,0.3,93,0.2,0,5.3,4.2,28320,222,6.6,2.7
2013,11,13,05:00,UTC,7,1002.1,0,91,0,0,5,3.6,33440,223,4.8,2.2
2013,11,13,06:00,UTC,7,1002.4,0.1,91,0.8,0,4.6,3.2,13760,224,4.4,2
2013,11,13,07:00,UTC,7,1002.6,0.1,91,0.7,0,4.3,3,9220,241,4.5,2.1
2013,11,13,08:00,UTC,7,1003.1,0.6,92,1,0,4.2,2.9,8570,268,6.6,2.7
2013,11,13,09:00,UTC,7,1003.4,0.3,93,0,0,4.3,3.2,13370,233,3.2,1.5
2013,11,13,10:00,UTC,8,1003.3,0.1,92,0,0,4.3,3.1,31200,213,3.6,1.8
2013,11,13,11:00,UTC,7,1003.4,0,91,0,0,4.4,3.1,35030,218,4.3,1.8
2013,11,13,12:00,UTC,8,1003.6,0,88,0,0,4.1,2.3,43920,227,3.2,1.7
2013,11,13,13:00,UTC,7,1003.7,0,88,0,0,3.9,2,50000,239,2.7,1.4
2013,11,13,14:00,UTC,7,1003.9,0,85,0,0,3.3,1.1,48720,238,4,1.9
2013,11,13,15:00,UTC,1,1004.1,0,88,0,0,2.3,0.6,48320,250,3.4,1.6
2013,11,13,16:00,UTC,5,1004.2,0,89,0,0,2.4,0.8,50000,225,3.9,1.9
2013,11,13,17:00,UTC,7,1004.4,0,87,0,0,2.7,0.8,50000,201,4.3,2
2013,11,13,18:00,UTC,7,1004.6,0,84,0,0,2.9,0.5,50000,230,5.6,2.8
2013,11,13,19:00,UTC,8,1004.6,0,85,0,0,2.9,0.7,50000,234,3.4,1.7
2013,11,13,20:00,UTC,8,1004.9,0,86,0,0,2.7,0.6,49360,242,3.7,1.4
2013,11,13,21:00,UTC,8,1005.1,0,88,0,0,2.4,0.6,50000,207,4.3,1.9
2013,11,13,22:00,UTC,7,1005.4,0,89,0,0,1.8,0.2,50000,246,3.4,2
2013,11,13,23:00,UTC,7,1005.6,0,91,0,0,1.6,0.2,49180,239,3.8,1.5
2013,11,14,00:00,UTC,8,1006,0,90,0,0,2,0.4,48200,256,4,1.8
2013,11,14,01:00,UTC,8,1006.3,0,89,0,0,2.2,0.5,50000,248,3.5,1.2
2013,11,14,02:00,UTC,8,1006.7,0,86,0,0,2.5,0.4,50000,285,6.9,3.7
2013,11,14,03:00,UTC,8,1007.3,0,87,0,0,2.3,0.4,50000,277,5,2.5
2013,11,14,04:00,UTC,8,1008,0,88,0,0,2.1,0.4,29530,286,5.7,3.4
2013,11,14,05:00,UTC,8,1008.6,0,88,0,0,2,0.3,25560,294,6.2,4.3
2013,11,14,06:00,UTC,8,1009.3,0,86,0,0,1.9,-0.2,50000,296,6.4,4
2013,11,14,07:00,UTC,8,1010.3,0,88,0,0,1.8,0,25860,298,5.5,3.3
2013,11,14,08:00,UTC,8,1011.3,0,86,0,0,1.8,-0.2,50000,291,6.1,3.4
2013,11,14,09:00,UTC,8,1012.2,0,86,0,0,1.7,-0.4,50000,315,7,5.2
2013,11,14,10:00,UTC,8,1012.8,0,87,0,0,1.5,-0.5,50000,310,6.7,5
2013,11,14,11:00,UTC,8,1013.6,0,86,0,0,1.5,-0.7,50000,292,5.8,4
2013,11,14,12:00,UTC,8,1013.8,0,85,0,0,1.6,-0.7,50000,317,6.5,3.9
2013,11,14,13:00,UTC,8,1014.6,0,87,0,0,1.4,-0.6,50000,321,4.7,3.5
2013,11,14,14:00,UTC,8,1015.7,0,86,0,0,1.3,-0.8,50000,288,3,2
2013,11,14,15:00,UTC,8,1016.5,0,88,0,0,1.1,-0.7,50000,305,1.3,1
2013,11,14,16:00,UTC,8,1017,0,86,0,0,0.9,-1.1,50000,283,1.5,0.9
2013,11,14,17:00,UTC,7,1017.4,0,90,0,0,0.3,-1.2,50000,341,1,0.7
2013,11,14,18:00,UTC,7,1017.7,0,91,0,0,0.2,-1.1,49290,292,1,0.6
2013,11,14,19:00,UTC,7,1018.2,0,93,0,0,-0.5,-1.5,29430,203,1.1,0.9
2013,11,14,20:00,UTC,8,1018.7,0,94,0,0,-0.8,-1.7,18190,201,1.1,0.7
2013,11,14,21:00,UTC,7,1018.9,0,95,0,0,-1.3,-2,9870,134,1,0.7
2013,11,14,22:00,UTC,8,1019.2,0,95,0,0,-0.8,-1.4,13480,172,1.3,0.7
2013,11,14,23:00,UTC,8,1019.3,0,96,0,0,-0.3,-0.9,23240,161,1.4,0.8
2013,11,15,00:00,UTC,7,1019.1,0,95,0,1,-0.3,-1,24000,139,1.3,0.9
2013,11,15,01:00,UTC,8,1018.9,0,95,0,0,-0.2,-0.9,8620,139,1.8,1.1
2013,11,15,02:00,UTC,8,1018.7,0.3,96,0.4,0,0,-0.6,2440,145,2.5,1.4
2013,11,15,03:00,UTC,8,1018.4,0.3,96,0,0,0.1,-0.5,4690,147,2.9,1.7
2013,11,15,04:00,UTC,9,1017.7,0.5,96,0.9,0,0.2,-0.4,1830,141,3.1,1.6
2013,11,15,05:00,UTC,8,1017.1,0.4,96,0,0,0.6,0.1,3760,149,4.4,1.9
2013,11,15,06:00,UTC,8,1016.8,0.1,96,0,0,1.2,0.7,8190,156,3.7,2
2013,11,15,07:00,UTC,8,1016.4,0,96,0,0,1.7,1.2,3320,157,3.4,1.9
2013,11,15,08:00,UTC,8,1015.9,0,97,0,0,2.5,2,2140,185,3.4,1.6
2013,11,15,09:00,UTC,8,1015.6,0,97,0,0,2.9,2.5,3520,183,4,1.9
2013,11,15,10:00,UTC,8,1015,0,97,0,0,3.4,2.9,8610,188,5.5,2.4
2013,11,15,11:00,UTC,8,1013.7,0.1,96,0,0,3.7,3.1,10910,188,5.7,2.4
2013,11,15,12:00,UTC,8,1013,0.1,95,0,0,4,3.2,11900,197,6.4,3.1
2013,11,15,13:00,UTC,8,1012.1,0,94,0,0,4,3.2,17180,191,6,3
2013,11,15,14:00,UTC,8,1010.6,0,95,0,0,4.2,3.4,11260,193,5.9,2.4
2013,11,15,15:00,UTC,8,1009.3,0,95,0,0,4.3,3.5,10310,189,6.9,3.1
2013,11,15,16:00,UTC,8,1007.9,0,95,0,0,4.5,3.8,8060,185,7.5,3.9
2013,11,15,17:00,UTC,7,1006,0,92,0,0,4.8,3.6,15840,200,7.2,3.5
2013,11,15,18:00,UTC,7,1004.4,0,92,0,0,4.5,3.4,5980,192,7.3,3.5
2013,11,15,19:00,UTC,7,1002.6,0.2,94,0.3,0,4.7,3.8,5190,190,7.1,3.4
2013,11,15,20:00,UTC,7,1001.1,0.9,94,1.4,0,4.8,3.8,9150,181,8.9,4.3
2013,11,15,21:00,UTC,7,999.3,0.7,93,0.5,0,4.8,3.8,8390,185,8.2,4.2
2013,11,15,22:00,UTC,7,998.4,0.9,94,0.4,0,4.9,3.9,3930,209,7,3.2
2013,11,15,23:00,UTC,7,997.1,0.4,94,0.5,0,4.7,3.7,7690,201,6.9,3
2013,11,16,00:00,UTC,7,995.8,0.2,94,0.4,0,4.7,3.7,9420,226,8.3,3.5
2013,11,16,01:00,UTC,7,995.4,0.3,95,0.5,0,4.8,4,2840,232,9.1,3.7
2013,11,16,02:00,UTC,7,995.3,0.2,95,0,0,4.9,4.1,6530,252,5,2.5
2013,11,16,03:00,UTC,7,995.2,0.1,93,0,0,4.9,3.9,50000,264,7.1,3.3
2013,11,16,04:00,UTC,7,995.3,0,92,0,0,4.9,3.7,50000,257,5.9,2.6
2013,11,16,05:00,UTC,7,995.1,0,92,0,0,4.9,3.7,50000,250,5.4,2.7
2013,11,16,06:00,UTC,7,995.5,0,90,0,0,4.6,3.1,50000,272,6.4,3
2013,11,16,07:00,UTC,7,996.1,0,90,0,0,5.1,3.6,50000,268,5,2.5
2013,11,16,08:00,UTC,7,996.4,0,88,0,0,5.3,3.4,50000,280,9.5,4.1
2013,11,16,09:00,UTC,7,996.9,0,86,0,0,5.4,3.2,50000,286,8.5,4.8
2013,11,16,10:00,UTC,1,997.3,0,82,0,0,5.6,2.8,45510,292,10.5,5.9
2013,11,16,11:00,UTC,5,997.6,0,81,0,0,5.9,2.9,41460,291,5.8,3.5
2013,11,16,12:00,UTC,0,998.1,0,81,0,0,5.4,2.5,50000,287,6.9,3.9
2013,11,16,13:00,UTC,5,998.4,0,87,0,0,4.8,2.8,50000,270,2.1,1
2013,11,16,14:00,UTC,7,997.8,0,88,0,0,4.9,3.1,50000,265,3.4,1.4
2013,11,16,15:00,UTC,7,997.7,0,91,0,0,4.8,3.5,50000,197,2.5,1.1
2013,11,16,16:00,UTC,7,997,0,94,0,0,5.2,4.2,12150,168,2.8,1.2
2013,11,16,17:00,UTC,7,996.2,0,90,0,0,6.5,5,50000,216,6.5,2.7
2013,11,16,18:00,UTC,1,995.3,0,91,0,0,5.6,4.3,50000,196,4,1.8
2013,11,16,19:00,UTC,1,994.7,0,93,0,0,4.9,3.9,50000,198,3.8,1.6
2013,11,16,20:00,UTC,7,993.4,0,93,0,0,5.3,4.2,50000,200,7.2,2.8
2013,11,16,21:00,UTC,7,992.3,0,93,0,0,5.1,4.1,50000,202,3.8,1.6
2013,11,16,22:00,UTC,7,991.5,0,92,0,0,5.1,4,50000,214,6.2,2.2
2013,11,16,23:00,UTC,7,990,0,90,0,0,5.4,4,50000,222,6.9,2.7
2013,11,17,00:00,UTC,7,988.6,0,87,0,0,6.1,4,50000,235,10,3.8
2013,11,17,01:00,UTC,7,988.2,0,84,0,0,6.2,3.8,50000,246,9.6,3.9
2013,11,17,02:00,UTC,7,987.5,0,81,0,0,6.3,3.3,50000,256,7.3,3.4
2013,11,17,03:00,UTC,3,987.1,0,79,0,0,6.1,2.7,50000,252,8.2,3.5
2013,11,17,04:00,UTC,0,986.6,0,61,0,0,5.9,-1,47540,271,11.2,5
2013,11,17,05:00,UTC,0,986.7,0,51,0,0,5.4,-3.9,50000,276,13.8,6.8
2013,11,17,06:00,UTC,5,987,0,51,0,0,4.9,-4.4,50000,274,13.1,6.8
2013,11,17,07:00,UTC,5,987.6,0,54,0,0,4.6,-4,50000,273,18,7.8
2013,11,17,08:00,UTC,7,989,0,55,0,0,4.6,-3.8,49180,280,14.5,8
2013,11,17,09:00,UTC,7,990.9,0,55,0.1,0,4.8,-3.6,,,,
2013,11,17,10:00,UTC,,993.9,0,72,0,,3.3,-1.3,,,,
2013,11,17,11:00,UTC,,996.2,0,52,0,,4.3,-4.7,,,,
2013,11,17,12:00,UTC,,999.1,0,72,0,,1.8,-2.8,,,,
2013,11,17,13:00,UTC,7,1001.1,0,72,0,0,1.8,-2.8,50000,305,8,5.7
2013,11,17,14:00,UTC,0,1002.5,0,52,0,0,2.5,-6.3,50000,306,15,10.7
2013,11,17,15:00,UTC,3,1004.6,0,55,0,0,2.2,-6,50000,302,13.1,7.2
2013,11,17,16:00,UTC,3,1006.3,0,57,0,0,2,-5.6,50000,297,10,6.2
2013,11,17,17:00,UTC,3,1008,0,58,0,0,1.8,-5.7,50000,294,9.7,6.3
2013,11,17,18:00,UTC,0,1009.6,0,62,0,0,1.1,-5.3,50000,290,7.5,4.9
2013,11,17,19:00,UTC,1,1010.7,0,67,0,0,0.7,-4.6,48490,290,6.8,4.3
2013,11,17,20:00,UTC,0,1011.9,0,69,0,0,0.2,-4.9,50000,281,5.8,3.4
2013,11,17,21:00,UTC,0,1013.2,0,70,0,0,0,-4.9,50000,282,6.1,3.8
2013,11,17,22:00,UTC,0,1014.4,0,71,0,0,-0.3,-4.9,50000,286,6.3,3.5
2013,11,17,23:00,UTC,0,1015.1,0,73,0,0,-0.9,-5.2,50000,279,3.6,2.2
2013,11,18,00:00,UTC,0,1015.5,0,77,0,0,-1.6,-5.2,44790,245,5.1,2.5
2013,11,18,01:00,UTC,0,1016,0,79,0,0,-1.6,-4.8,39920,234,5,2.1
2013,11,18,02:00,UTC,0,1015.8,0,84,0,0,-2.2,-4.6,38620,199,3.7,1.9
2013,11,18,03:00,UTC,3,1016,0,86,0,0,-3,-5,32330,145,2.1,1.3
2013,11,18,04:00,UTC,7,1015.6,0,91,0,0,-3.8,-5.1,26230,146,2.7,1.2
2013,11,18,05:00,UTC,7,1015.3,0,89,0,0,-2.1,-3.6,32900,161,3.8,1.8
2013,11,18,06:00,UTC,7,1014.9,0,85,0,0,-1.1,-3.3,21430,150,3.2,1.7
2013,11,18,07:00,UTC,5,1014.3,0,76,0,0,0.1,-3.6,50000,171,5.8,1.9
2013,11,18,08:00,UTC,1,1014.2,0,67,0,0,0.9,-4.5,50000,182,5.6,2.5
2013,11,18,09:00,UTC,1,1013.5,0,63,0,0,1.8,-4.5,50000,182,7.7,3.9
2013,11,18,10:00,UTC,5,1012.5,0,66,0,0,2.4,-3.3,50000,172,7.8,3.4
2013,11,18,11:00,UTC,7,1011.5,0,71,0,0,2.7,-2.1,50000,181,7.6,3.4
2013,11,18,12:00,UTC,7,1010,0,73,0,0,3.6,-0.8,46620,192,9.8,4.1
2013,11,18,13:00,UTC,7,1009.4,0,72,0,0,4.6,-0.1,50000,200,11,5.1
2013,11,18,14:00,UTC,7,1009,0,71,0,0,5,0.1,50000,200,12.7,5.7
2013,11,18,15:00,UTC,7,1008.7,0,71,0,0,5.1,0.1,49590,204,11.6,4.8
2013,11,18,16:00,UTC,7,1008.7,0,71,0,0,5.1,0.2,50000,203,10.4,4.5
2013,11,18,17:00,UTC,7,1008.4,0,74,0,0,4.9,0.6,50000,196,8.8,4.3
2013,11,18,18:00,UTC,7,1008,0,76,0,0,5.1,1.2,48290,194,9.4,4.6
2013,11,18,19:00,UTC,8,1007.4,0,76,0,0,5,1.1,50000,188,9.7,4.6
2013,11,18,20:00,UTC,7,1007,0,77,0,0,4.5,0.9,47190,181,9.7,4
2013,11,18,21:00,UTC,7,1006.8,0,75,0,0,4.3,0.3,49960,181,8.1,4
2013,11,18,22:00,UTC,7,1006.2,0,76,0,0,3.7,-0.2,50000,170,9.4,4.4
2013,11,18,23:00,UTC,7,1005.2,0,77,0,0,3.2,-0.4,50000,167,9.1,3.7
2013,11,19,00:00,UTC,8,1004.3,0,79,0,0,3.2,0,44660,171,7.3,3.8
2013,11,19,01:00,UTC,8,1003.5,0,81,0,0,3.3,0.3,45290,184,5.9,2.8
2013,11,19,02:00,UTC,8,1002.7,0.1,89,0.7,0,2.4,0.9,9380,165,6.4,3.5
2013,11,19,03:00,UTC,8,1002.1,0.6,93,0.2,0,2.2,1.2,26230,175,6.5,3.2
2013,11,19,04:00,UTC,8,1001.3,0.2,93,0.3,0,2,1,15680,166,5.6,3.1
2013,11,19,05:00,UTC,8,1000.7,0.5,94,0.7,0,1.9,1,14570,169,5.9,2.6
2013,11,19,06:00,UTC,8,1000.3,0.5,94,0.5,0,2,1.2,11070,171,5.9,3
2013,11,19,07:00,UTC,8,999.9,0.8,94,0.7,0,2.5,1.6,14960,168,6.4,3.1
2013,11,19,08:00,UTC,8,999.6,0.8,94,0.6,0,2.5,1.7,17600,175,6.9,2.9
2013,11,19,09:00,UTC,8,999,0.6,95,0.4,0,2.8,2,33050,171,7.4,2.7
2013,11,19,10:00,UTC,8,998.5,0.2,94,0,0,3.2,2.3,14860,171,7.1,3.4
2013,11,19,11:00,UTC,8,998.2,0.3,95,0.5,0,3.3,2.6,2920,167,6,2.9
2013,11,19,12:00,UTC,8,997.8,0.5,95,0,0,3.7,3,8300,175,7.5,3.6
2013,11,19,13:00,UTC,8,997.6,0.6,95,1,0,4,3.2,11700,171,6.3,3
2013,11,19,14:00,UTC,8,997.4,0.1,95,0.4,0,4,3.4,2940,164,5.5,2.8
2013,11,19,15:00,UTC,8,997.4,0.1,95,0,0,4.5,3.8,4310,179,7.2,3
2013,11,19,16:00,UTC,8,997.5,0.1,96,0,0,4.9,4.3,3970,182,6.1,3.3
2013,11,19,17:00,UTC,7,997.5,0.1,95,0,0,5.3,4.5,5160,191,7.1,3.2
2013,11,19,18:00,UTC,8,998.2,0.1,93,0,0,5.1,4,35720,198,4.2,2.3
2013,11,19,19:00,UTC,7,998.3,0.1,93,0.7,0,5,4,7110,204,7,3.4
2013,11,19,20:00,UTC,8,998.6,0.1,94,0,0,4.9,4,12690,196,6.1,2.3
2013,11,19,21:00,UTC,8,999.1,0.1,94,0.3,0,4.9,4.1,3850,195,5.9,3.1
2013,11,19,22:00,UTC,7,999.5,0.2,94,0.5,0,5.1,4.2,5610,205,6.3,2.9
2013,11,19,23:00,UTC,7,999.7,0.1,94,0,0,4.8,3.9,39430,217,4.2,1.8
2013,11,20,00:00,UTC,8,999.8,0.2,91,0,0,4.7,3.4,28800,202,4.6,2
2013,11,20,01:00,UTC,8,1000,0.4,91,0.5,0,4.5,3.2,21670,196,5.4,2.8
2013,11,20,02:00,UTC,7,1000.3,0.1,93,0,0,4.4,3.3,35790,198,5.5,2.4
2013,11,20,03:00,UTC,7,1001.3,1.6,92,2.5,0,3,1.9,13730,254,6,2.5
2013,11,20,04:00,UTC,8,1001.7,0.1,94,0,0,2.5,1.6,50000,195,2.1,1.1
2013,11,20,05:00,UTC,8,1002.6,0,95,0,0,2.4,1.7,50000,205,1.4,0.7
2013,11,20,06:00,UTC,7,1003.6,0,95,0,0,2.2,1.6,32730,223,2.6,1.3
2013,11,20,07:00,UTC,1,1004.5,0,95,0,0,0.8,0.1,19550,224,2.2,1.3
2013,11,20,08:00,UTC,3,1005.4,0,96,0,0,0.7,0.1,41470,0,1,0
2013,11,20,09:00,UTC,1,1006.4,0,96,0,0,0.8,0.2,8120,211,2.7,1.3
2013,11,20,10:00,UTC,5,1007.5,0,96,0,0,1.2,0.6,50000,280,4.7,2.4
2013,11,20,11:00,UTC,0,1008.2,0,91,0,0,1,-0.3,45250,279,3.1,1.9
2013,11,20,12:00,UTC,0,1009.3,0,91,0,0,0.4,-0.9,49840,285,4.1,2.8
2013,11,20,13:00,UTC,0,1010.2,0,92,0,0,-1.1,-2.2,50000,307,2.8,2.3
2013,11,20,14:00,UTC,0,1011.1,0,94,0,0,-2.6,-3.4,9230,0,0.8,0
2013,11,20,15:00,UTC,1,1011.9,0,96,0,0,-2.1,-2.7,43520,263,2,1.2
2013,11,20,16:00,UTC,7,1013.1,0,95,0,0,-3.1,-3.7,28950,239,1.3,0.8
2013,11,20,17:00,UTC,5,1013.7,0,95,0,0,-3.9,-4.6,34520,310,2.2,1.9
2013,11,20,18:00,UTC,5,1014.1,0,94,0,0,-4,-4.9,46440,0,0.9,0
2013,11,20,19:00,UTC,7,1014.7,0,93,0,0,-5,-6,48090,0,0.6,0
2013,11,20,20:00,UTC,7,1015.2,0,93,0,0,-5,-6,41780,0,0.5,0
2013,11,20,21:00,UTC,7,1015.6,0,93,0,0,-5.4,-6.3,50000,0,0.4,0
2013,11,20,22:00,UTC,7,1016,0,92,0,0,-5.7,-6.8,44190,313,1.4,1
2013,11,20,23:00,UTC,7,1016.1,0,93,0,0,-4.6,-5.5,24320,321,1.7,1.3
2013,11,21,00:00,UTC,7,1016.1,0,93,0,0,-5.6,-6.6,37760,326,2.2,1.6
2013,11,21,01:00,UTC,7,1016.1,0,93,0,0,-4.6,-5.5,37220,12,2.9,1.6
2013,11,21,02:00,UTC,7,1015.9,0,93,0,0,-4.6,-5.5,49250,40,2.7,2
2013,11,21,03:00,UTC,7,1015.7,0,94,0,0,-3.6,-4.4,45130,41,2.7,1.9
2013,11,21,04:00,UTC,8,1015.5,0,93,0,0,-3.9,-4.8,48860,26,3.1,1.6
2013,11,21,05:00,UTC,8,1015.3,0,94,0,0,-3.6,-4.5,50000,11,3.2,2.2
2013,11,21,06:00,UTC,8,1015.5,0,93,0,0,-3.6,-4.5,43870,33,3.2,2.2
2013,11,21,07:00,UTC,7,1015.5,0,93,0,0,-3,-4.1,44120,34,5.6,3.5
2013,11,21,08:00,UTC,7,1015.4,0,91,0,0,-2.6,-3.8,50000,49,6.1,3.3
2013,11,21,09:00,UTC,7,1015,0,89,0,0,-2.2,-3.7,50000,48,4.5,2.6
2013,11,21,10:00,UTC,7,1014.4,0,88,0,0,-1.8,-3.5,46430,39,4.5,2.5
2013,11,21,11:00,UTC,8,1013.5,0,87,0,0,-1.5,-3.3,50000,55,5,3.1
2013,11,21,12:00,UTC,8,1013.3,0.2,91,0.4,0,-1.5,-2.8,2370,52,5.1,2.9
2013,11,21,13:00,UTC,8,1013,0.7,93,1,0,-1.6,-2.5,1710,57,5.4,3.1
2013,11,21,14:00,UTC,8,1012.7,0.5,94,0.2,2,-1.3,-2.1,3620,65,5,3
2013,11,21,15:00,UTC,8,1012.5,0.5,95,0.5,0,-1,-1.7,2470,74,6.1,3.4
2013,11,21,16:00,UTC,8,1012.2,0.3,95,0.7,0,-0.6,-1.3,2620,81,4.4,2.9
2013,11,21,17:00,UTC,8,1012.1,1.2,95,1,2,-0.6,-1.2,2120,61,3.4,2.3
2013,11,21,18:00,UTC,8,1011.7,1.2,96,1,3,-0.3,-0.9,3110,85,4.9,3
2013,11,21,19:00,UTC,8,1011.5,0.5,96,0.2,3,0,-0.6,2620,85,5,3.5
2013,11,21,20:00,UTC,8,1011.3,0.1,96,0,3,0.2,-0.4,5990,106,4.4,2.9
2013,11,21,21:00,UTC,8,1010.9,0.1,96,0.2,3,0.2,-0.3,1970,115,3.6,2.2
2013,11,21,22:00,UTC,9,1010.8,0.3,97,0.3,3,0.3,-0.2,1420,110,2.3,1.5
2013,11,21,23:00,UTC,8,1010.5,1,97,1,3,0.4,-0.1,6250,120,2.2,1.5
2013,11,22,00:00,UTC,8,1010,0.1,97,0,4,0.4,0,9140,124,2.4,1.8
2013,11,22,01:00,UTC,8,1009.7,0,97,0,4,0.2,-0.2,9270,132,1.2,0.9
2013,11,22,02:00,UTC,8,1009.4,0,97,0,3,0.2,-0.2,5840,138,1.5,0.8
2013,11,22,03:00,UTC,9,1009.2,0.1,97,0,3,0.3,-0.1,780,0,0.8,0
2013,11,22,04:00,UTC,9,1009.3,0.2,97,0,3,0.3,-0.1,860,0,0.6,0
2013,11,22,05:00,UTC,9,1008.9,0.3,97,0.2,3,0.3,-0.1,700,0,0.9,0
2013,11,22,06:00,UTC,9,1008.9,0.2,97,0,3,0.5,0.1,980,0,1,0
2013,11,22,07:00,UTC,9,1009.1,0.2,97,0.5,3,0.3,-0.2,670,161,1.3,0.9
2013,11,22,08:00,UTC,8,1009.6,0.3,97,0,3,0.3,-0.1,2150,191,2.4,1.5
2013,11,22,09:00,UTC,8,1009.8,0.1,97,0,3,2.4,2,12110,226,2.5,1
2013,11,22,10:00,UTC,8,1010.1,0,97,0,3,2.4,2,13800,259,2.6,1.1
2013,11,22,11:00,UTC,8,1010.4,0,97,0,3,2,1.6,1450,256,3.5,1.7
2013,11,22,12:00,UTC,8,1010.8,0,97,0,2,1.6,1.2,8420,259,3.8,2
2013,11,22,13:00,UTC,8,1011.3,0,97,0,2,1.1,0.7,10580,274,3.2,1.8
2013,11,22,14:00,UTC,8,1012,0,97,0,2,0.8,0.3,14510,252,3.2,1.3
2013,11,22,15:00,UTC,8,1012.5,0,97,0,2,0.5,0.1,11150,270,3,1.6
2013,11,22,16:00,UTC,7,1012.9,0,97,0,2,0.4,-0.1,13120,266,2.9,1.1
2013,11,22,17:00,UTC,8,1013.5,0,96,0,2,0,-0.6,7730,279,3.7,2.3
2013,11,22,18:00,UTC,7,1013.7,0,94,0,2,-0.4,-1.3,50000,275,2.9,1.6
2013,11,22,19:00,UTC,7,1013.9,0,93,0,2,-0.5,-1.6,50000,290,4.3,2.8
2013,11,22,20:00,UTC,8,1014.2,0,91,0,2,-0.8,-2.1,50000,263,4.8,2.4
2013,11,22,21:00,UTC,7,1014.4,0,91,0,2,-1.1,-2.4,50000,244,2.2,1.1
2013,11,22,22:00,UTC,5,1014.4,0,91,0,2,-1.4,-2.7,50000,203,3.4,1.8
2013,11,22,23:00,UTC,7,1014.2,0,91,0,2,-1.3,-2.6,50000,234,4.4,1.8
2013,11,23,00:00,UTC,7,1014,0,90,0,2,-1.5,-2.8,50000,211,4.9,2
2013,11,23,01:00,UTC,7,1014.3,0,90,0,2,-1.5,-2.9,50000,229,4.3,1.9
2013,11,23,02:00,UTC,7,1014.2,0,90,0,2,-1.4,-2.9,50000,194,2.8,1.4
2013,11,23,03:00,UTC,3,1013.7,0,92,0,2,-2.2,-3.3,50000,160,2.2,1.4
2013,11,23,04:00,UTC,7,1013.5,0,95,0,2,-2.1,-2.8,50000,168,2.8,1.4
2013,11,23,05:00,UTC,7,1012.9,0,90,0,2,-0.9,-2.3,50000,207,5.6,2.7
2013,11,23,06:00,UTC,7,1012.4,0,89,0,2,-0.8,-2.4,50000,190,4.8,2.4
2013,11,23,07:00,UTC,7,1012.3,0,88,0,2,-0.8,-2.5,50000,192,6.8,2.6
2013,11,23,08:00,UTC,7,1012.2,0,87,0,2,-0.7,-2.6,50000,191,5.3,2.5
2013,11,23,09:00,UTC,8,1011.6,0,87,0,2,-0.6,-2.5,49630,191,5.2,3.2
2013,11,23,10:00,UTC,7,1011.1,0,85,0,2,-0.4,-2.5,47990,208,6,2.8
2013,11,23,11:00,UTC,7,1010.6,0,84,0,2,-0.1,-2.4,50000,207,7.7,3.2
2013,11,23,12:00,UTC,8,1009.8,0,86,0,2,0,-2.1,50000,195,5.8,2.2
2013,11,23,13:00,UTC,8,1009.5,0,86,0,2,0.2,-1.9,50000,215,4.9,2.3
2013,11,23,14:00,UTC,8,1008.8,0,87,0,2,0.2,-1.8,50000,197,4.9,2.1
2013,11,23,15:00,UTC,8,1007.9,0,89,0,2,0.2,-1.4,50000,195,4.5,2.2
2013,11,23,16:00,UTC,8,1007.3,0,90,0,2,0.4,-1,50000,213,6.2,3.2
2013,11,23,17:00,UTC,8,1006.8,0,90,0,2,0.7,-0.8,33810,227,7.3,3
2013,11,23,18:00,UTC,8,1006.2,0,89,0,2,0.7,-0.9,26270,200,4.4,2.3
2013,11,23,19:00,UTC,8,1005.6,0,89,0,2,0.5,-1.2,50000,206,5.1,2.4
2013,11,23,20:00,UTC,8,1004.4,0,90,0,2,0.2,-1.2,50000,186,4.4,1.9
2013,11,23,21:00,UTC,7,1003.4,0,87,0,2,0.1,-1.8,50000,179,5.8,2.5
2013,11,23,22:00,UTC,8,1002.4,0,85,0,2,-0.2,-2.4,50000,185,7.4,3
2013,11,23,23:00,UTC,8,1001.4,0,86,0,2,-0.5,-2.6,50000,188,7.3,3.2
2013,11,24,00:00,UTC,8,1000.7,0,87,0,2,-0.4,-2.4,50000,195,4.3,2.2
2013,11,24,01:00,UTC,8,999.8,0.1,92,0.7,2,-0.7,-1.8,1650,182,4.9,2
2013,11,24,02:00,UTC,7,999.1,0.1,93,0,2,-0.6,-1.6,4220,190,3.6,1.5
2013,11,24,03:00,UTC,8,998.6,0,92,0,2,-0.3,-1.4,6610,201,4,1.7
2013,11,24,04:00,UTC,7,998.5,0.1,93,0,2,-0.2,-1.2,3230,230,4.2,2
2013,11,24,05:00,UTC,7,998.4,0.1,89,0,2,-0.4,-2,50000,243,2.7,1.4
2013,11,24,06:00,UTC,7,998.8,0,89,0,2,-1,-2.5,50000,275,3.7,2.2
2013,11,24,07:00,UTC,8,999.4,0,87,0,2,-0.9,-2.7,50000,294,4.7,3.2
2013,11,24,08:00,UTC,8,1000.1,0,87,0,2,-1.3,-3.3,45770,305,5.2,3.7
2013,11,24,09:00,UTC,8,1000.9,0.1,85,0.4,2,-1.8,-3.9,7160,288,8.5,4.9
2013,11,24,10:00,UTC,8,1001.8,0,75,0,2,-2.5,-6.2,47130,291,10.1,5
2013,11,24,11:00,UTC,7,1002.2,0,73,0,2,-2.8,-7,43690,273,7.2,3.6
2013,11,24,12:00,UTC,1,1002.4,0,77,0,2,-3.6,-7,50000,249,4.8,2.3
2013,11,24,13:00,UTC,0,1003,0,82,0,2,-4.5,-7.2,50000,266,4.7,2.7
2013,11,24,14:00,UTC,0,1003.3,0,85,0,2,-5.4,-7.5,50000,237,3.3,1.5
2013,11,24,15:00,UTC,0,1003.3,0,86,0,2,-5.8,-7.8,50000,211,2.9,1.6
2013,11,24,16:00,UTC,1,1003.7,0,89,0,2,-7.5,-9,35360,152,1.9,1.3
2013,11,24,17:00,UTC,7,1003.5,0,90,0,2,-5.4,-6.8,46000,203,2.3,1.1
2013,11,24,18:00,UTC,8,1003.5,0,86,0,3,-3.6,-5.6,50000,218,2.1,1
2013,11,24,19:00,UTC,8,1003.8,0,86,0,3,-2.7,-4.8,50000,230,4.3,1.6
2013,11,24,20:00,UTC,8,1004.1,0,86,0,3,-2.2,-4.3,50000,231,4.7,1.8
2013,11,24,21:00,UTC,8,1004.7,0,87,0,3,-2.1,-4,50000,232,2.6,1.5
2013,11,24,22:00,UTC,8,1005.3,0,87,0,3,-1.7,-3.6,50000,276,4.7,2.2
2013,11,24,23:00,UTC,0,1006.1,0,90,0,2,-2.8,-4.3,50000,240,3.2,1.8
2013,11,25,00:00,UTC,0,1006.7,0,92,0,2,-3.5,-4.6,44030,254,3,1.2
2013,11,25,01:00,UTC,0,1007.5,0,92,0,2,-3.9,-5.1,44680,201,3.4,1.1
2013,11,25,02:00,UTC,0,1008.3,0,92,0,2,-5.8,-6.9,40140,214,2,0.8
2013,11,25,03:00,UTC,0,1009.2,0,93,0,2,-6.9,-7.9,50000,0,2.1,0
2013,11,25,04:00,UTC,0,1009.9,0,93,0,2,-6.4,-7.4,50000,299,2.6,1.7
2013,11,25,05:00,UTC,0,1010.4,0,92,0,3,-5,-6.1,48140,291,4.2,2.8
2013,11,25,06:00,UTC,0,1011.2,0,90,0,2,-5.9,-7.3,24470,295,3.8,2.8
2013,11,25,07:00,UTC,0,1012.1,0,90,0,2,-6,-7.3,47540,306,4.3,3.2
2013,11,25,08:00,UTC,0,1013,0,91,0,2,-5.5,-6.7,38550,300,4.1,2.7
2013,11,25,09:00,UTC,0,1013.9,0,88,0,3,-4.2,-5.8,50000,302,4.9,3.4
2013,11,25,10:00,UTC,0,1014.7,0,87,0,3,-3.7,-5.5,42480,301,5.4,3.5
2013,11,25,11:00,UTC,0,1015,0,86,0,3,-3.3,-5.3,50000,299,4.3,2.5
2013,11,25,12:00,UTC,0,1015.6,0,87,0,2,-3.5,-5.3,50000,293,4.3,2.9
2013,11,25,13:00,UTC,0,1016.3,0,89,0,2,-4.5,-6,50000,270,2.4,1.2
2013,11,25,14:00,UTC,0,1016.8,0,88,0,3,-3.9,-5.5,50000,274,5.5,3.1
2013,11,25,15:00,UTC,0,1017.1,0,88,0,3,-4.3,-6,48390,286,6.3,4.2
2013,11,25,16:00,UTC,0,1017.9,0,89,0,3,-5,-6.5,40400,288,5.3,3.1
2013,11,25,17:00,UTC,0,1018.6,0,89,0,2,-6.9,-8.3,31620,286,3.3,1.8
2013,11,25,18:00,UTC,0,1019,0,89,0,2,-8.6,-10.2,40860,299,3.3,2.2
2013,11,25,19:00,UTC,0,1019.5,0,91,0,3,-6.1,-7.4,46500,290,4.9,3.2
2013,11,25,20:00,UTC,0,1019.9,0,87,0,3,-6.5,-8.3,49390,290,3.2,1.6
2013,11,25,21:00,UTC,0,1020.3,0,89,0,2,-8.9,-10.4,42700,302,2.7,1.5
2013,11,25,22:00,UTC,0,1020.7,0,89,0,2,-8.7,-10.3,48820,0,1.3,0
2013,11,25,23:00,UTC,0,1020.7,0,90,0,2,-9.7,-11.1,46160,293,2.1,1.5
2013,11,26,00:00,UTC,0,1021.1,0,89,0,2,-9.5,-10.9,50000,302,2.9,1.6
2013,11,26,01:00,UTC,0,1020.9,0,87,0,3,-7.9,-9.7,47470,300,4.6,3.3
2013,11,26,02:00,UTC,0,1020.9,0,89,0,3,-9.4,-10.9,50000,278,2.7,1.6
2013,11,26,03:00,UTC,0,1020.9,0,89,0,2,-10.3,-11.8,44320,292,2.4,1.3
2013,11,26,04:00,UTC,0,1021,0,87,0,2,-11.5,-13.2,50000,0,1.3,0
2013,11,26,05:00,UTC,0,1020.7,0,86,0,2,-11.7,-13.6,50000,0,1.2,0
2013,11,26,06:00,UTC,0,1020.9,0,84,0,2,-12.7,-14.9,42570,227,2.1,1
2013,11,26,07:00,UTC,0,1020.9,0,86,0,2,-12.9,-14.7,25100,223,1.7,0.8
2013,11,26,08:00,UTC,0,1020.5,0,85,0,3,-12.3,-14.2,18600,147,2.1,1.5
2013,11,26,09:00,UTC,0,1019.9,0,88,0,2,-9.9,-11.5,28430,141,2.6,1.8
2013,11,26,10:00,UTC,7,1019.6,0,91,0,3,-6.1,-7.3,20610,198,2.6,1.1
2013,11,26,11:00,UTC,7,1018,0,88,0,3,-3.7,-5.4,48680,167,3.2,1.8
2013,11,26,12:00,UTC,8,1017,0,92,0,3,-3.4,-4.5,4280,192,5.8,2
2013,11,26,13:00,UTC,8,1016.6,0,92,0,3,-2.8,-3.9,4430,187,4.4,2.2
2013,11,26,14:00,UTC,8,1015.2,0.1,94,0,3,-2,-2.9,4860,196,6.5,2
2013,11,26,15:00,UTC,8,1013.7,0,94,0,3,-1.2,-2,4010,187,4.6,2
2013,11,26,16:00,UTC,8,1012.7,0.1,95,0,3,-0.8,-1.5,6140,192,5.1,2.4
2013,11,26,17:00,UTC,8,1011.5,0.1,95,0,3,-0.5,-1.2,14090,201,5.4,2.7
2013,11,26,18:00,UTC,8,1010,0.1,95,0,3,-0.4,-1.1,22210,194,6.9,3.4
2013,11,26,19:00,UTC,8,1009.1,0.4,95,1,3,-0.2,-0.9,1450,202,5.3,2.6
2013,11,26,20:00,UTC,8,1007.2,1.6,96,2.4,5,-0.4,-1,660,186,8.7,3.8
2013,11,26,21:00,UTC,7,1005.3,1.1,96,0,6,-0.1,-0.6,6150,194,5.8,2.8
2013,11,26,22:00,UTC,8,1004.8,0.2,96,0.2,6,0.4,-0.1,7370,216,8.5,3.5
2013,11,26,23:00,UTC,8,1004.1,0.1,97,0,6,0.6,0.1,27360,240,7.4,3
2013,11,27,00:00,UTC,8,1003.4,0,97,0,6,0.7,0.2,50000,249,6.5,2.9
2013,11,27,01:00,UTC,8,1002.9,0,96,0,6,1,0.5,14020,246,6.1,2.8
2013,11,27,02:00,UTC,8,1002.5,0,96,0,6,1.1,0.6,19710,254,5,2.7
2013,11,27,03:00,UTC,3,1002.2,0,96,0,6,1,0.5,27430,267,5.5,2.6
2013,11,27,04:00,UTC,0,1002,0,96,0,6,0.8,0.3,27550,257,5,2.6
2013,11,27,05:00,UTC,0,1001.5,0,96,0,6,0.6,0,29110,264,5.4,2.5
2013,11,27,06:00,UTC,0,1001.1,0,95,0,6,0.3,-0.4,26210,270,4.8,2.4
2013,11,27,07:00,UTC,0,1001.1,0,95,0,6,0.1,-0.6,19870,262,3.8,2.2
2013,11,27,08:00,UTC,7,1000.1,0,93,0,6,0.9,-0.1,26780,250,5.3,2.3
2013,11,27,09:00,UTC,7,999.7,0,90,0,6,1.3,-0.1,34240,238,5.4,2.9
2013,11,27,10:00,UTC,7,999,0,92,0,6,1.4,0.2,40960,230,4.1,2.1
2013,11,27,11:00,UTC,7,997.1,0,94,0,6,1.1,0.3,28240,156,2.9,1.4
2013,11,27,12:00,UTC,8,994.3,0.1,96,0.2,6,1.8,1.2,5170,187,4.2,2.1
2013,11,27,13:00,UTC,8,992.9,0,95,0,5,3,2.3,3480,222,8.1,3.2
2013,11,27,14:00,UTC,8,991.4,0.1,95,0,5,3.6,2.9,50000,258,7.3,2.5
2013,11,27,15:00,UTC,1,990.9,0.1,91,0,4,4.3,2.9,50000,270,7.6,3.9
2013,11,27,16:00,UTC,0,988.8,0.2,92,0,4,3.6,2.4,50000,250,5.5,2.3
2013,11,27,17:00,UTC,0,987.3,0,91,0,4,3.6,2.2,50000,261,6.8,2.8
2013,11,27,18:00,UTC,1,987.5,0,79,0,4,4.7,1.3,50000,280,10.7,6.6
2013,11,27,19:00,UTC,1,987.3,0,72,0,4,4,-0.5,50000,281,10.8,6.1
2013,11,27,20:00,UTC,0,987,0,66,0,4,3,-2.8,39060,283,10.5,6.2
2013,11,27,21:00,UTC,0,986.8,0,65,0,4,2.9,-3,41090,283,11.1,6.3
2013,11,27,22:00,UTC,3,985.5,0,67,0,4,2.8,-2.7,31540,275,9.6,4.6
2013,11,27,23:00,UTC,8,984.6,0,68,0,4,3.2,-2.2,39960,279,11.6,6.3
2013,11,28,00:00,UTC,7,983.5,0,68,0,4,3.1,-2.2,46570,277,10.4,5.3
2013,11,28,01:00,UTC,7,982.9,0,67,0,4,2.8,-2.7,50000,283,13.8,6.8
2013,11,28,02:00,UTC,5,982.6,0,68,0,4,2.6,-2.8,50000,283,13.7,6.8
2013,11,28,03:00,UTC,7,982.1,0,66,0,4,2.9,-2.8,40490,286,13,6.7
2013,11,28,04:00,UTC,7,981.7,0,70,0,4,2.4,-2.6,27920,284,8.9,5.3
2013,11,28,05:00,UTC,8,981.1,0,68,0,4,2.6,-2.7,32630,286,10.2,6.3
2013,11,28,06:00,UTC,7,980.7,0,68,0,4,2.6,-2.8,41140,287,10.8,6.2
2013,11,28,07:00,UTC,8,980.6,0,69,0,4,2.3,-2.9,45800,290,9.1,5.8
2013,11,28,08:00,UTC,8,981,0,69,0,4,2.1,-3,40360,288,10.3,6.2
2013,11,28,09:00,UTC,7,981,0,71,0,4,2,-2.8,34810,289,11.2,6.5
2013,11,28,10:00,UTC,7,981,0,80,0,4,1.3,-1.7,28700,288,10.2,6
2013,11,28,11:00,UTC,7,981.2,0,78,0,4,1.5,-1.9,32360,289,11,7.2
2013,11,28,12:00,UTC,8,982,0,82,0,4,1.4,-1.4,18970,295,12.5,7.5
2013,11,28,13:00,UTC,7,983.3,0.3,93,0.8,4,0,-1.1,1440,313,14.5,9.4
2013,11,28,14:00,UTC,8,985.4,0,86,0,4,-1,-3.1,10780,318,13.7,10
2013,11,28,15:00,UTC,8,986.8,0,86,0,4,-0.8,-2.8,10910,322,11.4,8
2013,11,28,16:00,UTC,8,988.4,0,89,0,4,-0.2,-1.9,4030,318,11.7,8.7
2013,11,28,17:00,UTC,8,990,0.1,91,0,4,0,-1.3,3850,327,14.8,9.9
2013,11,28,18:00,UTC,8,992.1,0,81,0,4,0.2,-2.7,50000,332,15.7,10.9
2013,11,28,19:00,UTC,8,994.4,0,76,0,4,-0.5,-4.2,50000,333,14.8,10.9
2013,11,28,20:00,UTC,8,995.8,0,76,0,4,-0.3,-4.1,43380,335,15,10.2
2013,11,28,21:00,UTC,7,997.2,0,78,0,4,-0.4,-3.7,11910,330,13.3,9.5
2013,11,28,22:00,UTC,8,998.5,0,73,0,4,-0.3,-4.6,50000,332,12.2,7.9
2013,11,28,23:00,UTC,8,999.6,0,71,0,4,-0.7,-5.4,50000,329,14.6,9
2013,11,29,00:00,UTC,8,1000.7,0,71,0,4,-1,-5.5,50000,319,11.5,7.8
2013,11,29,01:00,UTC,7,1001.6,0,70,0,4,-1.6,-6.3,50000,320,11.7,8.6
2013,11,29,02:00,UTC,8,1002.6,0,73,0,4,-2.2,-6.4,50000,331,11.1,7.6
2013,11,29,03:00,UTC,8,1003.2,0,71,0,4,-2.9,-7.5,50000,326,10,7.2
2013,11,29,04:00,UTC,0,1003.8,0,72,0,4,-4.5,-8.8,50000,339,9.6,6.6
2013,11,29,05:00,UTC,0,1004.7,0,73,0,4,-5.1,-9.1,50000,332,8.4,6.2
2013,11,29,06:00,UTC,0,1005.2,0,77,0,4,-6.1,-9.5,50000,321,9.6,6.7
2013,11,29,07:00,UTC,0,1005.9,0,81,0,4,-7,-9.7,47310,310,5.3,3.7
2013,11,29,08:00,UTC,1,1006.4,0,82,0,4,-6.8,-9.4,45570,301,4.7,3.1
2013,11,29,09:00,UTC,0,1006.5,0,82,0,4,-6.7,-9.3,45260,304,6.6,4.5
2013,11,29,10:00,UTC,0,1006.5,0,81,0,4,-6.3,-9.1,39580,304,5,3.8
2013,11,29,11:00,UTC,3,1006.3,0,79,0,4,-6.1,-9.1,50000,305,2.8,2
2013,11,29,12:00,UTC,0,1006.6,0,81,0,4,-6.7,-9.5,42440,270,1.3,0.6
2013,11,29,13:00,UTC,8,1006.5,0,82,0,4,-6.6,-9.1,50000,272,1.9,1.1
2013,11,29,14:00,UTC,7,1006.4,0,81,0,4,-5.7,-8.4,47600,261,1.2,0.7
2013,11,29,15:00,UTC,8,1006.6,0,84,0,4,-6.1,-8.3,41110,152,1.5,1.1
2013,11,29,16:00,UTC,7,1006.9,0,84,0,4,-6,-8.2,22480,152,1.4,1.1
2013,11,29,17:00,UTC,8,1007,0,84,0,4,-5.5,-7.7,2560,156,2,1.3
2013,11,29,18:00,UTC,8,1007.3,0.1,87,0,4,-5.4,-7.2,2820,148,1.1,0.7
2013,11,29,19:00,UTC,8,1007.2,0.1,88,0,4,-5.3,-7.1,8110,134,2.1,1.4
2013,11,29,20:00,UTC,8,1007.4,0.1,89,0,4,-5.1,-6.6,3420,181,2.3,1.4
2013,11,29,21:00,UTC,7,1007.6,0.3,91,0,3,-5.5,-6.8,23880,161,1.6,1
2013,11,29,22:00,UTC,7,1007.6,0,91,0,3,-5.5,-6.7,41620,175,2,1.1
2013,11,29,23:00,UTC,7,1007.3,0,91,0,3,-6,-7.3,23760,186,2.6,1.3
2013,11,30,00:00,UTC,3,1006.7,0,91,0,4,-5.7,-6.9,44950,181,2.6,1.7
2013,11,30,01:00,UTC,7,1006.4,0,91,0,4,-5.4,-6.6,50000,176,2.9,1.4
2013,11,30,02:00,UTC,5,1005.7,0,89,0,3,-6.3,-7.8,46970,160,2.8,1.6
2013,11,30,03:00,UTC,7,1005.1,0,89,0,4,-6.5,-8,50000,147,2.5,1.5
2013,11,30,04:00,UTC,7,1004.4,0,87,0,4,-5.4,-7.3,50000,176,4,1.9
2013,11,30,05:00,UTC,7,1003.7,0,81,0,4,-4.1,-6.9,50000,183,4.8,1.9
2013,11,30,06:00,UTC,7,1002.8,0,74,0,3,-3.6,-7.6,48590,185,5.4,2
2013,11,30,07:00,UTC,8,1002.2,0,77,0,4,-2.9,-6.4,4240,194,7.4,3.6
2013,11,30,08:00,UTC,9,1001.5,0.2,88,0.5,5,-3.1,-4.9,1630,182,6.9,3.3
2013,11,30,09:00,UTC,9,1000,0.6,93,0.4,6,-2.8,-3.8,1860,180,8.3,3.5
2013,11,30,10:00,UTC,9,998.5,0.7,93,0.8,9,-2.3,-3.3,1120,184,8.8,3.9
2013,11,30,11:00,UTC,9,997.4,1,94,1.3,9,-2,-2.8,750,193,6.3,3.5
2013,11,30,12:00,UTC,8,997,0.8,95,0.5,10,-1,-1.7,1720,219,6.7,3.1
2013,11,30,13:00,UTC,8,997.7,0.5,95,0.6,10,-0.6,-1.2,2000,284,8.9,5.1
2013,11,30,14:00,UTC,7,998.7,0.3,95,0,10,-1.1,-1.9,39640,300,10.6,7.2
2013,11,30,15:00,UTC,5,999.8,0,89,0,10,-1.8,-3.4,50000,301,9.6,6.4
2013,11,30,16:00,UTC,0,1000.6,0,85,0,10,-3,-5.1,50000,295,6.8,5.1
2013,11,30,17:00,UTC,3,1000.8,0,86,0,10,-4.1,-6.1,49080,284,5.6,3.8
2013,11,30,18:00,UTC,0,1001,0,87,0,10,-5.4,-7.2,50000,274,4.9,2.6
2013,11,30,19:00,UTC,0,1001.5,0,87,0,10,-6,-7.8,50000,275,6.1,3.1
2013,11,30,20:00,UTC,0,1001.7,0,87,0,10,-7.2,-9,50000,260,3.4,1.6
2013,11,30,21:00,UTC,5,1001,0,87,0,10,-8,-9.7,50000,213,2.3,1.5
2013,11,30,22:00,UTC,7,999.6,0,89,0,10,-7.8,-9.2,50000,151,2.9,1.8
2013,11,30,23:00,UTC,7,998.3,0,91,0,9,-8.3,-9.5,50000,166,2.5,1.5
2013,12,1,00:00,UTC,3,996.2,0,85,0,10,-6.9,-9,50000,173,3.4,1.7
2013,12,1,01:00,UTC,5,994.5,0,85,0,9,-5.9,-8,50000,183,4.8,2.6
2013,12,1,02:00,UTC,8,991.6,0,85,0,9,-4.2,-6.3,24610,171,5.7,2.9
2013,12,1,03:00,UTC,8,988.5,0,84,0,9,-2.9,-5.2,8420,165,7.7,3.1
2013,12,1,04:00,UTC,8,985.5,0.4,90,0,10,-2.5,-3.9,32730,176,8.8,4.3
2013,12,1,05:00,UTC,8,983.7,0.3,91,0,10,-1.9,-3.2,4800,190,9.9,3.8
2013,12,1,06:00,UTC,8,982,0.5,95,0,11,-1.2,-2,2330,186,8.2,4.1
2013,12,1,07:00,UTC,8,981,0.6,95,0.7,11,-0.7,-1.3,1780,196,5.6,2.6
2013,12,1,08:00,UTC,8,980.4,0.1,96,0,11,0.5,-0.1,43990,224,6.2,2.9
2013,12,1,09:00,UTC,8,980.1,0.1,94,0,11,0.9,0,43720,238,5.7,2.8
2013,12,1,10:00,UTC,7,979.8,0.1,94,0.4,11,0.6,-0.2,5350,226,4.7,2.3
2013,12,1,11:00,UTC,7,980,0,92,0,11,0.8,-0.3,3650,267,6.2,2.4
2013,12,1,12:00,UTC,7,980.2,0.1,88,0,10,0.8,-0.9,14910,266,5.9,2.8
2013,12,1,13:00,UTC,8,980.9,0.2,93,0.5,11,0.4,-0.6,1470,275,7.3,3.5
2013,12,1,14:00,UTC,9,982.3,0.5,94,1,11,-0.2,-1.1,890,302,12,8.6
2013,12,1,15:00,UTC,8,985.1,0.3,89,0,7,-1.7,-3.3,3460,328,15.7,11.9
2013,12,1,16:00,UTC,8,988.2,0,86,0,4,-3,-5,800,326,19.7,14.9
2013,12,1,17:00,UTC,8,991.5,0,85,0,6,-3.9,-6.1,1900,327,18.2,12.2
2013,12,1,18:00,UTC,8,995.1,0,83,0,4,-4.5,-7,2840,329,18.1,11.7
2013,12,1,19:00,UTC,7,998.3,0,79,0,4,-5.2,-8.3,3150,331,15.1,10.5
2013,12,1,20:00,UTC,1,1001,0,68,0,4,-6.1,-11.1,8110,327,15.4,10.3
2013,12,1,21:00,UTC,0,1003.2,0,69,0,4,-6.9,-11.7,38200,319,11.8,8.6
2013,12,1,22:00,UTC,0,1005.4,0,72,0,4,-7.2,-11.4,48790,315,12,7.8
2013,12,1,23:00,UTC,0,1007.3,0,74,0,4,-7,-10.8,50000,309,10.2,6.8
2013,12,2,00:00,UTC,0,1008.9,0,76,0,4,-6.5,-10.1,38880,315,11.3,8.9
2013,12,2,01:00,UTC,0,1010.8,0,80,0,4,-6.9,-9.8,50000,321,10.8,7.7
2013,12,2,02:00,UTC,0,1012.8,0,81,0,4,-7.2,-9.9,50000,311,10.1,7.3
2013,12,2,03:00,UTC,0,1014.5,0,84,0,4,-8.9,-11,50000,320,6.9,5
2013,12,2,04:00,UTC,0,1015.7,0,85,0,4,-9.4,-11.4,50000,323,3.7,3
2013,12,2,05:00,UTC,0,1016.6,0,89,0,4,-10.4,-11.9,45830,302,3.2,1.6
2013,12,2,06:00,UTC,0,1017.6,0,88,0,4,-11.1,-12.6,50000,280,4,1.5
2013,12,2,07:00,UTC,0,1018.9,0,91,0,4,-9.7,-10.9,44410,291,4.2,2.4
2013,12,2,08:00,UTC,0,1019.2,0,87,0,4,-7.9,-9.7,50000,284,5.7,3.5
2013,12,2,09:00,UTC,0,1019.6,0,86,0,4,-7.2,-9.1,50000,281,4.7,2.7
2013,12,2,10:00,UTC,3,1019.6,0,84,0,4,-6.2,-8.5,44470,259,4.1,2.1
2013,12,2,11:00,UTC,7,1019.3,0,83,0,4,-6.3,-8.7,49340,224,3.5,1.8
2013,12,2,12:00,UTC,7,1019.3,0,83,0,4,-6,-8.4,42050,235,4.8,2
2013,12,2,13:00,UTC,7,1019.4,0,84,0,4,-6.6,-8.8,49010,222,2.8,1.4
2013,12,2,14:00,UTC,7,1018.7,0,88,0,4,-8.2,-9.8,46170,160,1.8,1.3
2013,12,2,15:00,UTC,8,1017.4,0,89,0,4,-7.5,-9.1,21270,144,2.6,1.5
2013,12,2,16:00,UTC,7,1016.3,0.1,89,0.7,4,-5.9,-7.5,1750,173,2.9,1.8
2013,12,2,17:00,UTC,9,1014.4,0.6,91,0.8,5,-5.2,-6.5,1020,156,5,2.4
2013,12,2,18:00,UTC,9,1012.9,0.5,92,0.2,5,-4.1,-5.1,1360,174,4.1,2
2013,12,2,19:00,UTC,8,1011.8,0.4,93,0,6,-3.6,-4.5,1890,199,4.5,2.3
2013,12,2,20:00,UTC,8,1010.5,0.1,94,0,6,-2.7,-3.5,34480,174,3.8,1.9
2013,12,2,21:00,UTC,8,1009.5,0,95,0,6,-0.8,-1.4,30210,236,4.5,2
2013,12,2,22:00,UTC,8,1008.4,0,95,0,6,0.6,-0.1,43510,239,5.2,2.1
2013,12,2,23:00,UTC,7,1007.6,0.1,94,0,6,0.8,0,45910,211,4.6,2.2
2013,12,3,00:00,UTC,7,1006.7,0,92,0,6,1.3,0.2,49170,252,6.6,2.5
2013,12,3,01:00,UTC,7,1006.1,0,90,0,6,1.5,0.1,44940,244,6.2,2.7
2013,12,3,02:00,UTC,7,1005.2,0.1,91,0,6,1.5,0.2,46540,240,6.7,1.5
2013,12,3,03:00,UTC,8,1004.4,0,90,0,6,1.9,0.4,30340,233,7,2.4
2013,12,3,04:00,UTC,8,1003.5,0,92,0,6,2.3,1.1,20270,221,6,1.8
2013,12,3,05:00,UTC,7,1002.5,0.1,91,0.4,6,2.7,1.3,50000,222,6.7,2.9
2013,12,3,06:00,UTC,7,1001.7,0,91,0,6,2.6,1.3,50000,219,6.8,3
2013,12,3,07:00,UTC,7,1001.1,0.1,90,0,5,2.3,0.8,44300,231,9.3,3.7
2013,12,3,08:00,UTC,7,1000.4,0,88,0,5,2,0.2,50000,207,6.4,3.4
2013,12,3,09:00,UTC,5,999.8,0,86,0,5,2.1,0,47140,211,7.1,3.1
2013,12,3,10:00,UTC,7,999.1,0,86,0,5,1.7,-0.3,43010,218,8,3.3
2013,12,3,11:00,UTC,1,998.5,0,87,0,5,1.7,-0.3,47580,228,7.1,3.2
2013,12,3,12:00,UTC,1,998.3,0,86,0,5,2,-0.1,48360,250,7.2,3.7
2013,12,3,13:00,UTC,3,998.4,0,85,0,5,2.3,0,50000,265,7,3.9
2013,12,3,14:00,UTC,7,999.2,0,84,0,5,2.5,0.1,49300,260,6.4,2.9
2013,12,3,15:00,UTC,7,1000.1,0,80,0,5,3.4,0.2,50000,282,7.5,4.4
2013,12,3,16:00,UTC,1,1000.7,0,70,0,5,3.3,-1.7,50000,296,10.7,7.2
2013,12,3,17:00,UTC,0,1001.6,0,71,0,5,2.3,-2.4,50000,297,9.2,5.9
2013,12,3,18:00,UTC,1,1002.7,0,60,0,5,2,-4.9,50000,296,9.6,6.7
2013,12,3,19:00,UTC,0,1003.7,0,60,0,5,1.1,-5.8,50000,294,9.6,5.8
2013,12,3,20:00,UTC,0,1004.6,0,63,0,5,-0.3,-6.4,50000,284,7.1,3.8
2013,12,3,21:00,UTC,0,1005.2,0,67,0,5,-0.7,-6.1,50000,286,6,4.2
2013,12,3,22:00,UTC,0,1005,0,65,0,5,-1.2,-6.9,50000,273,5.5,3.2
2013,12,3,23:00,UTC,0,1004.6,0,65,0,5,-1.6,-7.3,49800,285,6.4,3.9
2013,12,4,00:00,UTC,0,1004.3,0,70,0,5,-2.4,-7.1,44910,255,5,2.3
2013,12,4,01:00,UTC,0,1004,0,73,0,5,-3,-7.1,45210,258,4.5,2
2013,12,4,02:00,UTC,0,1003.5,0,73,0,5,-3,-7.2,34790,255,5.4,2.7
2013,12,4,03:00,UTC,1,1003,0,75,0,5,-3.3,-7.1,37920,243,4.1,2
2013,12,4,04:00,UTC,5,1002.5,0,74,0,5,-2.8,-6.8,36100,269,5.5,2.3
2013,12,4,05:00,UTC,7,1001.8,0,76,0,5,-2.5,-6.1,33610,272,6.2,3
2013,12,4,06:00,UTC,7,1001.1,0,78,0,5,-2.4,-5.7,33330,269,6.8,3.1
2013,12,4,07:00,UTC,7,1001,0,81,0,5,-2.8,-5.6,36780,267,5.6,3
2013,12,4,08:00,UTC,7,1000.7,0,82,0,5,-2.8,-5.5,34460,281,3.2,1.7
2013,12,4,09:00,UTC,7,1000.2,0,84,0,5,-2.9,-5.3,31660,269,2.9,1.7
2013,12,4,10:00,UTC,1,999.8,0,83,0,5,-3.1,-5.5,36460,270,4,1.6
2013,12,4,11:00,UTC,0,999.4,0,85,0,5,-3.2,-5.4,33910,221,3.7,2
2013,12,4,12:00,UTC,0,998.7,0,86,0,5,-3.9,-5.9,29400,251,2.3,1.2
2013,12,4,13:00,UTC,0,998.6,0,92,0,5,-5.8,-6.9,18430,216,1.6,0.7
2013,12,4,14:00,UTC,0,998.5,0,93,0,5,-6.2,-7.1,15980,213,3,1.7
2013,12,4,15:00,UTC,0,998,0,90,0,5,-8.3,-9.6,28560,174,2,1.5
2013,12,4,16:00,UTC,0,997.5,0,92,0,5,-9,-10.1,17540,233,2.8,1.3
2013,12,4,17:00,UTC,0,996.9,0,88,0,5,-10.6,-12.2,15550,172,1.4,0.9
2013,12,4,18:00,UTC,0,996.5,0,88,0,5,-10.6,-12.3,18580,126,2.1,1.4
2013,12,4,19:00,UTC,3,996.3,0,89,0,5,-10.4,-11.9,21980,156,2.5,2
2013,12,4,20:00,UTC,7,995.7,0,89,0,5,-9.4,-10.8,19420,152,2.4,1.9
2013,12,4,21:00,UTC,7,995,0,94,0,5,-4.1,-5,34430,248,2.9,1.6
2013,12,4,22:00,UTC,7,994.4,0,92,0,5,-5.9,-7,27350,153,2.7,1.6
2013,12,4,23:00,UTC,7,993.9,0,91,0,5,-5.3,-6.6,42030,119,1.6,0.9
2013,12,5,00:00,UTC,7,993.3,0,93,0,5,-4.7,-5.7,38200,150,2.5,1.3
2013,12,5,01:00,UTC,8,992.2,0,94,0,5,-3.8,-4.7,42480,170,2.3,1.2
2013,12,5,02:00,UTC,8,991.3,0,94,0,5,-3,-3.8,38020,191,4,2.2
2013,12,5,03:00,UTC,8,991,0,93,0,5,-2.7,-3.7,36660,160,3.2,1.5
2013,12,5,04:00,UTC,8,990.2,0,94,0,5,-2.5,-3.4,36700,154,2.3,1.1
2013,12,5,05:00,UTC,8,989.3,0,94,0,5,-2.3,-3.3,17040,180,3.7,2
2013,12,5,06:00,UTC,8,988.3,0,93,0,5,-2.3,-3.3,27890,160,2.5,1.2
2013,12,5,07:00,UTC,8,987.3,0,93,0,5,-2.3,-3.2,29280,141,3.7,2
2013,12,5,08:00,UTC,8,986.7,0,93,0,5,-2.2,-3.2,30700,163,3.3,1.8
2013,12,5,09:00,UTC,8,985.7,0,91,0,5,-1.9,-3.1,33870,168,3.9,2.1
2013,12,5,10:00,UTC,8,984.9,0,92,0,5,-1.7,-2.8,20750,153,3,1.6
2013,12,5,11:00,UTC,7,983.8,0,93,0,5,-1.7,-2.7,27860,127,3.2,2.1
2013,12,5,12:00,UTC,8,983.1,0.6,94,1,5,-1.6,-2.4,1060,139,2.6,1.3
2013,12,5,13:00,UTC,8,982.5,0.5,95,0.5,7,-1.7,-2.4,1740,145,2.9,1.6
2013,12,5,14:00,UTC,8,982,0.2,95,0,7,-1.5,-2.2,5980,183,3.6,1.8
2013,12,5,15:00,UTC,8,982.4,0,92,0,7,-1.4,-2.5,4410,240,5.3,2.3
2013,12,5,16:00,UTC,7,982.3,0.1,89,0,7,-2.1,-3.7,50000,220,4.4,2.3
2013,12,5,17:00,UTC,7,982.6,0,90,0,7,-2.8,-4.1,50000,192,3.7,1.8
2013,12,5,18:00,UTC,7,982.2,0,92,0,7,-3.8,-4.9,50000,149,1.9,1.3
2013,12,5,19:00,UTC,7,982,0,93,0,7,-3.9,-4.8,47360,151,3,1.8
2013,12,5,20:00,UTC,8,981.5,0,94,0,7,-4,-4.8,32900,139,2,1.5
2013,12,5,21:00,UTC,7,980.9,0,93,0,7,-3.4,-4.3,47730,126,4.4,2.3
2013,12,5,22:00,UTC,7,980.2,0,93,0,7,-3.1,-4.1,23370,110,4.7,3.1
2013,12,5,23:00,UTC,8,979.9,0,93,0,7,-2.9,-3.9,47330,112,5.1,3.4
2013,12,6,00:00,UTC,8,979.1,0,90,0,9,-2.4,-3.9,,92,6.7,4.8
2013,12,6,01:00,UTC,8,978.5,0.1,92,0,7,-2.3,-3.4,3900,103,7.3,5.1
2013,12,6,02:00,UTC,8,978.3,0.2,94,0.3,7,-2.1,-3,3990,113,6,3.9
2013,12,6,03:00,UTC,8,978.1,0.5,95,0.3,7,-1.8,-2.5,2920,117,4.7,3.2
2013,12,6,04:00,UTC,8,978,0.7,95,0.6,8,-1.5,-2.1,1430,117,5.3,3.5
2013,12,6,05:00,UTC,8,977.9,0.4,96,0,9,-1.1,-1.7,42370,118,5.1,3.3
2013,12,6,06:00,UTC,8,978.2,0,96,0,9,-0.6,-1.1,20480,110,5.3,3.5
2013,12,6,07:00,UTC,8,978.8,0,96,0,9,-0.2,-0.8,2790,94,6,4.2
2013,12,6,08:00,UTC,8,979.3,0.2,96,0.4,9,0.1,-0.5,3320,92,8.5,5.8
2013,12,6,09:00,UTC,8,979.8,0.1,96,0,9,0.1,-0.5,6030,95,6.6,4.6
2013,12,6,10:00,UTC,8,980.2,0.1,96,0,9,-0.1,-0.6,3770,82,5.2,3.8
2013,12,6,11:00,UTC,8,980.6,0.1,95,0,9,-0.1,-0.8,3720,87,6.5,4.8
2013,12,6,12:00,UTC,8,981.1,0.3,95,0.5,9,-0.3,-0.9,1880,78,6.2,4.1
2013,12,6,13:00,UTC,7,981.8,0.3,95,0.2,10,-0.4,-1.1,2550,72,5.1,3.6
2013,12,6,14:00,UTC,7,982.5,0.2,95,0,10,-0.6,-1.2,4040,76,4.8,3
2013,12,6,15:00,UTC,8,983.3,0.1,95,0,10,-0.5,-1.2,7510,70,4.2,2.7
2013,12,6,16:00,UTC,8,983.8,0.1,94,0,10,-0.6,-1.4,8350,61,5,4
2013,12,6,17:00,UTC,8,984.4,0,93,0,11,-0.7,-1.6,9370,68,4.6,3
2013,12,6,18:00,UTC,8,984.9,0.2,94,0.2,11,-0.7,-1.5,6430,41,5.4,3
2013,12,6,19:00,UTC,8,985.6,0,93,0,11,-0.9,-2,4000,59,5.9,3.3
2013,12,6,20:00,UTC,7,986.2,0.1,93,0,11,-1.1,-2,3950,43,5,3
2013,12,6,21:00,UTC,8,986.9,0.1,92,0,12,-1.2,-2.3,4610,41,4.8,3.2
2013,12,6,22:00,UTC,7,987.5,0.2,93,0.2,12,-1.4,-2.4,2380,23,4.4,3.2
2013,12,6,23:00,UTC,7,987.9,0.2,93,0,12,-1.6,-2.6,3230,17,5.3,3
2013,12,7,00:00,UTC,8,988.5,0.1,92,0,14,-1.7,-2.8,3660,30,5.6,3.6
2013,12,7,01:00,UTC,8,989,0.1,92,0,12,-1.9,-3.1,4860,21,6,3.7
2013,12,7,02:00,UTC,8,989.6,0.2,91,0.4,12,-2.3,-3.6,3100,13,5.5,3.7
2013,12,7,03:00,UTC,7,990.2,0.2,92,0.2,13,-2.7,-3.8,2260,360,4.3,2.9
2013,12,7,04:00,UTC,8,990.7,0.4,92,0.5,13,-2.5,-3.6,2140,13,5.3,3.2
2013,12,7,05:00,UTC,8,991.4,0.3,91,0.2,13,-2.9,-4.1,2270,13,5.5,3.5
2013,12,7,06:00,UTC,7,992.2,0.2,89,0,14,-3.1,-4.6,4410,15,6.5,4
2013,12,7,07:00,UTC,7,993,0.1,90,0.4,14,-3.5,-4.9,2540,11,5.2,3.5
2013,12,7,08:00,UTC,8,993.7,0.1,90,0,14,-3.6,-5,4470,2,4.6,3.1
2013,12,7,09:00,UTC,7,994.4,0.1,89,0,14,-3.7,-5.3,4150,10,5.6,3.9
2013,12,7,10:00,UTC,8,995.1,0.2,88,0.3,14,-4.2,-5.8,4670,9,6.7,4.5
2013,12,7,11:00,UTC,8,996,0,86,0,14,-4.3,-6.3,18630,17,6,3.5
2013,12,7,12:00,UTC,8,996.7,0,86,0,14,-4.7,-6.6,12900,5,6.8,4.3
2013,12,7,13:00,UTC,8,997.7,0,86,0,14,-5,-7.1,6920,10,6.3,4.1
2013,12,7,14:00,UTC,7,998.8,0.1,86,0,14,-5.4,-7.4,14050,6,5.3,3.8
2013,12,7,15:00,UTC,8,999.6,0,87,0,14,-5.8,-7.6,6090,6,5.9,3.6
2013,12,7,16:00,UTC,8,1000.5,0.1,87,0,14,-5.9,-7.7,4760,4,5.5,3.7
2013,12,7,17:00,UTC,7,1001,0.1,87,0.4,14,-6,-7.8,5760,3,5,3.6
2013,12,7,18:00,UTC,7,1001.9,0.1,87,0,14,-5.8,-7.6,3790,14,4.8,3.6
2013,12,7,19:00,UTC,8,1002.7,0.1,86,0,14,-5.7,-7.7,50000,14,5.6,3.9
2013,12,7,20:00,UTC,8,1003.5,0,86,0,14,-5.5,-7.5,28670,11,4.9,3.3
2013,12,7,21:00,UTC,8,1004.3,0,87,0,14,-5.5,-7.3,3580,12,5,3.8
2013,12,7,22:00,UTC,8,1005,0.1,87,0,14,-5.4,-7.2,12830,359,5.3,3.9
2013,12,7,23:00,UTC,8,1005.6,0.1,88,0,14,-5.3,-7.1,4630,6,5.5,3.3
2013,12,8,00:00,UTC,8,1006.4,0.1,87,0,14,-5.2,-7,5890,7,4.8,3.3
2013,12,8,01:00,UTC,8,1007,0,87,0,14,-5.2,-7,11390,3,5.1,3.9
2013,12,8,02:00,UTC,8,1007.6,0,87,0,14,-5.2,-7,26030,21,5.5,3.8
2013,12,8,03:00,UTC,8,1008.3,0,87,0,15,-5.2,-7.1,33290,13,4.8,3.3
2013,12,8,04:00,UTC,8,1009.2,0,86,0,15,-5.3,-7.2,29650,13,4.4,3
2013,12,8,05:00,UTC,8,1009.9,0,85,0,15,-5.5,-7.7,25320,21,5.7,3.9
2013,12,8,06:00,UTC,8,1010.3,0,85,0,14,-5.9,-8,31980,27,6.3,3.6
2013,12,8,07:00,UTC,8,1011,0,86,0,14,-6.2,-8.2,35460,25,5.1,3.2
2013,12,8,08:00,UTC,8,1011.6,0,87,0,14,-7.1,-9,8360,7,3.5,2.4
2013,12,8,09:00,UTC,8,1012,0,88,0,14,-7.6,-9.2,8910,345,3.5,2.8
2013,12,8,10:00,UTC,7,1012.2,0,87,0,14,-7.5,-9.2,13690,340,2.5,1.8
2013,12,8,11:00,UTC,8,1012.4,0,87,0,14,-7.8,-9.7,12800,353,2.6,2.1
2013,12,8,12:00,UTC,8,1012.6,0,87,0,13,-7.4,-9.2,12030,340,2.6,1.8
2013,12,8,13:00,UTC,8,1012.8,0,89,0,14,-8.1,-9.6,6030,318,2.6,2.1
2013,12,8,14:00,UTC,8,1012.8,0,89,0,13,-7.3,-8.9,3050,332,2.3,1.7
2013,12,8,15:00,UTC,8,1012.7,0.1,89,0,14,-7.4,-9,13470,350,2.5,1.9
2013,12,8,16:00,UTC,8,1012.7,0,87,0,14,-7.5,-9.3,24090,12,3.9,2.4
2013,12,8,17:00,UTC,8,1012.8,0,87,0,14,-7.5,-9.4,17100,21,2.4,1.6
2013,12,8,18:00,UTC,8,1012.9,0,87,0,14,-7.6,-9.4,10380,41,2.1,1.5
2013,12,8,19:00,UTC,8,1012.8,0,88,0,14,-7.6,-9.3,9550,51,2.2,1.3
2013,12,8,20:00,UTC,8,1013.1,0,88,0,14,-7.4,-9.1,11770,54,1.4,0.7
2013,12,8,21:00,UTC,8,1013.4,0,89,0,14,-7.2,-8.7,9950,41,1.7,1.3
2013,12,8,22:00,UTC,8,1013.9,0,89,0,13,-7.5,-9,7840,337,1.4,0.9
2013,12,8,23:00,UTC,8,1014.1,0,89,0,13,-7.3,-8.8,5520,25,2.7,1.2
2013,12,9,00:00,UTC,8,1014.5,0,89,0,13,-7,-8.5,10440,46,2.6,1.3
2013,12,9,01:00,UTC,8,1014.7,0,89,0,13,-6.6,-8.1,9360,64,3.6,2.3
2013,12,9,02:00,UTC,8,1015.1,0,89,0,14,-6.4,-7.9,8050,74,3.2,2
2013,12,9,03:00,UTC,7,1015.6,0.1,88,0,15,-6.3,-8,5720,73,3.8,2.5
2013,12,9,04:00,UTC,8,1016.5,0.1,86,0,13,-7.2,-9.2,6500,80,4.4,2.7
2013,12,9,05:00,UTC,7,1017.2,0,86,0,14,-8.3,-10.2,10380,80,4.1,2
2013,12,9,06:00,UTC,7,1018,0,85,0,15,-8.4,-10.6,16290,78,4.6,3.4
2013,12,9,07:00,UTC,7,1018.8,0,86,0,14,-9.1,-11,9650,77,2.9,1.9
2013,12,9,08:00,UTC,8,1019.7,0,81,0,14,-8.3,-11,8130,89,4.2,2.9
2013,12,9,09:00,UTC,7,1020.4,0,81,0,14,-8.1,-10.8,12230,79,3.8,2.2
2013,12,9,10:00,UTC,8,1021.3,0,81,0,14,-7.6,-10.3,44270,64,2.9,1.8
2013,12,9,11:00,UTC,8,1022.2,0,81,0,14,-7.2,-9.9,47750,44,4,2.4
2013,12,9,12:00,UTC,7,1023.2,0,83,0,14,-8.5,-10.8,48700,59,3,2
2013,12,9,13:00,UTC,1,1024.4,0,89,0,13,-11,-12.4,39440,21,1.4,0.7
2013,12,9,14:00,UTC,0,1025.2,0,87,0,13,-12.5,-14.2,22150,311,1.1,0.8
2013,12,9,15:00,UTC,5,1026.2,0,89,0,14,-13.5,-15,36710,298,1.7,1.4
2013,12,9,16:00,UTC,8,1026.5,0,89,0,14,-10.1,-11.6,4380,47,3.5,1.8
2013,12,9,17:00,UTC,8,1027,0,88,0,14,-9.2,-10.8,22880,80,3.6,2.2
2013,12,9,18:00,UTC,7,1028,0,88,0,14,-9.6,-11.2,23010,89,3,1.6
2013,12,9,19:00,UTC,7,1028.9,0,88,0,14,-10,-11.6,4050,157,1.8,0.9
2013,12,9,20:00,UTC,8,1029.4,0,88,0,14,-10.3,-11.9,3220,178,1.3,0.7
2013,12,9,21:00,UTC,8,1029.7,0,88,0,14,-10.7,-12.3,13120,154,2.4,1.4
2013,12,9,22:00,UTC,8,1029.8,0,87,0,14,-10.9,-12.6,6020,164,2.2,1.2
2013,12,9,23:00,UTC,8,1030.1,0,87,0,13,-11.2,-12.9,6510,196,2.7,1.3
2013,12,10,00:00,UTC,7,1030.7,0,86,0,13,-11.6,-13.4,4890,225,3.1,1.6
2013,12,10,01:00,UTC,8,1030.5,0,86,0,14,-12,-13.8,8210,194,4.2,2.3
2013,12,10,02:00,UTC,8,1030.5,0,86,0,14,-11.7,-13.6,3210,190,3.7,2
2013,12,10,03:00,UTC,8,1030,0,86,0,14,-11.8,-13.7,5460,183,3.7,2
2013,12,10,04:00,UTC,8,1029.6,0,87,0,14,-11,-12.8,16240,183,3.6,1.9
2013,12,10,05:00,UTC,8,1029.1,0,87,0,14,-10.3,-12,13410,192,5.4,2.2
2013,12,10,06:00,UTC,7,1028.1,0,88,0,14,-9.8,-11.5,28860,172,3.8,1.9
2013,12,10,07:00,UTC,7,1027.9,0,87,0,14,-9.7,-11.5,49050,191,4.3,2.4
2013,12,10,08:00,UTC,8,1027.4,0,87,0,14,-9.7,-11.4,50000,168,3.6,1.8
2013,12,10,09:00,UTC,7,1026.4,0,88,0,14,-8.9,-10.5,34400,184,4.7,2.7
2013,12,10,10:00,UTC,8,1025.3,0,88,0,14,-8.1,-9.7,6100,175,5.5,2.5
2013,12,10,11:00,UTC,8,1024.2,0.1,89,0.2,15,-7.4,-8.9,2580,158,4.5,2.4
2013,12,10,12:00,UTC,8,1023.2,0.4,90,0.6,15,-6.7,-8.1,2770,158,5.4,2.5
2013,12,10,13:00,UTC,9,1021.1,0.4,91,0.5,15,-5.8,-7.1,1330,164,6.2,3.1
2013,12,10,14:00,UTC,9,1019.4,0.1,92,0,15,-4.5,-5.6,1930,166,6.5,3.3
2013,12,10,15:00,UTC,8,1018.2,0.6,93,0.2,15,-3.6,-4.5,1600,171,4.8,2.1
2013,12,10,16:00,UTC,8,1017.3,0.4,94,0,15,-2.8,-3.6,2850,186,3.5,1.6
2013,12,10,17:00,UTC,8,1016.4,0.1,95,0,15,-2.1,-2.8,3420,194,4.3,2.4
2013,12,10,18:00,UTC,8,1015.5,0,96,0,15,-1.4,-2,2420,205,6.9,2.9
2013,12,10,19:00,UTC,8,1015.2,0,96,0,15,-1,-1.5,1920,197,4,1.6
2013,12,10,20:00,UTC,8,1014.8,0,96,0,15,-0.6,-1.1,1720,214,4.6,2.4
2013,12,10,21:00,UTC,8,1014.4,0.1,97,0.2,15,0.2,-0.2,,203,3.9,1.8
2013,12,10,22:00,UTC,8,1013.9,0.1,97,0.4,15,0.6,0.1,11590,210,4.8,2.5
2013,12,10,23:00,UTC,8,1013.5,0,97,0,15,0.8,0.3,33370,228,5,2.4
2013,12,11,00:00,UTC,8,1013,0.1,97,0.3,15,0.9,0.5,11340,237,7.5,3.2
2013,12,11,01:00,UTC,8,1013.4,0,97,0,15,0.9,0.4,17250,251,4.8,2.2
2013,12,11,02:00,UTC,8,1013.3,0,97,0,15,1,0.5,9700,254,4.3,2.2
2013,12,11,03:00,UTC,8,1013.4,0,97,0,15,1.1,0.7,7260,250,3.8,1.5
2013,12,11,04:00,UTC,8,1012.9,0,97,0,14,1.4,0.9,8110,242,4.2,2
2013,12,11,05:00,UTC,8,1012.9,0,97,0,14,1.3,0.8,2920,239,3.9,1.7
2013,12,11,06:00,UTC,8,1012.7,0,97,0,14,1.4,1,14170,232,2.7,1.3
2013,12,11,07:00,UTC,8,1012.4,0,97,0,14,1.9,1.4,24960,242,4.5,1.8
2013,12,11,08:00,UTC,1,1012.3,0,97,0,14,2.3,1.8,34530,241,3.3,1.9
2013,12,11,09:00,UTC,1,1012.4,0,96,0,14,2.7,2.1,30390,251,3.5,1.4
2013,12,11,10:00,UTC,0,1012.1,0,94,0,14,3.3,2.5,50000,247,4.9,2.8
2013,12,11,11:00,UTC,0,1011.7,0,92,0,14,3.7,2.5,50000,228,4.9,2.2
2013,12,11,12:00,UTC,3,1011.3,0,90,0,14,3.9,2.3,50000,257,5.7,2.7
2013,12,11,13:00,UTC,5,1011.2,0,88,0,14,3.8,2,50000,258,6.4,2.9
2013,12,11,14:00,UTC,1,1011.1,0,87,0,13,3.7,1.8,50000,256,6.9,3
2013,12,11,15:00,UTC,3,1010.7,0,88,0,13,3.3,1.5,50000,235,6.3,3
2013,12,11,16:00,UTC,1,1010.7,0,89,0,13,2.8,1.2,50000,202,4.1,2.1
2013,12,11,17:00,UTC,0,1010.9,0,88,0,13,2.5,0.8,50000,226,5.3,2
2013,12,11,18:00,UTC,7,1011.1,0,88,0,13,2.3,0.5,50000,253,5.9,2.4
2013,12,11,19:00,UTC,7,1011,0,85,0,13,2.8,0.6,50000,258,8.3,3.5
2013,12,11,20:00,UTC,7,1011.1,0,88,0,13,2.4,0.7,50000,255,6.2,3
2013,12,11,21:00,UTC,8,1010.8,0,90,0,13,2.3,0.8,50000,241,5,3
2013,12,11,22:00,UTC,7,1010.7,0,91,0,13,2.2,0.9,50000,231,6,2.9
2013,12,11,23:00,UTC,1,1010.9,0,91,0,13,2.8,1.5,50000,247,6.7,3.4
2013,12,12,00:00,UTC,3,1011,0,93,0,13,2.6,1.5,50000,240,4.4,2.5
2013,12,12,01:00,UTC,1,1010.7,0,92,0,13,2.9,1.8,46690,241,5.3,2.7
2013,12,12,02:00,UTC,3,1010.5,0,92,0,13,3.1,1.8,50000,248,5.1,2.6
2013,12,12,03:00,UTC,7,1010,0,93,0,13,2.6,1.7,48670,248,5.8,2.8
2013,12,12,04:00,UTC,5,1009.6,0,94,0,13,2.6,1.7,50000,243,5.5,2.9
2013,12,12,05:00,UTC,7,1009.2,0,93,0,13,2.6,1.6,50000,231,7.7,2.3
2013,12,12,06:00,UTC,7,1008.4,0,93,0,13,2.2,1.2,44560,189,3.8,2
2013,12,12,07:00,UTC,5,1007.8,0,93,0,13,2.1,1,37260,194,4.1,2
2013,12,12,08:00,UTC,7,1007,0,89,0,13,3,1.4,50000,190,2.5,1.1
2013,12,12,09:00,UTC,8,1005.8,0,87,0,13,3.3,1.3,46300,201,5.2,2.5
2013,12,12,10:00,UTC,7,1004.6,0,89,0,13,3,1.3,50000,202,4.9,2.1
2013,12,12,11:00,UTC,8,1003.7,0,90,0,12,3,1.5,50000,221,5.8,2.9
2013,12,12,12:00,UTC,8,1002.3,0,92,0,12,2.6,1.5,44590,223,5.8,2.7
2013,12,12,13:00,UTC,8,1001.2,0,95,0,12,2.3,1.6,4060,229,6.2,2.6
2013,12,12,14:00,UTC,8,999.3,0,96,0,11,2.4,1.7,3440,200,4.7,2.1
2013,12,12,15:00,UTC,8,997.4,0,96,0,11,2.8,2.2,2670,198,4.4,2.1
2013,12,12,16:00,UTC,8,995.4,0.1,96,0,11,3.3,2.7,4330,199,7.6,2.5
2013,12,12,17:00,UTC,8,993.6,0,96,0,10,3.5,2.9,10300,207,6.9,3.1
2013,12,12,18:00,UTC,7,990.8,0,93,0,10,3.3,2.3,28190,210,9.8,4
2013,12,12,19:00,UTC,7,989,0,89,0,9,2.9,1.2,30890,207,8.5,4.3
2013,12,12,20:00,UTC,8,986.6,0,86,0,9,2.9,0.8,19880,194,6.6,3.3
2013,12,12,21:00,UTC,7,984.1,0,84,0,9,3.1,0.7,19910,215,9.2,3.8
2013,12,12,22:00,UTC,8,982.3,0,82,0,9,3.5,0.8,22670,227,8.7,3.3
2013,12,12,23:00,UTC,8,980.9,0.1,87,0,9,3.6,1.6,21190,248,8.6,4
2013,12,13,00:00,UTC,7,979.4,0,79,0,8,4.3,0.9,32040,234,8.9,4.3
2013,12,13,01:00,UTC,8,979.7,0,85,0,8,3.5,1.2,17980,263,8.3,3.8
2013,12,13,02:00,UTC,8,980.1,0.2,91,0,7,2.9,1.6,8730,278,9.8,5.2
2013,12,13,03:00,UTC,8,982.3,1,89,1.1,8,2.2,0.7,7450,299,15,10.2
2013,12,13,04:00,UTC,8,986.1,0.2,90,0,7,0.8,-0.7,3950,323,19.8,14.7
2013,12,13,05:00,UTC,8,992.3,0,87,0,7,0.2,-1.7,8050,338,19.8,13.6
2013,12,13,06:00,UTC,7,997.2,0,80,0,7,-0.4,-3.4,8560,327,17.7,13
2013,12,13,07:00,UTC,3,1001,0,73,0,7,-1.4,-5.5,50000,324,17.9,12.2
2013,12,13,08:00,UTC,1,1004.5,0,74,0,7,-2,-6,49720,319,14.4,10.6
2013,12,13,09:00,UTC,,1006.9,0,73,0,7,-2.1,-6.4,48000,319,,
2013,12,13,10:00,UTC,,1008.4,0,74,0,7,-1.8,-5.8,50000,309,13.3,9.4
2013,12,13,11:00,UTC,,1010,0,75,0,7,-1.7,-5.5,50000,310,13.4,9.1
2013,12,13,12:00,UTC,,1011.4,0,75,0,7,-1.9,-5.7,50000,314,11.4,8.3
2013,12,13,13:00,UTC,3,1012.7,0,70,0,7,-1.7,-6.4,50000,311,15.2,9.8
2013,12,13,14:00,UTC,1,1014,0,70,0,7,-2.3,-6.9,50000,309,11.4,8
2013,12,13,15:00,UTC,1,1015.1,0,72,0,7,-2.7,-7.1,50000,315,11.1,7.9
2013,12,13,16:00,UTC,0,1015.9,0,74,0,7,-3.1,-7.1,50000,308,8.6,6.7
2013,12,13,17:00,UTC,0,1016.4,0,75,0,7,-3.4,-7.2,50000,304,7.8,6
2013,12,13,18:00,UTC,1,1017,0,76,0,7,-3.8,-7.3,46950,291,6.2,4.3
2013,12,13,19:00,UTC,0,1017.2,0,80,0,7,-4.4,-7.4,50000,283,5.4,3.2
2013,12,13,20:00,UTC,0,1017.9,0,82,0,7,-4.7,-7.2,50000,285,5.2,3.3
2013,12,13,21:00,UTC,0,1018.4,0,84,0,7,-5,-7.3,50000,285,5.6,3.7
2013,12,13,22:00,UTC,1,1019.1,0,84,0,7,-5.5,-7.7,50000,284,4.8,3.1
2013,12,13,23:00,UTC,0,1019.2,0,84,0,7,-5.2,-7.4,50000,282,6.8,3.9
2013,12,14,00:00,UTC,0,1019.7,0,85,0,7,-5.8,-7.9,50000,280,5.4,3.1
2013,12,14,01:00,UTC,7,1020.4,0,83,0,7,-4.9,-7.4,50000,295,6.3,4.5
2013,12,14,02:00,UTC,0,1020.6,0,83,0,7,-5.6,-8,50000,307,6.9,5.2
2013,12,14,03:00,UTC,0,1021.5,0,85,0,7,-6.2,-8.4,50000,303,6.4,4.5
2013,12,14,04:00,UTC,0,1022.3,0,86,0,7,-6.9,-8.9,50000,310,5.8,4.1
2013,12,14,05:00,UTC,0,1022.6,0,86,0,7,-7.5,-9.5,50000,329,4.6,3.7
2013,12,14,06:00,UTC,0,1023.2,0,90,0,7,-8.2,-9.6,50000,333,3.7,3.1
2013,12,14,07:00,UTC,0,1023.9,0,90,0,7,-8.6,-10,43490,302,1.8,1.1
2013,12,14,08:00,UTC,0,1024.7,0,89,0,7,-8.1,-9.5,33930,286,4,2.7
2013,12,14,09:00,UTC,0,1025.1,0,90,0,7,-9.2,-10.6,50000,266,2,1.4
2013,12,14,10:00,UTC,0,1025.5,0,88,0,7,-10.4,-12,38980,293,1.3,1
2013,12,14,11:00,UTC,0,1025.8,0,90,0,7,-9.6,-10.9,22790,340,1.1,0.8
2013,12,14,12:00,UTC,0,1025.9,0,89,0,7,-9.9,-11.5,38650,288,1.2,1
2013,12,14,13:00,UTC,1,1026.2,0,90,0,7,-10.7,-12,48690,278,0.8,0.6
2013,12,14,14:00,UTC,1,1026.5,0,88,0,7,-12.2,-13.8,45160,310,0.7,0.6
2013,12,14,15:00,UTC,3,1026.6,0,86,0,7,-13,-14.8,50000,0,0.9,0
2013,12,14,16:00,UTC,7,1026.5,0,85,0,7,-13.8,-15.8,34950,139,0.9,0.7
2013,12,14,17:00,UTC,7,1026.4,0,86,0,7,-13,-14.9,37170,0,0.5,0
2013,12,14,18:00,UTC,8,1026.3,0,86,0,7,-12,-13.8,23850,167,1.6,0.9
2013,12,14,19:00,UTC,8,1026.1,0,86,0,7,-11.6,-13.5,21120,0,1,0
2013,12,14,20:00,UTC,8,1025.5,0,87,0,7,-10.6,-12.3,16300,161,1.6,0.9
2013,12,14,21:00,UTC,8,1025.3,0,88,0,7,-9.2,-10.8,21310,164,2.4,1.1
2013,12,14,22:00,UTC,8,1024.8,0,88,0,7,-8.8,-10.3,23140,152,2.2,1.3
2013,12,14,23:00,UTC,7,1024.2,0,89,0,7,-7.9,-9.4,23490,147,2.8,1.8
2013,12,15,00:00,UTC,7,1023.7,0,89,0,7,-6.8,-8.4,31100,144,2.9,1.8
2013,12,15,01:00,UTC,7,1023.1,0,89,0,7,-5.6,-7.2,14560,158,3.8,1.7
2013,12,15,02:00,UTC,9,1022.2,0.1,91,0,7,-5,-6.2,1830,151,4.7,2.7
2013,12,15,03:00,UTC,7,1021,0.3,91,0,7,-4.1,-5.4,6910,150,6.8,3.2
2013,12,15,04:00,UTC,8,1020.3,0,89,0,7,-3.8,-5.3,23820,153,6.9,3.9
2013,12,15,05:00,UTC,8,1019.7,0,83,0,7,-3.3,-5.7,22340,155,8.9,3.8
2013,12,15,06:00,UTC,8,1018.9,0.2,88,0.3,7,-3.4,-5,2830,157,7.9,3.7
2013,12,15,07:00,UTC,7,1017.9,0.5,92,0.5,8,-3.3,-4.4,1510,153,8.7,4.2
2013,12,15,08:00,UTC,9,1017.2,0.7,93,1.3,8,-3.4,-4.4,820,154,9.5,4.6
2013,12,15,09:00,UTC,8,1016.6,0.4,93,0,8,-2.9,-4,16520,162,8.1,4.3
2013,12,15,10:00,UTC,8,1016.2,0,93,0,8,-2.7,-3.7,2780,163,6.9,3.3
2013,12,15,11:00,UTC,8,1015.6,0.1,94,0.4,8,-2.4,-3.3,3680,159,5.3,2.9
2013,12,15,12:00,UTC,8,1014.9,0.1,94,0,8,-2,-2.9,12170,168,7.3,3
2013,12,15,13:00,UTC,7,1014.9,0,94,0,8,-1.7,-2.5,28240,156,5.7,2.9
2013,12,15,14:00,UTC,8,1014.5,0,94,0,8,-1.6,-2.4,11460,150,4.5,2.5
2013,12,15,15:00,UTC,8,1014,0,94,0,8,-1.3,-2.1,50000,148,6.1,2.8
2013,12,15,16:00,UTC,8,1013.6,0,95,0,8,-1.2,-1.9,36300,157,6.1,2.9
2013,12,15,17:00,UTC,8,1013.6,0,95,0,8,-0.9,-1.5,14810,152,5.5,2.6
2013,12,15,18:00,UTC,8,1013.4,0,96,0,8,-0.5,-1.1,4520,157,6.1,2.8
2013,12,15,19:00,UTC,8,1013.1,0.1,96,0.4,8,-0.3,-0.8,1970,159,7.6,2.9
2013,12,15,20:00,UTC,8,1012.9,0.3,97,0.5,8,-0.1,-0.6,3270,162,6.6,2.9
2013,12,15,21:00,UTC,8,1012.8,0.5,97,0.7,9,0,-0.4,1820,155,4.5,2.3
2013,12,15,22:00,UTC,8,1012.6,0.5,97,0.3,9,0.2,-0.2,3170,171,5.6,2.6
2013,12,15,23:00,UTC,8,1012.5,0.1,97,0,9,0.3,-0.1,5150,167,3,1.6
2013,12,16,00:00,UTC,8,1012.8,0.2,97,0,9,0.4,0,5010,157,4.3,1.6
2013,12,16,01:00,UTC,8,1012.8,0.1,97,0,9,0.6,0.2,2350,186,4.5,1.6
2013,12,16,02:00,UTC,8,1012.8,0,97,0,9,0.9,0.5,1480,190,3.1,1.4
2013,12,16,03:00,UTC,8,1012.5,0,97,0,9,0.8,0.4,880,188,3.5,2
2013,12,16,04:00,UTC,9,1012.8,0,97,0,9,0.9,0.5,530,180,2.3,1.2
2013,12,16,05:00,UTC,9,1012.5,0,97,0,9,0.8,0.5,530,148,2.6,1.3
2013,12,16,06:00,UTC,8,1012.8,0,97,0,8,1.1,0.7,1780,180,3.1,1.5
2013,12,16,07:00,UTC,8,1012.2,0,97,0,8,1.4,1,8050,188,4.5,2
2013,12,16,08:00,UTC,8,1012.2,0,97,0,8,1.4,1,9930,190,6,2.8
2013,12,16,09:00,UTC,8,1011.6,0,97,0,8,1.3,0.9,7240,186,5.3,2.5
2013,12,16,10:00,UTC,8,1011.7,0,97,0,8,1.4,1,8700,189,4.5,2.5
2013,12,16,11:00,UTC,8,1011,0,97,0,8,1.4,1,11620,186,6.8,3.6
2013,12,16,12:00,UTC,8,1010.3,0,97,0,8,1.4,1,9870,184,5.8,3.5
2013,12,16,13:00,UTC,8,1009.2,0,97,0,8,1.4,1,16010,167,5.1,2.3
2013,12,16,14:00,UTC,8,1008.2,0,97,0,8,1.6,1.1,20080,164,6,3.1
2013,12,16,15:00,UTC,8,1007,0,96,0,7,1.8,1.3,7580,160,8.1,3.6
2013,12,16,16:00,UTC,8,1005.8,0,96,0,7,2,1.5,2940,172,5.7,2.8
2013,12,16,17:00,UTC,8,1004.9,0.1,96,0,7,2.3,1.8,4820,170,6,2.7
2013,12,16,18:00,UTC,8,1004.7,0.3,96,0.5,7,2.6,2.1,2630,163,4.8,2.4
2013,12,16,19:00,UTC,8,1003.8,0.3,96,0.7,6,2.9,2.4,3180,172,4.9,2.1
2013,12,16,20:00,UTC,8,1002.4,0.1,96,0.3,6,3.2,2.6,2170,173,6.2,2.7
2013,12,16,21:00,UTC,8,1001.3,0.2,97,0,6,3.2,2.7,2900,166,5.6,2.5
2013,12,16,22:00,UTC,8,1000.2,0.2,97,0.3,6,3.5,3,2420,168,6.1,2.7
2013,12,16,23:00,UTC,8,998.4,0.3,97,0,6,3.9,3.4,10970,177,6,2.8
2013,12,17,00:00,UTC,8,996.5,0.1,96,0.2,5,4.5,3.9,6790,183,9,4.5
2013,12,17,01:00,UTC,8,994.9,0.1,96,0,5,5,4.4,49110,196,11.3,4.3
2013,12,17,02:00,UTC,8,993.4,0.1,92,0,5,5.9,4.7,41810,206,13.3,5.3
2013,12,17,03:00,UTC,7,993,0.9,90,0.6,4,5.4,4,12530,213,11.2,4.4
2013,12,17,04:00,UTC,7,992.6,0.7,89,0.4,3,4.9,3.3,15530,222,11.9,5.3
2013,12,17,05:00,UTC,8,994.2,0.4,87,0.7,2,3.8,1.8,24670,268,21,7.5
2013,12,17,06:00,UTC,7,997.3,0,87,0,2,2.7,0.7,50000,285,15.4,7.5
2013,12,17,07:00,UTC,7,999.3,0,88,0,2,2.5,0.7,50000,278,9.6,5.2
2013,12,17,08:00,UTC,7,1001.2,0,87,0,2,2.4,0.4,50000,272,8.5,4.7
2013,12,17,09:00,UTC,7,1002.9,0,86,0,2,2.3,0.1,50000,274,9.2,4.8
2013,12,17,10:00,UTC,7,1004,0,85,0,0,2.4,0.1,50000,275,8.7,4.5
2013,12,17,11:00,UTC,3,1004.9,0,86,0,0,2.1,-0.1,50000,267,6.5,3
2013,12,17,12:00,UTC,7,1005.2,0,87,0,0,1.9,0,50000,278,5.1,2.8
2013,12,17,13:00,UTC,8,1006,0,87,0,0,1.7,-0.2,50000,278,5.7,2.5
2013,12,17,14:00,UTC,8,1006.3,0,86,0,0,1.8,-0.2,50000,266,4.5,2.1
2013,12,17,15:00,UTC,7,1006.3,0,88,0,0,1.3,-0.5,50000,244,3.6,1.9
2013,12,17,16:00,UTC,7,1006.4,0,92,0,0,0.2,-1,50000,219,3.2,1.6
2013,12,17,17:00,UTC,3,1006.6,0,94,0,0,-0.4,-1.3,31290,203,2.7,1.6
2013,12,17,18:00,UTC,1,1006.9,0,95,0,0,-0.1,-0.8,46380,210,3.6,2.5
2013,12,17,19:00,UTC,1,1007.3,0,95,0,0,-0.3,-1,47960,238,4.2,2.2
2013,12,17,20:00,UTC,7,1007.7,0,92,0,0,-0.2,-1.3,50000,257,6.4,3.2
2013,12,17,21:00,UTC,7,1008.3,0,90,0,0,-0.1,-1.5,50000,248,5.2,2.9
2013,12,17,22:00,UTC,5,1008.5,0,88,0,0,0,-1.7,50000,251,5.7,2.7
2013,12,17,23:00,UTC,3,1008.9,0,90,0,0,-0.5,-1.9,50000,231,3.7,1.5
2013,12,18,00:00,UTC,1,1009.2,0,92,0,0,-0.7,-1.8,50000,227,4,1.9
2013,12,18,01:00,UTC,0,1009.4,0,89,0,0,-0.5,-2.1,50000,256,6.9,3
2013,12,18,02:00,UTC,0,1009.8,0,90,0,0,-1,-2.5,50000,251,3.9,1.6
2013,12,18,03:00,UTC,0,1010.2,0,90,0,0,-1.8,-3.1,50000,251,3.2,1.3
2013,12,18,04:00,UTC,0,1010.6,0,87,0,0,-1,-2.9,50000,244,3.6,1.9
2013,12,18,05:00,UTC,0,1011.2,0,89,0,0,-1,-2.6,50000,262,4.7,2.4
2013,12,18,06:00,UTC,0,1011.3,0,86,0,0,-0.5,-2.6,50000,256,6.3,2.8
2013,12,18,07:00,UTC,0,1012.1,0,86,0,0,-0.5,-2.6,50000,266,6.5,3.3
2013,12,18,08:00,UTC,0,1013.2,0,87,0,0,-0.7,-2.6,50000,268,8.5,3.5
2013,12,18,09:00,UTC,0,1013.4,0,87,0,0,-0.8,-2.7,50000,264,6.9,3.7
2013,12,18,10:00,UTC,0,1014,0,87,0,0,-0.6,-2.6,50000,268,6.9,3.2
2013,12,18,11:00,UTC,0,1014.8,0,87,0,0,-0.7,-2.6,50000,269,6.4,3.4
2013,12,18,12:00,UTC,0,1015.2,0,86,0,0,-0.7,-2.7,50000,264,3.3,2
2013,12,18,13:00,UTC,0,1015.9,0,92,0,0,-2.7,-3.9,29160,182,2.7,1.6
2013,12,18,14:00,UTC,0,1015.8,0,90,0,0,-1.9,-3.2,46430,247,3.4,1.7
2013,12,18,15:00,UTC,0,1016.5,0,93,0,0,-2.8,-3.8,40450,234,3.2,1.8
2013,12,18,16:00,UTC,0,1016.3,0,91,0,0,-2.4,-3.6,42840,243,2.7,1.6
2013,12,18,17:00,UTC,0,1016.4,0,88,0,0,-1.6,-3.4,50000,240,4.7,2.4
2013,12,18,18:00,UTC,0,1016.8,0,91,0,0,-3.8,-5,37050,187,2.9,0.8
2013,12,18,19:00,UTC,7,1017,0,93,0,0,-2.9,-3.8,40230,222,3.8,1.8
2013,12,18,20:00,UTC,8,1017,0,95,0,0,-2.5,-3.2,15230,206,4.4,2.1
2013,12,18,21:00,UTC,8,1017.3,0,95,0,2,-2.3,-3,17270,198,4.3,2
2013,12,18,22:00,UTC,8,1017.3,0,94,0,0,-1.8,-2.6,17380,208,5.9,2.4
2013,12,18,23:00,UTC,8,1017.3,0,94,0,0,-1.6,-2.5,36200,206,6.1,2.7
2013,12,19,00:00,UTC,8,1017.4,0,92,0,0,-1.5,-2.6,38510,205,4.6,2.4
2013,12,19,01:00,UTC,8,1017.4,0,92,0,2,-1.4,-2.5,4720,194,4.3,1.6
2013,12,19,02:00,UTC,8,1017.1,0,94,0,2,-1.5,-2.4,17200,161,2.4,0.9
2013,12,19,03:00,UTC,8,1016.6,0.1,91,0,0,-1.3,-2.6,22510,201,7.6,3.1
2013,12,19,04:00,UTC,7,1016.3,0,89,0,0,-1.5,-3,26280,175,3.4,1.8
2013,12,19,05:00,UTC,8,1015.8,0,92,0,0,-1.2,-2.3,8600,190,4.1,1.9
2013,12,19,06:00,UTC,8,1015.3,0,92,0,2,-1,-2.1,17250,157,2.3,1.2
2013,12,19,07:00,UTC,8,1015.2,0,92,0,2,-0.6,-1.7,19660,158,3.4,1.7
2013,12,19,08:00,UTC,8,1015.2,0,91,0,2,-0.3,-1.6,24970,151,3.7,1.6
2013,12,19,09:00,UTC,7,1014.9,0,90,0,0,-0.2,-1.6,25420,145,4,1.6
2013,12,19,10:00,UTC,7,1014.5,0,88,0,0,0.2,-1.6,38060,166,4.6,2
2013,12,19,11:00,UTC,8,1014.1,0,87,0,0,0.5,-1.4,32180,152,4.2,2.3
2013,12,19,12:00,UTC,7,1014.2,0,93,0,2,-0.1,-1.1,4280,138,4.1,2.1
2013,12,19,13:00,UTC,8,1014.1,0,94,0,2,-0.2,-1,18530,146,3.6,1.7
2013,12,19,14:00,UTC,8,1013.9,0,93,0,2,-0.1,-1.1,19170,143,2.2,1.2
2013,12,19,15:00,UTC,8,1013.4,0,90,0,2,0,-1.5,31610,150,4,2.2
2013,12,19,16:00,UTC,8,1012.7,0,93,0,2,-0.2,-1.3,3500,153,4,2.4
2013,12,19,17:00,UTC,8,1012.5,0,89,0,2,0,-1.6,33060,156,5.2,2.7
2013,12,19,18:00,UTC,8,1012.2,0,90,0,2,-0.1,-1.6,16320,159,6.2,2.9
2013,12,19,19:00,UTC,8,1011.6,0,90,0,2,-0.2,-1.6,14070,151,5.8,2.9
2013,12,19,20:00,UTC,8,1011.3,0,90,0,2,-0.2,-1.7,32760,150,6.4,3
2013,12,19,21:00,UTC,8,1011.1,0,91,0,2,-0.1,-1.4,19650,149,5.6,3
2013,12,19,22:00,UTC,8,1010.4,0,93,0,2,0,-1.1,20970,148,6.8,3.4
2013,12,19,23:00,UTC,8,1010.4,0,93,0,2,0.1,-0.9,24280,152,7.2,3.8
2013,12,20,00:00,UTC,8,1009.7,0,93,0,3,0.2,-0.8,29740,147,6.8,3.5
2013,12,20,01:00,UTC,8,1009,0,93,0,2,0.4,-0.7,30830,145,7.8,3.8
2013,12,20,02:00,UTC,8,1008.4,0,93,0,2,0.5,-0.6,37460,144,6.6,3.1
2013,12,20,03:00,UTC,8,1007.4,0,92,0,2,0.7,-0.4,34190,142,6.1,3
2013,12,20,04:00,UTC,8,1006.6,0.1,93,0.8,2,0.7,-0.3,3510,148,7,3.8
2013,12,20,05:00,UTC,8,1006.4,1.3,96,1.5,2,0.2,-0.4,1260,149,6.5,3.2
2013,12,20,06:00,UTC,8,1005.4,1.2,96,1.1,4,0,-0.5,1190,148,6.5,3.3
2013,12,20,07:00,UTC,7,1005.1,1.7,97,2,5,0,-0.5,1010,154,7.2,3.3
2013,12,20,08:00,UTC,7,1004.6,1,97,0.5,6,0.1,-0.4,2130,155,5.4,2.7
2013,12,20,09:00,UTC,8,1004.3,0.2,97,0.3,6,0.1,-0.3,2740,166,5.1,2.4
2013,12,20,10:00,UTC,8,1004.1,0,97,0,6,0.3,-0.2,5990,181,4.1,1.9
2013,12,20,11:00,UTC,7,1004,0.1,97,0,6,0.3,-0.1,2030,181,4.9,2.3
2013,12,20,12:00,UTC,8,1004.1,0.1,97,0,6,0.6,0.2,6970,169,3.7,1.9
2013,12,20,13:00,UTC,7,1004.6,0,97,0,6,1.4,1,15730,211,4.9,2.5
2013,12,20,14:00,UTC,7,1005.3,0,97,0,6,1.6,1.2,29500,229,6.2,2.6
2013,12,20,15:00,UTC,7,1006,0,94,0,6,1.7,0.8,36970,254,9.4,2.8
2013,12,20,16:00,UTC,7,1006.2,0,90,0,6,1.7,0.2,26450,244,7.4,3.2
2013,12,20,17:00,UTC,7,1006.5,0,89,0,6,1.5,-0.2,22930,229,8.1,2.9
2013,12,20,18:00,UTC,7,1006.4,0,90,0,6,0.9,-0.6,18000,206,7,3.2
2013,12,20,19:00,UTC,7,1006.5,0,89,0,6,0.7,-0.9,18980,199,6.4,3.3
2013,12,20,20:00,UTC,8,1006.6,0,89,0,6,0.7,-1,17610,201,7.2,2.6
2013,12,20,21:00,UTC,7,1005.8,0,88,0,6,0.9,-0.9,19850,190,6.3,2.5
2013,12,20,22:00,UTC,8,1005.1,0,91,0,6,1.1,-0.2,7340,189,6.3,2.7
2013,12,20,23:00,UTC,7,1004.8,0,93,0,6,1.3,0.3,7480,191,6.2,2.5
2013,12,21,00:00,UTC,7,1004.6,0.1,93,0.5,6,1.3,0.2,8260,195,5.3,2.5
2013,12,21,01:00,UTC,7,1004,0.2,94,0,6,1,0.2,8960,191,5.3,2.1
2013,12,21,02:00,UTC,8,1003.6,0.1,92,0,6,1.4,0.3,37430,199,6,2.9
2013,12,21,03:00,UTC,7,1003.5,0.1,92,0.4,6,1.3,0.1,10110,197,8,3.4
2013,12,21,04:00,UTC,8,1003.6,0.1,92,0,6,1.2,0,11340,215,7.3,2.7
2013,12,21,05:00,UTC,7,1003.8,0.1,90,0,6,1.2,-0.2,17350,237,7,2.5
2013,12,21,06:00,UTC,7,1003.9,0,89,0,6,1.1,-0.5,50000,247,5.6,2.8
2013,12,21,07:00,UTC,7,1004.4,0,90,0,5,0.8,-0.6,50000,235,4.7,2.1
2013,12,21,08:00,UTC,7,1004.7,0,87,0,5,1,-1,50000,239,7.8,2.7
2013,12,21,09:00,UTC,8,1004.6,0,86,0,5,1,-1,50000,245,5.8,2.6
2013,12,21,10:00,UTC,7,1004.7,0,85,0,5,1,-1.3,50000,241,4.9,3
2013,12,21,11:00,UTC,8,1004.5,0,84,0,5,1,-1.5,50000,233,5.8,2.4
2013,12,21,12:00,UTC,8,1004.4,0,82,0,5,1.1,-1.6,50000,235,5.2,2
2013,12,21,13:00,UTC,8,1004.1,0,82,0,5,1.1,-1.6,50000,197,4.2,2.2
2013,12,21,14:00,UTC,8,1003.8,0,86,0,5,0.9,-1.2,50000,197,5.5,2.1
2013,12,21,15:00,UTC,8,1003.2,0,85,0,5,1,-1.3,50000,189,5.7,2.6
2013,12,21,16:00,UTC,8,1001.8,0,86,0,5,1.1,-1,45850,177,5.8,2.5
2013,12,21,17:00,UTC,8,1000.3,0,88,0,5,1.2,-0.6,39910,160,7.2,2.7
2013,12,21,18:00,UTC,8,998.8,0.3,94,0.8,6,0.4,-0.4,2030,154,4.1,2.5
2013,12,21,19:00,UTC,7,997.1,1.2,96,0.4,5,0.3,-0.2,7780,150,6.4,3.4
2013,12,21,20:00,UTC,8,996,0.5,96,0.8,6,0.9,0.4,4340,166,6.2,2.5
2013,12,21,21:00,UTC,8,994.7,0.6,96,0,6,1.6,1.1,19720,171,5.4,2.8
2013,12,21,22:00,UTC,8,994.2,0,96,0,6,3.1,2.5,29800,203,8,2.9
2013,12,21,23:00,UTC,8,994.1,0,94,0,6,3.8,3,18670,232,7.2,3.4
2013,12,22,00:00,UTC,8,994.5,0.1,94,0.3,5,4.1,3.2,6550,236,8,3.8
2013,12,22,01:00,UTC,8,995.3,0,93,0,5,4.1,3,24940,233,6.1,3.2
2013,12,22,02:00,UTC,7,996,0,91,0,5,3.8,2.5,32110,245,7.1,3.3
2013,12,22,03:00,UTC,8,996.3,0,91,0,5,3.7,2.4,24790,242,6.7,3.2
2013,12,22,04:00,UTC,8,996.3,0,90,0,4,3.5,1.9,18740,242,7.6,2.9
2013,12,22,05:00,UTC,8,996.7,0,89,0,4,3.4,1.8,16380,221,5.6,2
2013,12,22,06:00,UTC,8,996.7,0,89,0,3,3.5,1.8,12230,222,5.3,2.4
2013,12,22,07:00,UTC,8,996.4,0,91,0,3,3.4,2.1,8740,184,4,1.6
2013,12,22,08:00,UTC,8,996.1,0,92,0,3,3.7,2.5,9190,190,4.7,2.7
2013,12,22,09:00,UTC,8,995.8,0,92,0,3,3.8,2.6,11860,176,5.2,2.3
2013,12,22,10:00,UTC,8,995.5,0,91,0,2,4,2.6,14920,186,5.6,2.9
2013,12,22,11:00,UTC,8,994.4,0.2,95,0.2,2,3.5,2.8,6250,161,4.2,1.9
2013,12,22,12:00,UTC,8,993.3,0.1,96,0,2,3.5,2.8,10150,154,4.4,2.2
2013,12,22,13:00,UTC,7,992.2,1.8,96,4.8,2,3.3,2.7,3540,164,6.5,3
2013,12,22,14:00,UTC,8,991.2,1.7,95,0.8,0,2.9,2.2,5330,165,5.8,2.6
2013,12,22,15:00,UTC,8,990.6,0.1,95,0.4,0,3.3,2.6,15180,187,7.9,3.3
2013,12,22,16:00,UTC,7,990.3,0,94,0,0,3.3,2.4,13230,193,6.3,2.7
2013,12,22,17:00,UTC,7,989.3,0.1,93,0,0,3.1,2.2,8510,183,7.5,3.7
2013,12,22,18:00,UTC,8,988.4,0.1,92,0,0,3.2,2.1,19740,178,7.6,3.3
2013,12,22,19:00,UTC,8,987.6,0,91,0,0,3.1,1.7,14260,184,7,3.6
2013,12,22,20:00,UTC,7,987,0.4,90,1.1,0,2.9,1.4,10520,185,11.6,5
2013,12,22,21:00,UTC,8,986.7,0,89,0,0,2.8,1.3,8940,191,11.4,4.8
2013,12,22,22:00,UTC,8,986.3,0.5,88,0.2,0,3,1.2,11870,195,9.1,4.6
2013,12,22,23:00,UTC,8,986.3,0.2,88,0.4,0,3.1,1.3,8390,212,8.6,3.9
2013,12,23,00:00,UTC,8,986.7,0.3,86,0,0,3.4,1.2,11430,210,9.2,4.1
2013,12,23,01:00,UTC,8,986.8,0,86,0,0,3.3,1.1,12380,214,9.5,3.5
2013,12,23,02:00,UTC,7,986.9,0,83,0,0,3.3,0.7,14760,223,7.5,2.9
2013,12,23,03:00,UTC,7,986.9,0,80,0,0,3.4,0.3,21250,211,7.8,3
2013,12,23,04:00,UTC,8,987,0,86,0,0,2.8,0.7,11260,205,5.4,2.5
2013,12,23,05:00,UTC,7,986.8,0,86,0,0,2.6,0.5,26390,207,6.9,2.8
2013,12,23,06:00,UTC,8,986.8,0,87,0,0,2.8,0.8,25320,203,5,2.2
2013,12,23,07:00,UTC,8,986.7,0,88,0,0,2.8,0.9,15440,194,4.1,2.1
2013,12,23,08:00,UTC,8,986.7,0,89,0,0,2.8,1.1,19910,205,6.4,3.1
2013,12,23,09:00,UTC,7,986.9,0,84,0,0,2.9,0.5,47420,195,5.3,2.4
2013,12,23,10:00,UTC,8,986.7,0,86,0,0,2.5,0.4,35300,204,6.3,3
2013,12,23,11:00,UTC,7,986.9,0,89,0,0,2.2,0.5,10600,195,5.4,2.7
2013,12,23,12:00,UTC,8,986.7,0,91,0,0,2,0.7,10490,193,4.8,2.2
2013,12,23,13:00,UTC,8,986.9,0.4,93,0.5,0,1.5,0.5,8790,199,6.3,2.5
2013,12,23,14:00,UTC,8,987.1,0.2,94,0,0,1.4,0.6,13320,193,5,2.2
2013,12,23,15:00,UTC,8,987.4,0.1,94,0,0,1.5,0.6,27430,216,4.5,2.3
2013,12,23,16:00,UTC,8,987.8,0.1,93,0,0,1.5,0.5,12250,227,5.6,2.5
2013,12,23,17:00,UTC,8,988.2,0,93,0,0,1.4,0.5,13350,227,5.8,2.4
2013,12,23,18:00,UTC,8,989,0.1,93,0,0,1.5,0.5,9270,242,5.9,2.4
2013,12,23,19:00,UTC,7,990.1,0.1,94,0,0,1.3,0.5,5160,258,3.9,2.1
2013,12,23,20:00,UTC,8,991.2,0.1,92,0,0,1.4,0.1,50000,262,5.9,2.7
2013,12,23,21:00,UTC,7,992.7,0,91,0,0,0.8,-0.6,39890,283,6.2,3.7
2013,12,23,22:00,UTC,7,993.9,0,89,0,0,0.8,-0.8,49970,278,7.2,3.7
2013,12,23,23:00,UTC,8,995.3,0,90,0,0,0.8,-0.7,30100,270,7.5,3.5
2013,12,24,00:00,UTC,8,996.2,0,90,0,0,1,-0.5,44290,283,7.4,3.5
2013,12,24,01:00,UTC,8,997.4,0,89,0,0,1.1,-0.5,50000,269,5.5,2.8
2013,12,24,02:00,UTC,8,998.3,0,89,0,0,1.3,-0.2,49830,259,4.6,2
2013,12,24,03:00,UTC,7,999.3,0,88,0,0,1.3,-0.4,50000,237,4.8,2
2013,12,24,04:00,UTC,7,1000,0,88,0,0,0.7,-1,50000,229,6.6,3
2013,12,24,05:00,UTC,8,1000.8,0,87,0,0,0.4,-1.5,50000,227,8,3.4
2013,12,24,06:00,UTC,8,1001.3,0,88,0,0,0.3,-1.5,50000,213,6.1,3
2013,12,24,07:00,UTC,8,1001.6,0,85,0,0,0.4,-1.8,50000,193,5.2,2.6
2013,12,24,08:00,UTC,8,1001.8,0,86,0,0,0.4,-1.7,50000,181,5.2,2.4
2013,12,24,09:00,UTC,8,1002,0,86,0,0,0.5,-1.6,46760,168,5.1,2.8
2013,12,24,10:00,UTC,8,1001.8,0,86,0,0,0.8,-1.2,29890,158,6.9,3.1
2013,12,24,11:00,UTC,7,1001.3,0,88,0,0,0.9,-0.9,23050,135,5,2.4
2013,12,24,12:00,UTC,8,1000.3,0,88,0,0,1.1,-0.7,22060,148,7.3,3.7
2013,12,24,13:00,UTC,8,999.8,0,88,0,0,1.2,-0.5,16380,152,6.1,3.2
2013,12,24,14:00,UTC,8,998.9,0.1,91,0.5,0,1.1,-0.2,5910,143,6.2,3.4
2013,12,24,15:00,UTC,8,998,0.1,93,0,0,1.3,0.2,12370,146,7,3.5
2013,12,24,16:00,UTC,8,996.7,0.1,93,0,0,1.6,0.5,9330,150,9.7,4.5
2013,12,24,17:00,UTC,8,995.8,0.1,93,0.4,0,1.8,0.8,11240,153,9.7,4.7
2013,12,24,18:00,UTC,8,995.3,0.9,95,1,0,1.5,0.7,9430,151,9.3,4.1
2013,12,24,19:00,UTC,8,994.6,1.3,95,1.3,0,1.3,0.6,6970,150,8,3.6
2013,12,24,20:00,UTC,8,994.4,1.6,95,1.6,0,1.2,0.5,8090,155,7.9,3.9
2013,12,24,21:00,UTC,8,993.8,0.6,96,0,0,2,1.4,13780,154,8,4.1
2013,12,24,22:00,UTC,7,993.6,0.1,96,0,0,3.1,2.5,8050,159,8,3.5
2013,12,24,23:00,UTC,8,993.4,0,96,0,0,3.7,3.1,6730,169,7.7,3.5
2013,12,25,00:00,UTC,7,993.5,0.2,96,0.4,0,3.8,3.2,4150,164,6.2,3.8
2013,12,25,01:00,UTC,8,993.5,0.5,96,1.1,0,3.8,3.3,3660,159,5.9,3.2
2013,12,25,02:00,UTC,8,993.3,0.8,96,0.5,0,3.9,3.4,5530,160,6.8,3
2013,12,25,03:00,UTC,8,993.1,0.4,96,0.8,0,4.1,3.4,7490,165,8.4,3.1
2013,12,25,04:00,UTC,8,993,0.7,96,0.4,0,4.1,3.5,8110,166,8.7,3.9
2013,12,25,05:00,UTC,8,993.2,0.3,96,0.8,0,4.1,3.5,5910,160,6.9,3.3
2013,12,25,06:00,UTC,8,993.3,0.1,96,0,0,4,3.5,7320,158,6.1,3.5
2013,12,25,07:00,UTC,8,994,0,96,0,0,4.2,3.6,5540,169,9.6,3.5
2013,12,25,08:00,UTC,8,994.6,0,96,0,0,4.3,3.8,3320,165,6.6,3.4
2013,12,25,09:00,UTC,8,994.9,0.1,96,0,0,4.4,3.8,3580,162,6.2,2.8
2013,12,25,10:00,UTC,7,995.2,0.1,96,0,0,4.3,3.8,3980,162,7.2,3.5
2013,12,25,11:00,UTC,8,995.5,0,96,0,0,4.3,3.7,3750,164,7,2.9
2013,12,25,12:00,UTC,8,995.4,0.1,96,0.2,0,4,3.5,4190,164,5.5,2.8
2013,12,25,13:00,UTC,8,995.2,0.4,96,0.2,0,4,3.5,5840,161,6.4,2.7
2013,12,25,14:00,UTC,8,995.2,0.5,96,0.6,0,3.9,3.3,7780,157,6.9,3.1
2013,12,25,15:00,UTC,8,995.2,0.5,96,0.5,0,3.8,3.2,6280,150,5.2,2.6
2013,12,25,16:00,UTC,8,994.9,0.4,96,0.4,0,3.8,3.2,5470,152,6.8,3.6
2013,12,25,17:00,UTC,8,994.6,0.4,96,0.2,0,3.5,2.9,4970,150,8.9,3.8
2013,12,25,18:00,UTC,8,994.5,0.2,96,0,0,3.2,2.6,4330,150,8.2,3.2
2013,12,25,19:00,UTC,8,994,0.1,96,0,0,3.1,2.5,4070,154,8,3.9
2013,12,25,20:00,UTC,8,993.8,0.1,96,0,0,3.1,2.5,5030,155,7.1,3.3
2013,12,25,21:00,UTC,7,993.6,0.6,95,0,0,3.3,2.6,5880,157,9.8,4.6
2013,12,25,22:00,UTC,7,994.2,0.1,94,0,0,3.2,2.3,7150,172,8.8,4
2013,12,25,23:00,UTC,8,994,0.6,95,1.1,0,3,2.4,3230,163,7.8,3
2013,12,26,00:00,UTC,8,993.8,0.1,95,0,0,3,2.3,5510,169,6.5,3.4
2013,12,26,01:00,UTC,8,993.7,0,96,0,0,3,2.4,6370,165,7.7,3.7
2013,12,26,02:00,UTC,8,993.8,0.1,96,0.3,0,3,2.5,2320,168,6.1,2.9
2013,12,26,03:00,UTC,8,994.1,0.2,96,0,0,3.4,2.8,2730,174,5.9,2.8
2013,12,26,04:00,UTC,8,993.7,0.1,96,0,0,3.6,3.1,4320,170,5.9,2.8
2013,12,26,05:00,UTC,8,994.4,0,97,0,0,3.9,3.4,4740,175,6.8,2.9
2013,12,26,06:00,UTC,8,996,0,96,0,0,4.2,3.6,8110,185,7.3,3
2013,12,26,07:00,UTC,8,996.2,0.2,96,0.4,0,4.2,3.6,8300,172,6.6,2.7
2013,12,26,08:00,UTC,8,996.7,0,95,0,0,4.4,3.7,9760,182,7.6,3.5
2013,12,26,09:00,UTC,7,997.7,0,93,0,0,4.6,3.6,32720,185,6.9,2.9
2013,12,26,10:00,UTC,7,998.5,0,89,0,0,4.7,3.1,42560,199,9.7,4.4
2013,12,26,11:00,UTC,5,999,0,90,0,0,4.3,2.8,30400,191,6.8,2.5
2013,12,26,12:00,UTC,3,999.6,0,87,0,0,4.1,2.1,30270,194,7.2,3.4
2013,12,26,13:00,UTC,1,1000.5,0,87,0,0,3.8,1.8,32250,191,9.1,4.5
2013,12,26,14:00,UTC,1,1000.9,0,86,0,0,3.4,1.4,34690,187,8.1,3.4
2013,12,26,15:00,UTC,5,1002,0,88,0,0,3,1.2,33230,190,6.6,2.5
2013,12,26,16:00,UTC,3,1002.4,0,88,0,0,2.8,1.1,30310,183,6,2.6
2013,12,26,17:00,UTC,1,1003.3,0,91,0,0,2.1,0.9,25700,166,4.3,2.2
2013,12,26,18:00,UTC,5,1003.6,0,91,0,0,2,0.7,24130,174,5.6,2.5
2013,12,26,19:00,UTC,7,1004.5,0,92,0,0,2.2,1.1,21910,176,4.4,2.3
2013,12,26,20:00,UTC,8,1005.1,0,89,0,0,2.7,1.1,25980,189,5.2,2.7
2013,12,26,21:00,UTC,7,1005.6,0,90,0,0,2.6,1.1,28100,175,4.3,1.6
2013,12,26,22:00,UTC,8,1005.5,0,91,0,0,2.4,1,24080,170,3.6,1.8
2013,12,26,23:00,UTC,8,1005.7,0,91,0,0,2.3,1,23350,154,2.8,1.5
2013,12,27,00:00,UTC,7,1005.3,0,91,0,0,2.5,1.2,21030,156,3.3,1.7
2013,12,27,01:00,UTC,7,1005.3,0,92,0,0,2.7,1.6,12430,151,2.9,1.4
2013,12,27,02:00,UTC,8,1005,0,93,0,0,2.5,1.5,9650,136,3,1.8
2013,12,27,03:00,UTC,8,1004.6,0,95,0,0,2.3,1.6,4800,149,3.9,2.1
2013,12,27,04:00,UTC,8,1004,0,96,0,0,2.1,1.6,2010,145,3.8,1.8
2013,12,27,05:00,UTC,8,1003.7,0,97,0,0,2,1.6,1650,134,4.1,2.2
2013,12,27,06:00,UTC,8,1003.2,0.2,97,0.4,0,2,1.5,1640,147,4.9,2.3
2013,12,27,07:00,UTC,7,1002.7,0.2,97,0.3,0,1.7,1.2,3140,143,4.2,2
2013,12,27,08:00,UTC,7,1002.2,0.1,97,0,0,1.8,1.3,4380,148,5.7,2.5
2013,12,27,09:00,UTC,8,1001.6,0,96,0,0,1.8,1.3,7350,154,6.1,3
2013,12,27,10:00,UTC,7,1000.9,0,96,0,0,1.9,1.4,11120,152,5.4,2.5
2013,12,27,11:00,UTC,8,1000.2,0,96,0,0,1.8,1.3,6490,145,5.7,2.7
2013,12,27,12:00,UTC,7,999.4,0.9,96,1.6,0,1.6,1.1,5740,153,5.3,2.3
2013,12,27,13:00,UTC,7,998.8,1.1,96,1,0,1.6,1.1,5640,146,5.3,2.5
2013,12,27,14:00,UTC,8,997.8,0.9,96,0.5,0,2,1.5,14290,148,5.8,3.2
2013,12,27,15:00,UTC,8,997.3,0.8,96,1.1,0,2.1,1.6,9190,151,5.2,2.9
2013,12,27,16:00,UTC,8,996.9,1.8,96,1.7,0,2.2,1.6,7710,164,7.3,3.3
2013,12,27,17:00,UTC,8,996.8,1.1,95,0,0,2.7,2.1,8390,164,9.3,3.6
2013,12,27,18:00,UTC,8,996.8,0.1,96,0,0,3,2.4,9360,166,7.7,3.8
2013,12,27,19:00,UTC,8,996.7,0.1,96,0,0,3.3,2.7,4540,168,7.9,3.3
2013,12,27,20:00,UTC,8,996.9,0.1,96,0.4,0,3.7,3.1,3820,168,7.1,3.2
2013,12,27,21:00,UTC,8,997.1,0.2,96,0.3,0,4.1,3.5,6520,185,8,3.6
2013,12,27,22:00,UTC,8,998.1,0,91,0,0,4.1,2.8,11340,192,9.1,4.9
2013,12,27,23:00,UTC,8,998.2,0,91,0,0,3.6,2.3,26560,191,5.1,2.8
2013,12,28,00:00,UTC,7,998.5,0,89,0,0,3.7,2.1,29320,188,7,3.5
2013,12,28,01:00,UTC,7,998.3,0,89,0,0,3.7,2.1,18900,169,6.7,2.9
2013,12,28,02:00,UTC,8,998,0,84,0,0,4,1.6,32400,179,10,3.6
2013,12,28,03:00,UTC,7,997,0,88,0,0,3.7,1.9,15820,161,7.7,3.8
2013,12,28,04:00,UTC,8,996.4,0,91,0,0,3.6,2.3,6800,171,8.9,4.7
2013,12,28,05:00,UTC,8,995.9,0.3,93,0.2,0,3.6,2.5,10170,170,8,4.4
2013,12,28,06:00,UTC,8,995.4,0.2,93,0,0,3.8,2.8,17480,174,9.2,4.2
2013,12,28,07:00,UTC,7,996.1,0.2,92,0,0,4.1,2.9,12630,182,9.4,4.6
2013,12,28,08:00,UTC,8,996.9,0.2,94,0,0,4.2,3.2,5150,184,8.4,4.2
2013,12,28,09:00,UTC,8,997.4,0.1,93,0,0,4.5,3.4,21070,188,8,3.7
2013,12,28,10:00,UTC,8,997.6,0,92,0,0,4.7,3.5,15730,184,9.3,4.6
2013,12,28,11:00,UTC,7,997.8,0,93,0,0,4.7,3.6,10240,176,8,3.5
2013,12,28,12:00,UTC,8,997.9,0,93,0,0,4.7,3.7,12470,179,8.3,3
2013,12,28,13:00,UTC,8,998.1,0,95,0,0,4.4,3.6,4900,167,7.7,3.4
2013,12,28,14:00,UTC,8,997.8,0,95,0,0,4.2,3.6,3920,166,6.8,3.4
2013,12,28,15:00,UTC,8,997.5,0,95,0,0,4.2,3.5,4130,161,9.5,4.2
2013,12,28,16:00,UTC,8,997.3,0,95,0,0,4.2,3.4,7010,161,6.9,3.8
2013,12,28,17:00,UTC,8,997.5,0.7,95,1.1,0,4,3.4,7070,167,6.4,2.5
2013,12,28,18:00,UTC,8,996.9,1.1,95,1.1,0,4,3.3,9830,176,4.9,2.5
2013,12,28,19:00,UTC,7,996.9,0.8,94,0.9,0,3.7,2.9,23670,173,7.5,3
2013,12,28,20:00,UTC,8,996.5,0.5,95,1.1,0,3.6,2.8,6780,173,4.6,2.1
2013,12,28,21:00,UTC,8,995.9,1,95,0.6,0,3.6,2.8,12100,173,6.5,3
2013,12,28,22:00,UTC,8,995.9,1,95,1.1,0,3.5,2.8,8680,174,5.7,3.2
2013,12,28,23:00,UTC,7,996,0.6,94,0,0,3.6,2.8,25750,169,6.1,2.5
2013,12,29,00:00,UTC,8,996.3,0.1,94,0,0,3.8,2.9,46100,199,6.5,3.3
2013,12,29,01:00,UTC,7,996.4,0.1,94,0,0,3.8,3,50000,193,6,2.8
2013,12,29,02:00,UTC,8,997,0,92,0,0,4.3,3.1,39410,195,7.5,3.9
2013,12,29,03:00,UTC,7,996.9,0,92,0,0,4.1,3,42310,185,7.3,3
2013,12,29,04:00,UTC,0,996.6,0,91,0,0,3.8,2.4,34670,189,7.4,3.2
2013,12,29,05:00,UTC,7,996.7,0,90,0,0,3.8,2.2,29860,189,7.5,3.9
2013,12,29,06:00,UTC,8,997.3,0,87,0,0,4,2,33830,203,9.1,4.2
2013,12,29,07:00,UTC,7,997.8,0,85,0,0,3.9,1.6,36660,201,8.4,3.8
2013,12,29,08:00,UTC,7,998.3,0,83,0,0,3.8,1.3,37930,206,9.6,3.9
2013,12,29,09:00,UTC,8,998.9,0,84,0,0,3.8,1.3,35630,201,8.1,3.8
2013,12,29,10:00,UTC,7,999,0,83,0,0,3.8,1.2,37240,196,7.6,3.7
2013,12,29,11:00,UTC,8,999.1,0,82,0,0,3.9,1.1,36420,196,8.4,3.4
2013,12,29,12:00,UTC,8,999.7,0,83,0,0,3.7,1,30430,198,6.6,2.8
2013,12,29,13:00,UTC,8,999.7,0,82,0,0,3.6,0.9,35980,198,8.2,2.7
2013,12,29,14:00,UTC,8,999.8,0,82,0,0,3.2,0.5,31150,188,5,2.4
2013,12,29,15:00,UTC,8,1000,0,83,0,0,3,0.4,35330,177,4.1,1.9
2013,12,29,16:00,UTC,8,1000.1,0,83,0,0,3.1,0.4,36480,179,4.7,2.3
2013,12,29,17:00,UTC,8,1000.2,0,79,0,0,3.2,-0.1,33210,195,9.4,4.2
2013,12,29,18:00,UTC,8,1000.1,0,81,0,0,2.8,-0.1,29980,194,3.6,2
2013,12,29,19:00,UTC,8,1000.4,0,81,0,0,2.6,-0.4,27640,192,6.1,2.5
2013,12,29,20:00,UTC,8,1000.3,0,81,0,0,2.6,-0.3,26380,176,3.7,1.9
2013,12,29,21:00,UTC,8,1000.3,0,81,0,0,2.7,-0.2,30470,197,6.1,2.6
2013,12,29,22:00,UTC,8,1000.6,0,80,0,0,2.8,-0.3,30100,196,7.5,3.2
2013,12,29,23:00,UTC,8,1000.6,0,83,0,0,2.6,0,17700,186,5.2,2.3
2013,12,30,00:00,UTC,8,1000.4,0,82,0,0,2.5,-0.3,34070,185,3.9,1.8
2013,12,30,01:00,UTC,8,1000.4,0,81,0,0,2.6,-0.3,38670,173,4.3,1.9
2013,12,30,02:00,UTC,8,1000.2,0,83,0,0,2.6,0,36460,177,3.2,1.6
2013,12,30,03:00,UTC,8,1000.1,0,86,0,0,2.6,0.4,34590,186,4.1,1.8
2013,12,30,04:00,UTC,8,1000,0,87,0,0,2.9,1,19330,184,5,2.5
2013,12,30,05:00,UTC,8,1000.2,0,91,0,0,2.8,1.5,31190,186,3.9,1.8
2013,12,30,06:00,UTC,8,1000.3,0.1,94,0,0,2.7,1.8,3840,199,4.5,1.7
2013,12,30,07:00,UTC,8,1001,0.1,93,0.3,0,2.9,1.9,6620,231,4.7,2.1
2013,12,30,08:00,UTC,7,1001.8,0,90,0,0,2.8,1.3,50000,216,4.8,1.9
2013,12,30,09:00,UTC,7,1002.4,0,83,0,0,2.6,0,50000,235,4.8,2.3
2013,12,30,10:00,UTC,8,1002.8,0,80,0,0,2.8,-0.3,50000,218,7.3,2.8
2013,12,30,11:00,UTC,8,1003.3,0,80,0,0,2.5,-0.5,36170,230,6.3,2.6
2013,12,30,12:00,UTC,8,1004.1,0,87,0,0,1.9,0,18870,217,4.5,1.6
2013,12,30,13:00,UTC,8,1005,0.1,92,0,0,1.4,0.2,6270,220,3.8,1.6
2013,12,30,14:00,UTC,8,1005.6,0.1,93,0,0,1.5,0.5,4820,225,3.9,1.9
2013,12,30,15:00,UTC,8,1006.3,0,93,0,0,1.9,0.8,45070,255,5,2.3
2013,12,30,16:00,UTC,8,1007.2,0,89,0,0,1.9,0.3,50000,265,5.8,2.6
2013,12,30,17:00,UTC,8,1008,0,87,0,0,1.8,0,50000,261,6.3,3
2013,12,30,18:00,UTC,8,1008.8,0,87,0,0,1.7,-0.3,50000,260,6.7,3.3
2013,12,30,19:00,UTC,8,1009.5,0,86,0,0,1.7,-0.4,50000,262,5.1,2.3
2013,12,30,20:00,UTC,8,1010.2,0,85,0,0,1.5,-0.8,50000,252,6.8,3.3
2013,12,30,21:00,UTC,8,1011,0,85,0,0,1.2,-1.1,50000,246,7.2,3.3
2013,12,30,22:00,UTC,5,1011.7,0,87,0,0,0.5,-1.4,50000,226,5,1.8
2013,12,30,23:00,UTC,3,1012.1,0,88,0,0,0.1,-1.6,50000,258,6.1,2.5
2013,12,31,00:00,UTC,1,1012.4,0,89,0,0,-0.3,-1.8,50000,251,5.4,2.4
2013,12,31,01:00,UTC,1,1013,0,90,0,0,-0.5,-2,50000,235,5.2,2.4
2013,12,31,02:00,UTC,7,1013.2,0,89,0,0,-0.6,-2.3,50000,236,7.6,3.2
2013,12,31,03:00,UTC,7,1013.3,0,87,0,0,-0.4,-2.3,50000,229,5.1,2.6
2013,12,31,04:00,UTC,7,1013.7,0,85,0,0,0,-2.2,50000,210,6,2.6
2013,12,31,05:00,UTC,8,1013.9,0,86,0,0,0.3,-1.7,48850,208,3.5,1.6
2013,12,31,06:00,UTC,8,1013.6,0.2,93,0,0,0,-0.9,3690,156,2.6,1.6
2013,12,31,07:00,UTC,8,1013.4,0.5,96,0.5,0,-0.1,-0.7,1630,149,3.7,1.9
2013,12,31,08:00,UTC,8,1013.2,0.8,96,0,0,0.1,-0.4,,152,4.2,1.8
2013,12,31,09:00,UTC,8,1013.1,0,96,0,0,0.5,-0.1,16600,174,5.3,2.5
2013,12,31,10:00,UTC,8,1012.8,0,95,0,0,1.1,0.4,13310,177,5.3,2.5
2013,12,31,11:00,UTC,8,1012.7,0,94,0,0,1.7,0.9,14570,179,5.3,2.5
2013,12,31,12:00,UTC,8,1012.6,0,93,0,0,2.1,1.1,15980,188,5.8,3
2013,12,31,13:00,UTC,8,1012.7,0,92,0,0,2.2,1.1,19400,193,6.1,2.5
2013,12,31,14:00,UTC,8,1012.5,0,92,0,0,2,0.9,19540,175,3.5,1.8
2013,12,31,15:00,UTC,8,1012.7,0,91,0,0,2,0.6,27740,186,5.3,2.7
2013,12,31,16:00,UTC,8,1012.4,0,90,0,0,2.1,0.7,22300,194,6,2.8
2013,12,31,17:00,UTC,8,1012.2,0,93,0,0,2,1,10810,185,4.9,2.4
2013,12,31,18:00,UTC,8,1011.9,0.1,94,0,0,2.2,1.3,13030,177,4.3,2.2
2013,12,31,19:00,UTC,8,1011.5,0,93,0,0,2.6,1.5,11560,166,4.9,1.9
2013,12,31,20:00,UTC,8,1011.2,0.1,93,0,0,2.8,1.8,10710,170,5.7,2.5
2013,12,31,21:00,UTC,8,1010.9,0,90,0,0,3.2,1.8,23120,186,7.1,2.9
2013,12,31,22:00,UTC,8,1010.4,0,87,0,0,3.5,1.5,24010,189,8,3.4
2013,12,31,23:00,UTC,8,1010.3,0,85,0,0,3.4,1.2,25290,195,7.3,3.6
2014,1,1,00:00,UTC,8,1010.1,0.4,91,0,0,2.9,1.6,9340,187,7.3,3.6
2014,1,1,01:00,UTC,7,1009.9,0.1,92,0,0,2.8,1.6,11580,191,5.8,3.4
2014,1,1,02:00,UTC,8,1009.9,0,92,0,0,2.7,1.6,10470,199,5.6,2.7
2014,1,1,03:00,UTC,8,1010.2,0,93,0,0,2.8,1.7,6300,201,5.6,2.7
2014,1,1,04:00,UTC,8,1010.4,0.4,94,0.2,0,2.9,2,4450,211,7,2.7
2014,1,1,05:00,UTC,8,1010.6,0.2,94,0.3,0,3,2.1,4350,218,5.8,2.7
2014,1,1,06:00,UTC,8,1011.3,0,93,0,0,3.2,2.1,15590,223,6.6,2.4
2014,1,1,07:00,UTC,7,1011.9,0,92,0,0,3.2,2.1,16640,222,5.4,2.5
2014,1,1,08:00,UTC,8,1012.9,0,90,0,0,3.3,1.8,18680,238,6,2.6
2014,1,1,09:00,UTC,8,1013.8,0,89,0,0,3.2,1.6,22570,241,4.9,2
2014,1,1,10:00,UTC,8,1014.3,0,88,0,0,3.2,1.4,21850,240,5.7,2.4
2014,1,1,11:00,UTC,8,1014.9,0,88,0,0,3.2,1.4,19280,237,3,1.2
2014,1,1,12:00,UTC,8,1015.5,0,91,0,0,2.9,1.5,11250,221,3.9,2.1
2014,1,1,13:00,UTC,8,1016.1,0,91,0,0,2.8,1.4,11400,210,3.4,1.3
2014,1,1,14:00,UTC,8,1016.5,0,92,0,0,2.6,1.4,10670,216,3.5,1.5
2014,1,1,15:00,UTC,8,1016.7,0,88,0,0,2.6,0.9,22080,204,3.1,1.1
2014,1,1,16:00,UTC,8,1016.8,0,92,0,0,2.1,0.9,14560,154,1.6,0.9
2014,1,1,17:00,UTC,8,1017.2,0,90,0,0,2.3,0.8,20460,176,3.2,1.5
2014,1,1,18:00,UTC,8,1017.4,0,90,0,0,2.3,0.7,19740,195,2.6,1.3
2014,1,1,19:00,UTC,8,1017.6,0,90,0,0,2,0.6,18080,171,1.9,0.9
2014,1,1,20:00,UTC,7,1017.8,0,91,0,0,2.1,0.8,8280,172,2.7,1.2
2014,1,1,21:00,UTC,8,1017.9,0.1,95,0,0,1.9,1.1,4950,156,2.1,1.1
2014,1,1,22:00,UTC,8,1018,0.1,96,0,0,1.8,1.2,5130,147,2.1,1.2
2014,1,1,23:00,UTC,7,1017.9,0.1,96,0,0,1.9,1.3,4380,159,3.3,1.5
2014,1,2,00:00,UTC,7,1018,0,96,0,0,1.7,1.2,5260,149,2.8,1.5